TAZID,OBJECTID,DISTRICT,SCHOOL,LEANUM,SCHOOLNUM,SCHOOLTYPE,EDTYPE,GRADELOW,GRADEHIGH,ADDRESS,CITY_2,ZIP,PHONE,WEB,ENROLL_FT,ENROLL_PT,ENROLL_TOT,Per_FT,Per_PT,data_source
1,,,,,,,,,,,,,,,,,,,,
2,,,,,,,,,,,,,,,,,,,,
3,,,,,,,,,,,,,,,,,,,,
4,,,,,,,,,,,,,,,,,,,,
5,,,,,,,,,,,,,,,,,,,,
6,,,,,,,,,,,,,,,,,,,,
7,,,,,,,,,,,,,,,,,,,,
8,,,,,,,,,,,,,,,,,,,,
9,,,,,,,,,,,,,,,,,,,,
10,,,,,,,,,,,,,,,,,,,,
11,,,,,,,,,,,,,,,,,,,,
12,,,,,,,,,,,,,,,,,,,,
13,,,,,,,,,,,,,,,,,,,,
14,,,,,,,,,,,,,,,,,,,,
15,,,,,,,,,,,,,,,,,,,,
16,,,,,,,,,,,,,,,,,,,,
17,,,,,,,,,,,,,,,,,,,,
18,,,,,,,,,,,,,,,,,,,,
19,,,,,,,,,,,,,,,,,,,,
20,,,,,,,,,,,,,,,,,,,,
21,,,,,,,,,,,,,,,,,,,,
22,,,,,,,,,,,,,,,,,,,,
23,,,,,,,,,,,,,,,,,,,,
24,,,,,,,,,,,,,,,,,,,,
25,,,,,,,,,,,,,,,,,,,,
26,,,,,,,,,,,,,,,,,,,,
27,,,,,,,,,,,,,,,,,,,,
28,,,,,,,,,,,,,,,,,,,,
29,,,,,,,,,,,,,,,,,,,,
30,,,,,,,,,,,,,,,,,,,,
31,,,,,,,,,,,,,,,,,,,,
32,,,,,,,,,,,,,,,,,,,,
33,,,,,,,,,,,,,,,,,,,,
34,,BOX ELDER,DISCOVERY SCHOOL,3,125,,Regular Education,K,5,810 N 500 W,BRIGHAM CITY,84302,4357344910,http://www.discovery.besd.net/,,,,,,
35,,,,,,,,,,,,,,,,,,,,
36,,BOX ELDER,NEW HORIZONS ACADEMY,MY,950,Private School,Special Education,2,12,575 N MAIN ST,BRIGHAM CITY,84302,4357340551,,,,,,,
37,,,,,,,,,,,,,,,,,,,,
38,,,,,,,,,,,,,,,,,,,,
39,,,,,,,,,,,,,,,,,,,,
40,,BOX ELDER,FOOTHILL SCHOOL,3,134,,Regular Education,K,5,820 N 100 E,BRIGHAM CITY,84302,4357344916,http://www.foothill.besd.net/,,,,,,
41,,,,,,,,,,,,,,,,,,,,
42,,,,,,,,,,,,,,,,,,,,
43,,,,,,,,,,,,,,,,,,,,
44,,,,,,,,,,,,,,,,,,,,
45,,,,,,,,,,,,,,,,,,,,
46,,,,,,,,,,,,,,,,,,,,
47,,BOX ELDER,BOX ELDER MIDDLE,3,408,,Regular Education,8,9,18 S 500 E,BRIGHAM CITY,84302,4357344880,http://www.bems.besd.net/,,,,,,
48,,,,,,,,,,,,,,,,,,,,
49,,,,,,,,,,,,,,,,,,,,
50,,,,,,,,,,,,,,,,,,,,
51,,,,,,,,,,,,,,,,,,,,
52,,,,,,,,,,,,,,,,,,,,
53,,,,,,,,,,,,,,,,,,,,
54,,,,,,,,,,,,,,,,,,,,
55,,,,,,,,,,,,,,,,,,,,
56,,,,,,,,,,,,,,,,,,,,
57,,,,,,,,,,,,,,,,,,,,
58,,,,,,,,,,,,,,,,,,,,
59,,,,,,,,,,,,,,,,,,,,
60,,,,,,,,,,,,,,,,,,,,
61,,,,,,,,,,,,,,,,,,,,
62,,BOX ELDER,TRIUMPH CENTER FOR YOUTH,NV,951,Private School,Residential Treatment,7,12,82 S 800 W,BRIGHAM CITY,84302,4357238548,,,,,,,
63,,,,,,,,,,,,,,,,,,,,
64,,BOX ELDER,DALE YOUNG COMMUNITY HIGH,3,778,,Alternative,5,12,230 W 200 S,BRIGHAM CITY,84302,4357344834,http://www.dych.besd.net/,,,,,,
65,,BOX ELDER,BOX ELDER HIGH,3,708,,Regular Education,10,12,380 S 600 W,BRIGHAM CITY,84302,4357344840,http://www.behs.besd.net/,,,,,,
66,,,,,,,,,,,,,,,,,,,,
67,,,,,,,,,,,,,,,,,,,,
68,,,,,,,,,,,,,,,,,,,,
69,,,,,,,,,,,,,,,,,,,,
70,,BOX ELDER,CATALYST PREPARATORY ACADEMY,NU,950,Private School,Residential Treatment,9,12,970 S 1025 W,BRIGHAM CITY,84302,4357234600,catalystrtc.com,,,,,,
70,,BOX ELDER,YOUNG INTERMEDIATE,3,308,,Regular Education,6,7,830 LAW DR,BRIGHAM CITY,84302,4357344940,http://www.acyi.besd.net/,,,,,,
71,,BOX ELDER,LAKE VIEW SCHOOL,3,150,,Regular Education,K,5,851 S 200 W,BRIGHAM CITY,84302,4357344922,http://www.lakeview.besd.net/,,,,,,
72,,,,,,,,,,,,,,,,,,,,
73,,,,,,,,,,,,,,,,,,,,
74,,,,,,,,,,,,,,,,,,,,
75,,,,,,,,,,,,,,,,,,,,
76,,,,,,,,,,,,,,,,,,,,
77,,,,,,,,,,,,,,,,,,,,
78,,,,,,,,,,,,,,,,,,,,
79,,BOX ELDER,MOUNTAIN VIEW SCHOOL,3,166,,Regular Education,K,5,650 E 700 S,BRIGHAM CITY,84302,4357344926,http://www.mountainview.besd.net/,,,,,,
80,,,,,,,,,,,,,,,,,,,,
81,,,,,,,,,,,,,,,,,,,,
82,,BOX ELDER,UTAH STATE UNIVERSITY BRIGHAM CITY CAMPUS,,,Regional Campus,Higher Education,,,265 W 1100 S,BRIGHAM CITY,84302,435 9191200,,195,639,834,0.23381295,0.76618705,https://www.usu.edu/aaa/enrollment.cfm
83,,,,,,,,,,,,,,,,,,,,
84,,,,,,,,,,,,,,,,,,,,
85,,,,,,,,,,,,,,,,,,,,
86,,,,,,,,,,,,,,,,,,,,
87,,,,,,,,,,,,,,,,,,,,
88,,BOX ELDER,THREE MILE CREEK SCHOOL,3,172,,Regular Education,2,5,1030 W 2625 S,PERRY,84302,4357344930,http://www.threemilecreek.besd.net/,,,,,,
89,,,,,,,,,,,,,,,,,,,,
90,,,,,,,,,,,,,,,,,,,,
91,,,,,,,,,,,,,,,,,,,,
92,,,,,,,,,,,,,,,,,,,,
93,,,,,,,,,,,,,,,,,,,,
94,,,,,,,,,,,,,,,,,,,,
95,,,,,,,,,,,,,,,,,,,,
96,,,,,,,,,,,,,,,,,,,,
97,,BOX ELDER,PROMONTORY SCHOOL OF EXPEDITIONARY LEARNING,6H,100,Charter School,Regular Education,K,8,1051 W 2700 S,PERRY,84302,4359191900,http://promontoryschool.org,,,,,,
98,,,,,,,,,,,,,,,,,,,,
99,,,,,,,,,,,,,,,,,,,,
100,,,,,,,,,,,,,,,,,,,,
101,,,,,,,,,,,,,,,,,,,,
102,,,,,,,,,,,,,,,,,,,,
103,,,,,,,,,,,,,,,,,,,,
104,,,,,,,,,,,,,,,,,,,,
105,,,,,,,,,,,,,,,,,,,,
106,,,,,,,,,,,,,,,,,,,,
107,,,,,,,,,,,,,,,,,,,,
108,,,,,,,,,,,,,,,,,,,,
109,,,,,,,,,,,,,,,,,,,,
110,,,,,,,,,,,,,,,,,,,,
111,,,,,,,,,,,,,,,,,,,,
112,,,,,,,,,,,,,,,,,,,,
113,,,,,,,,,,,,,,,,,,,,
114,,,,,,,,,,,,,,,,,,,,
115,,,,,,,,,,,,,,,,,,,,
116,,,,,,,,,,,,,,,,,,,,
117,,BOX ELDER,WILLARD SCHOOL,3,200,,Regular Education,K,1,40 W 50 S,WILLARD,84340,4357344934,http://www.willard.besd.net/,,,,,,
118,,,,,,,,,,,,,,,,,,,,
119,,,,,,,,,,,,,,,,,,,,
120,,,,,,,,,,,,,,,,,,,,
121,,,,,,,,,,,,,,,,,,,,
122,,,,,,,,,,,,,,,,,,,,
123,,,,,,,,,,,,,,,,,,,,
124,,,,,,,,,,,,,,,,,,,,
125,,,,,,,,,,,,,,,,,,,,
126,,,,,,,,,,,,,,,,,,,,
127,,,,,,,,,,,,,,,,,,,,
128,,,,,,,,,,,,,,,,,,,,
129,,,,,,,,,,,,,,,,,,,,
130,,,,,,,,,,,,,,,,,,,,
131,,,,,,,,,,,,,,,,,,,,
132,,,,,,,,,,,,,,,,,,,,
133,,,,,,,,,,,,,,,,,,,,
134,,,,,,,,,,,,,,,,,,,,
135,,,,,,,,,,,,,,,,,,,,
136,,,,,,,,,,,,,,,,,,,,
137,,,,,,,,,,,,,,,,,,,,
138,,,,,,,,,,,,,,,,,,,,
139,,,,,,,,,,,,,,,,,,,,
140,,,,,,,,,,,,,,,,,,,,
141,,,,,,,,,,,,,,,,,,,,
142,,,,,,,,,,,,,,,,,,,,
143,,,,,,,,,,,,,,,,,,,,
144,,,,,,,,,,,,,,,,,,,,
145,,,,,,,,,,,,,,,,,,,,
146,,,,,,,,,,,,,,,,,,,,
147,,,,,,,,,,,,,,,,,,,,
148,1255,WEBER COUNTY,PLAIN CITY SCHOOL,35,140,,Regular Education,K,6,2335 N 3600 W,PLAIN CITY,84404,8014524220,http://www.pce.weber.k12.ut.us,,,,,,
149,,,,,,,,,,,,,,,,,,,,
150,,,,,,,,,,,,,,,,,,,,
151,401,WEBER COUNTY,FARR WEST SCHOOL,35,113,,Regular Education,K,6,2190 W 2700 N,OGDEN,84404,8014524360,http://www.fwe.weber.k12.ut.us,,,,,,
152,1122,WEBER COUNTY,WAHLQUIST JR HIGH,35,416,,Regular Education,7,9,2656 N 2400 W,FARR WEST,84404,8014524640,http://www.wjr.weber.k12.ut.us,,,,,,
153,,,,,,,,,,,,,,,,,,,,
154,,,,,,,,,,,,,,,,,,,,
155,,,,,,,,,,,,,,,,,,,,
156,,,,,,,,,,,,,,,,,,,,
157,,,,,,,,,,,,,,,,,,,,
158,,,,,,,,,,,,,,,,,,,,
159,491,WEBER COUNTY,FREMONT HIGH,35,706,,Regular Education,10,12,1900 N 4700 W,PLAIN CITY,84404,8014524000,http://www.fhs.weber.k12.ut.us,,,,,,
160,,,,,,,,,,,,,,,,,,,,
161,,,,,,,,,,,,,,,,,,,,
162,,,,,,,,,,,,,,,,,,,,
163,,,,,,,,,,,,,,,,,,,,
164,,,,,,,,,,,,,,,,,,,,
165,,,,,,,,,,,,,,,,,,,,
166,,,,,,,,,,,,,,,,,,,,
167,,,,,,,,,,,,,,,,,,,,
168,,,,,,,,,,,,,,,,,,,,
169,519,WEBER COUNTY,WEST WEBER SCHOOL,35,164,,Regular Education,K,6,1033 N 1200 W,OGDEN,84404,8014524280,http://www.wsdpc.org,,,,,,
170,,,,,,,,,,,,,,,,,,,,
171,,,,,,,,,,,,,,,,,,,,
172,,,,,,,,,,,,,,,,,,,,
173,,,,,,,,,,,,,,,,,,,,
174,,,,,,,,,,,,,,,,,,,,
175,,,,,,,,,,,,,,,,,,,,
176,,,,,,,,,,,,,,,,,,,,
177,,,,,,,,,,,,,,,,,,,,
178,,,,,,,,,,,,,,,,,,,,
179,,,,,,,,,,,,,,,,,,,,
180,,,,,,,,,,,,,,,,,,,,
181,,,,,,,,,,,,,,,,,,,,
182,,,,,,,,,,,,,,,,,,,,
183,407,WEBER COUNTY,LOMOND VIEW SCHOOL,35,120,,Regular Education,K,6,3644 N 900 W,OGDEN,84414,8014524780,http://www.lve.weber.k12.ut.us,,,,,,
183,490,WEBER COUNTY,WEBER HIGH,35,704,,Regular Education,10,12,430 W WEBER HIGH DR,OGDEN,84414,8014763700,http://www.whs.weber.k12.ut.us,,,,,,
184,,,,,,,,,,,,,,,,,,,,
185,,,,,,,,,,,,,,,,,,,,
186,,,,,,,,,,,,,,,,,,,,
187,391,WEBER COUNTY,BATES SCHOOL,35,100,,Regular Education,K,6,850 E 3100 N,OGDEN,84414,8014524580,http://www.be.weber.k12.ut.us,,,,,,
188,,,,,,,,,,,,,,,,,,,,
189,520,WEBER COUNTY,NORTH OGDEN JR HIGH,35,402,,Regular Education,7,9,575 E 2900 N,OGDEN,84414,8014524800,http://www.noj.weber.k12.ut.us,,,,,,
190,,,,,,,,,,,,,,,,,,,,
191,411,WEBER COUNTY,NORTH OGDEN SCHOOL,35,128,,Regular Education,K,6,530 E 2650 N,OGDEN,84414,8014524300,http://www.noe.weber.k12.ut.us,,,,,,
192,,,,,,,,,,,,,,,,,,,,
193,,,,,,,,,,,,,,,,,,,,
194,,,,,,,,,,,,,,,,,,,,
195,,,,,,,,,,,,,,,,,,,,
196,404,WEBER COUNTY,MAJESTIC SCHOOL,35,121,,Regular Education,K,6,425 W 2550 N,OGDEN,84414,8014524260,http://www.mje.weber.k12.ut.us,,,,,,
196,734,WEBER COUNTY,ORION JR HIGH,35,405,,Regular Education,7,9,370 W 2000 N,HARRISVILLE,84414,8014524700,http://www.orion.weber.k12.ut.us,,,,,,
196,788,WEBER COUNTY,MARIA MONTESSORI ACADEMY,4G,100,Charter School,Regular Education,K,9,2505 N 200 E,OGDEN,84414,8018270150,http://www.mariamontessoriacademy.org/,,,,,,
197,,,,,,,,,,,,,,,,,,,,
198,,,,,,,,,,,,,,,,,,,,
199,,,,,,,,,,,,,,,,,,,,
200,53,WEBER COUNTY,GREENWOOD CHARTER SCHOOL,7J,100,Charter School,Regular Education,K,6,840 NORTH HIGHWAY 89,OGDEN,84404,8015902972,www.greenwoodcharter.org,,,,,,
201,,,,,,,,,,,,,,,,,,,,
202,,,,,,,,,,,,,,,,,,,,
203,,,,,,,,,,,,,,,,,,,,
204,398,WEBER COUNTY,GREEN ACRES SCHOOL,35,111,,Regular Education,K,6,640 E 1900 N,OGDEN,84414,8014524420,http://www.gae.weber.k12.ut.us,,,,,,
205,,,,,,,,,,,,,,,,,,,,
206,,,,,,,,,,,,,,,,,,,,
207,1125,OGDEN CITY,LINCOLN SCHOOL,37,139,,Regular Education,PK,6,1235 N CANFIELD DR,OGDEN,84404,8017377650,http://www.lces.ogden.k12.ut.us/,,,,,,
208,,,,,,,,,,,,,,,,,,,,
209,,,,,,,,,,,,,,,,,,,,
210,,,,,,,,,,,,,,,,,,,,
211,,,,,,,,,,,,,,,,,,,,
212,1234,WEBER COUNTY,VENTURE ACADEMY,3F,100,Charter School,Regular Education,K,12,495 N 1500 W,MARRIOTT-SLATERVILLE CITY,84404,8013933900,http://www.venturelearning.org,,,,,,
213,408,WEBER COUNTY,PIONEER SCHOOL,35,138,,Regular Education,K,6,250 N 1600 W,OGDEN,84404,8014524560,http://www.pe.weber.k12.ut.us,,,,,,
214,,,,,,,,,,,,,,,,,,,,
215,,,,,,,,,,,,,,,,,,,,
216,,,,,,,,,,,,,,,,,,,,
217,1261,OGDEN CITY,HERITAGE SCHOOL,37,119,,Regular Education,K,6,373 S 150 W,OGDEN,84404,8017378000,http://www.hees.ogdensd.org/,,,,,,
218,,,,,,,,,,,,,,,,,,,,
219,,,,,,,,,,,,,,,,,,,,
220,489,OGDEN CITY,OGDEN-WEBER ATC,1 3 4 35 37,44,Regional Campus,Higher Education,9,12,200 N WASHINGTON BLVD,OGDEN,84404,8016278300,http://www.owatc.edu/,2277,0,2277,1,0,https://www.collegetuitioncompare.com/edu/230490/ogden-weber-applied-technology-college/
221,561,OGDEN CITY,HIGHLAND JUNIOR HIGH,37,409,,Regular Education,7,9,325 GRAMERCY AVE,OGDEN,84404,8017377700,http://www.hjhs.ogden.k12.ut.us/,,,1235,,,
221,1259,OGDEN CITY,BONNEVILLE SCHOOL,37,103,,Regular Education,K,6,490 GRAMERCY AVE,OGDEN,84404,8017378900,http://www.bnes.ogden.k12.ut.us/,,,,,,
222,1260,OGDEN CITY,HILLCREST SCHOOL,37,123,,Regular Education,K,6,130 N ECCLES AVE,OGDEN,84404,8017377550,http://www.hces.ogden.k12.ut.us/,,,,,,
223,,,,,,,,,,,,,,,,,,,,
224,,,,,,,,,,,,,,,,,,,,
225,,,,,,,,,,,,,,,,,,,,
226,,,,,,,,,,,,,,,,,,,,
227,742,OGDEN CITY,SUMMIT VIEW,35,419,,Alternative,4,9,1100 ORCHARD AVE,OGDEN,84404,8014764960,,,,,,,
227,590,OGDEN CITY,CANYON VIEW PRESCHOOL,35,179,,Special Education,PK,,1100 ORCHARD AVE,OGDEN,84404,8016262516,,,,,,,
228,79,OGDEN CITY,BEN LOMOND HIGH,37,703,,Regular Education,10,12,1080 9TH STREET,OGDEN,84404,8017377900,http://www.blhs.ogden.k12.ut.us/,,,,,,
229,80,OGDEN CITY,HORACE MANN SCHOOL,37,131,,Regular Education,K,6,1300 - 9TH STREET,OGDEN,84404,8017377600,http://www.hmes.ogden.k12.ut.us/,,,,,,
229,652,OGDEN CITY,NORTH REGION DEAF,41,121,,Special Education,K,12,742 HARRISON BLVD,OGDEN,84404,8016294700,,,,,,,
229,634,OGDEN CITY,NORTH REGION BLIND,41,111,,Special Education,K,12,742 HARRISON BLVD,OGDEN,84404,8016294735,http://www.usdb.org,,,,,,
230,,,,,,,,,,,,,,,,,,,,
231,,,,,,,,,,,,,,,,,,,,
232,,,,,,,,,,,,,,,,,,,,
233,,,,,,,,,,,,,,,,,,,,
234,,,,,,,,,,,,,,,,,,,,
235,,,,,,,,,,,,,,,,,,,,
236,,,,,,,,,,,,,,,,,,,,
237,,,,,,,,,,,,,,,,,,,,
238,,,,,,,,,,,,,,,,,,,,
239,,,,,,,,,,,,,,,,,,,,
240,,,,,,,,,,,,,,,,,,,,
241,,,,,,,,,,,,,,,,,,,,
242,,,,,,,,,,,,,,,,,,,,
243,,,,,,,,,,,,,,,,,,,,
244,,,,,,,,,,,,,,,,,,,,
245,,,,,,,,,,,,,,,,,,,,
246,,,,,,,,,,,,,,,,,,,,
247,819,WEBER COUNTY,DEAMUDE ADVENTIST CHRISTIAN SCHOOL,NP,910,Private School,Regular Education,K,8,1765 W 2100 S,OGDEN,84401,8017313140,,,,,,,
248,,,,,,,,,,,,,,,,,,,,
249,,,,,,,,,,,,,,,,,,,,
250,,,,,,,,,,,,,,,,,,,,
251,,,,,,,,,,,,,,,,,,,,
252,,,,,,,,,,,,,,,,,,,,
253,,,,,,,,,,,,,,,,,,,,
254,,,,,,,,,,,,,,,,,,,,
255,402,WEBER COUNTY,KANESVILLE SCHOOL,35,114,,Regular Education,K,6,3112 S 3500 W,WEST HAVEN,84401,8014524680,http://www.ke.weber.k12.ut.us,,,,,,
256,814,WEBER COUNTY,QUEST ACADEMY,1F,100,Charter School,Regular Education,K,9,4862 W 4000 S,WEST HAVEN,84401,8017319859,http://www.questacademycharter.org,,,,,,
257,,,,,,,,,,,,,,,,,,,,
258,,,,,,,,,,,,,,,,,,,,
259,,,,,,,,,,,,,,,,,,,,
260,,,,,,,,,,,,,,,,,,,,
261,,,,,,,,,,,,,,,,,,,,
262,,,,,,,,,,,,,,,,,,,,
263,,,,,,,,,,,,,,,,,,,,
264,,,,,,,,,,,,,,,,,,,,
265,,,,,,,,,,,,,,,,,,,,
266,,,,,,,,,,,,,,,,,,,,
267,,,,,,,,,,,,,,,,,,,,
268,,,,,,,,,,,,,,,,,,,,
269,,,,,,,,,,,,,,,,,,,,
270,,,,,,,,,,,,,,,,,,,,
271,400,WEBER COUNTY,HOOPER SCHOOL,35,112,,Regular Education,K,6,5500 S 5900 W,HOOPER,84315,8014524320,http://www.he.weber.k12.ut.us,,,,,,
272,,,,,,,,,,,,,,,,,,,,
273,1254,WEBER COUNTY,COUNTRY VIEW SCHOOL,35,109,,Regular Education,K,6,4650 W 4800 S,WEST HAVEN CITY,84401,8014524400,http://www.cve.weber.k12.ut.us,,,,,,
273,1256,WEBER COUNTY,ROCKY MOUNTAIN JR HIGH,35,403,,Regular Education,7,9,4350 W 4800 S,WEST HAVEN CITY,84401,8014765220,http://www.rmjr.weber.k12.ut.us,,,,,,
274,,,,,,,,,,,,,,,,,,,,
275,668,WEBER COUNTY,FREEDOM SCHOOL,35,115,,Regular Education,K,6,4555 W 5500 S,HOOPER,84315,8014524100,http://www.fe.weber.k12.ut.us,,,,,,
276,620,WEBER COUNTY,WEST HAVEN SCHOOL,35,162,,Regular Education,K,6,4385 S 3900 W,WEST HAVEN,84401,8014524960,http://www.whe.weber.k12.ut.us,,,,,,
277,,,,,,,,,,,,,,,,,,,,
278,,,,,,,,,,,,,,,,,,,,
279,,,,,,,,,,,,,,,,,,,,
280,409,WEBER COUNTY,MIDLAND SCHOOL,35,123,,Regular Education,K,6,3100 W 4800 S,ROY,84067,8014765400,http://www.mie.weber.k12.ut.us,,,,,,
281,,,,,,,,,,,,,,,,,,,,
282,420,WEBER COUNTY,NORTH PARK SCHOOL,35,132,,Regular Education,K,6,4046 S 2175 W,ROY,84067,8014524340,http://www.npe.weber.k12.ut.us,,,,,,
283,513,WEBER COUNTY,VALLEY VIEW SCHOOL,35,158,,Regular Education,K,6,2465 W 4500 S,ROY,84067,8014765200,http://www.vve.weber.k12.ut.us,,,,,,
284,493,WEBER COUNTY,ROY HIGH,35,708,,Regular Education,10,12,2150 W 4800 S,ROY,84067,8014763600,http://www.rhs.weber.k12.ut.us,,,,,,
284,425,WEBER COUNTY,SAND RIDGE JR HIGH,35,406,,Regular Education,7,9,2075 W 4600 S,ROY,84067,8014765320,http://www.sridge.weber.k12.ut.us,,,,,,
285,,,,,,,,,,,,,,,,,,,,
286,,,,,,,,,,,,,,,,,,,,
287,,,,,,,,,,,,,,,,,,,,
288,,,,,,,,,,,,,,,,,,,,
289,,,,,,,,,,,,,,,,,,,,
290,11,WEBER COUNTY,ANGIE'S KINDER ACADEMY,AK,901,Private School,Regular Education,PK,,3523 WEST 5600 SOUTH,ROY,84067,8017317315,www.angieskinderacademy.net,,,,,,
290,1178,WEBER COUNTY,WSU WEST CENTER IN ROY,,,Regional Campus,Higher Education,,,5627 S 3500 W,ROY,84067,8016268900,,1235,0,1235,1,0,wfrc
291,,,,,,,,,,,,,,,,,,,,
292,416,WEBER COUNTY,ROY SCHOOL,35,152,,Regular Education,K,6,2888 W 5600 S,ROY,84067,8014524160,http://www.re.weber.k12.ut.us,,,,,,
293,,,,,,,,,,,,,,,,,,,,
294,403,WEBER COUNTY,LAKEVIEW SCHOOL,35,116,,Regular Education,K,6,2025 W 5000 S,ROY,84067,8014524380,http://www.le.weber.k12.ut.us,,,,,,
295,,,,,,,,,,,,,,,,,,,,
296,424,WEBER COUNTY,ROY JR HIGH,35,404,,Regular Education,7,9,5400 S 2100 W,ROY,84067,8014765260,,,,,,,
297,,,,,,,,,,,,,,,,,,,,
298,,,,,,,,,,,,,,,,,,,,
299,,,,,,,,,,,,,,,,,,,,
300,,,,,,,,,,,,,,,,,,,,
301,410,WEBER COUNTY,MUNICIPAL SCHOOL,35,124,,Regular Education,K,6,5775 S 2200 W,ROY,84067,8014524120,http://www.mue.weber.k12.ut.us,,,,,,
302,,,,,,,,,,,,,,,,,,,,
303,133,OGDEN CITY,WEBER INNOVATION HIGH SCHOOL,35,725,,Regular Education,9,12,1007 W 12TH STREET,OGDEN,84404,8014766500,innovation.wsd.net,,,,,,
303,1119,OGDEN CITY,TWO RIVERS HIGH,35,730,,Alternative,7,12,955 W 12TH ST,OGDEN,84404,8014763920,http://www.trhs.weber.k12.ut.us/,,,,,,
304,,,,,,,,,,,,,,,,,,,,
305,,,,,,,,,,,,,,,,,,,,
306,,,,,,,,,,,,,,,,,,,,
307,1220,OGDEN CITY,OAKGROVE SCHOOL,NL,951,Private School,Alternative,7,12,1325 WASHINGTON BLVD,OGDEN,84401,8013991402,,,,,,,
307,1139,OGDEN CITY,OGDEN PREPARATORY ACADEMY,68,100,Charter School,Regular Education,K,9,1415 LINCOLN AVE,OGDEN,84404,8016272066,http://www.ogdenprep.org,,,,,,
308,,,,,,,,,,,,,,,,,,,,
309,,,,,,,,,,,,,,,,,,,,
310,,,,,,,,,,,,,,,,,,,,
311,82,OGDEN CITY,MOUND FORT JUNIOR HIGH,37,411,,Regular Education,7,9,1400 MOUND FORT DR,OGDEN,84404,8017377800,http://www.mfjhs.ogden.k12.ut.us/,,,,,,
311,556,OGDEN CITY,GRAMERCY SCHOOL,37,111,,Regular Education,PK,6,1270 GRAMERCY AVE,OGDEN,84404,8017377500,http://www.gmes.ogden.k12.ut.us/,,,,,,
312,,,,,,,,,,,,,,,,,,,,
313,,,,,,,,,,,,,,,,,,,,
314,,,,,,,,,,,,,,,,,,,,
315,,,,,,,,,,,,,,,,,,,,
316,,,,,,,,,,,,,,,,,,,,
317,,,,,,,,,,,,,,,,,,,,
318,,,,,,,,,,,,,,,,,,,,
319,,,,,,,,,,,,,,,,,,,,
320,,,,,,,,,,,,,,,,,,,,
321,,,,,,,,,,,,,,,,,,,,
322,619,OGDEN CITY,DAVINCI ACADEMY,A3,700,Charter School,Regular Education,K,12,2033 GRANT AVE,OGDEN,84401,8014090700,http://www.davinciacademy.org,,,,,,
323,,,,,,,,,,,,,,,,,,,,
324,,,,,,,,,,,,,,,,,,,,
325,,,,,,,,,,,,,,,,,,,,
326,,,,,,,,,,,,,,,,,,,,
327,,,,,,,,,,,,,,,,,,,,
328,1180,OGDEN CITY,WEBER STATE DOWNTOWN,,,Regional Campus,Higher Education,,,2314 WASHINGTON BLVD,OGDEN,84401,8016268820,,,,,,,
329,,,,,,,,,,,,,,,,,,,,
330,,,,,,,,,,,,,,,,,,,,
331,,,,,,,,,,,,,,,,,,,,
332,,,,,,,,,,,,,,,,,,,,
333,,,,,,,,,,,,,,,,,,,,
334,,,,,,,,,,,,,,,,,,,,
335,,,,,,,,,,,,,,,,,,,,
336,,,,,,,,,,,,,,,,,,,,
337,,,,,,,,,,,,,,,,,,,,
338,84,OGDEN CITY,NEW BRIDGE SCHOOL,37,158,,Regular Education,K,6,2150 JEFFERSON AVE,OGDEN,84401,8017378100,nbes.ogdensd.org,,,,,,
339,,,,,,,,,,,,,,,,,,,,
340,81,OGDEN CITY,JAMES MADISON SCHOOL,37,151,,Regular Education,PK,6,2563 MONROE BLVD,OGDEN,84401,8017378200,http://www.jmes.ogden.k12.ut.us/,,,,,,
341,566,OGDEN CITY,SPEC EDUC ATC,37,620,,Special Education,7,12,1950 MONROE BLVD,OGDEN,84401,8016258700,,,,,,,
341,484,OGDEN CITY,OGDEN PRESCHOOL,37,100,,Special Education,PK,,1950 MONROE BLVD,OGDEN,84401,8017377300,,,,,,,
341,640,OGDEN CITY,CONTRACTED SPECIAL EDUCATION,37,182,,Special Education,K,12,1950 MONROE BLVD,OGDEN,84401,8017377300,,,,,,,
342,,,,,,,,,,,,,,,,,,,,
343,,,,,,,,,,,,,,,,,,,,
344,95,OGDEN CITY,YMCA OF NORTHERN UTAH - WEBER COUNTY,YM,901,Private School,Regular Education,PK,,893 E 24TH STREET,OGDEN,84401,8018393385,www.ymcautah.org,,,,,,
345,,,,,,,,,,,,,,,,,,,,
346,831,OGDEN CITY,TAYLOR CANYON SCHOOL,37,175,,Regular Education,K,6,2130 TAYLOR AVE,OGDEN,84401,8017378950,http://www.tces.ogdensd.org/,,,,,,
347,,,,,,,,,,,,,,,,,,,,
348,,,,,,,,,,,,,,,,,,,,
349,,,,,,,,,,,,,,,,,,,,
350,,,,,,,,,,,,,,,,,,,,
351,,,,,,,,,,,,,,,,,,,,
352,,,,,,,,,,,,,,,,,,,,
353,574,OGDEN CITY,GEORGE WASHINGTON HIGH,37,729,,Alternative,7,12,455 28TH ST,OGDEN,84401,8017377400,http://www.whs.ogden.k12.ut.us/,,,,,,
354,,,,,,,,,,,,,,,,,,,,
355,,,,,,,,,,,,,,,,,,,,
356,,,,,,,,,,,,,,,,,,,,
357,580,OGDEN CITY,ST JOSEPH CATHOLIC ELEM,FC,905,Private School,Regular Education,PK,8,2980 QUINCY AVE,OGDEN,84403,8013936051,,,,,,,
357,1182,OGDEN CITY,WSU COMMUNITY EDUCATION CENTER,,,Regional Campus,Higher Education,,,2955 HARRISON BLVD,OGDEN,84403,8016267911,,,,,,,
358,,,,,,,,,,,,,,,,,,,,
359,,,,,,,,,,,,,,,,,,,,
360,1229,OGDEN CITY,ST JOSEPH HIGH,FC,955,Private School,Regular Education,9,12,1790 LAKE ST,OGDDEN,84401,8013941515,,,,,,,
361,85,OGDEN CITY,POLK SCHOOL,37,167,,Regular Education,K,6,2615 POLK AVE,OGDEN,84401,8017378300,http://www.pkes.ogden.k12.ut.us/,,,,,,
361,568,OGDEN CITY,OGDEN HIGH,37,707,,Regular Education,10,12,2828 HARRISON BLVD,OGDEN,84403,8017378673,http://www.ohs.ogden.k12.ut.us/,,,,,,
362,,,,,,,,,,,,,,,,,,,,
363,,,,,,,,,,,,,,,,,,,,
364,,,,,,,,,,,,,,,,,,,,
365,,,,,,,,,,,,,,,,,,,,
366,,,,,,,,,,,,,,,,,,,,
367,,,,,,,,,,,,,,,,,,,,
368,,,,,,,,,,,,,,,,,,,,
369,1262,OGDEN CITY,ODYSSEY SCHOOL,37,163,,Regular Education,K,6,375 GODDARD STREET,OGDEN,84403,8017378400,,,,,,,
370,,,,,,,,,,,,,,,,,,,,
371,,,,,,,,,,,,,,,,,,,,
372,86,OGDEN CITY,THOMAS O SMITH SCHOOL,37,179,,Regular Education,K,6,3295 GRAMERCY AVE,OGDEN,84403,8017378350,http://www.toes.ogden.k12.ut.us/,,,,,,
373,,,,,,,,,,,,,,,,,,,,
374,,,,,,,,,,,,,,,,,,,,
375,,,,,,,,,,,,,,,,,,,,
376,83,OGDEN CITY,MOUNT OGDEN JUNIOR HIGH,37,415,,Regular Education,7,9,3260 HARRISON BLVD,OGDEN,84403,8017378600,http://www.mojhs.ogden.k12.ut.us/,,,,,,
376,1124,OGDEN CITY,WASATCH SCHOOL,37,183,,Regular Education,K,6,3370 POLK AVE,OGDEN,84403,8017378450,http://www.waes.ogden.k12.ut.us/,,,,,,
377,,,,,,,,,,,,,,,,,,,,
378,,,,,,,,,,,,,,,,,,,,
379,772,WEBER COUNTY,WASATCH CHRISTIAN SCHOOL,NS,901,Private School,Special Education,K,6,585 39TH ST,OGDEN,84403,8013925784,,,,,,,
380,,,,,,,,,,,,,,,,,,,,
381,,,,,,,,,,,,,,,,,,,,
382,,,,,,,,,,,,,,,,,,,,
383,583,OGDEN CITY,WEBER STATE UNIVERSITY,1 35 37,54,Residential Campus,Higher Education,9,12,1001 UNIVERSITY CIR,OGDEN,84408,8016266000,https://www.weber.edu/,11863.74,16383.26,"28,247",0.42,0.58,https://nces.ed.gov/collegenavigator/?q=weber+state+university&s=all&id=230782#general
383,1106,OGDEN CITY,WEBER STATE UNIVERSITY CHARTER ACADEMY,7I,100,Charter School,Regular Education,K,,1351 EDVALSON ST,OGDEN,84408,8016266343,www.weberstatecharteracademy.com,,,,,,
384,,,,,,,,,,,,,,,,,,,,
385,,,,,,,,,,,,,,,,,,,,
386,414,WEBER COUNTY,RIVERDALE SCHOOL,35,144,,Regular Education,K,6,1160 W 4400 S,OGDEN,84405,8014524540,http://www.rve.weber.k12.ut.us,,,,,,
386,1101,WEBER COUNTY,UTAH MILITARY ACADEMY,2K,700,Charter School,Regular Education,7,12,5120 S 1050 W,RIVERDALE,84405,8016893013,www.utahmilitaryacademy.org,,,,,,
387,,,,,,,,,,,,,,,,,,,,
388,,,,,,,,,,,,,,,,,,,,
389,,,,,,,,,,,,,,,,,,,,
390,,,,,,,,,,,,,,,,,,,,
391,,,,,,,,,,,,,,,,,,,,
392,,,,,,,,,,,,,,,,,,,,
393,514,WEBER COUNTY,WASHINGTON TERRACE SCHOOL,35,160,,Regular Education,K,6,20 E 4600 S,OGDEN,84405,8014524200,http://www.wte.weber.k12.ut.us,,,,,,
394,132,WEBER COUNTY,BURCH CREEK SCHOOL,35,105,,Regular Education,K,6,4300 MADISON AVE,OGDEN,84405,8014765300,burchcreek.wsd.net,,,,,,
395,,,,,,,,,,,,,,,,,,,,
396,,,,,,,,,,,,,,,,,,,,
397,,,,,,,,,,,,,,,,,,,,
398,,,,,,,,,,,,,,,,,,,,
399,,,,,,,,,,,,,,,,,,,,
400,,,,,,,,,,,,,,,,,,,,
401,838,WEBER COUNTY,GOOD FOUNDATIONS ACADEMY,8G,100,Charter School,Regular Education,K,6,5101 S 1050 W,RIVERDALE,84405,8013932950,http://gfautah.org/,,,,,,
402,,,,,,,,,,,,,,,,,,,,
403,,,,,,,,,,,,,,,,,,,,
404,,,,,,,,,,,,,,,,,,,,
405,488,WEBER COUNTY,BONNEVILLE HIGH,35,701,,Regular Education,10,12,251 E 4800 S,OGDEN,84405,8014524050,http://www.bhs.weber.k12.ut.us,,,,,,
406,,,,,,,,,,,,,,,,,,,,
407,415,WEBER COUNTY,ROOSEVELT SCHOOL,35,148,,Regular Education,K,6,190 W 5100 S,OGDEN,84405,8014524520,http://www.roe.weber.k12.ut.us/,,,,,,
407,740,WEBER COUNTY,T H BELL JR HIGH,35,410,,Regular Education,7,9,165 W 5100 S,OGDEN,84405,8014524600,http://www.thbell.weber.k12.ut.us,,,,,,
408,,,,,,,,,,,,,,,,,,,,
409,776,WEBER COUNTY,EVERGREEN MONTESSORI ACADEMY,NF,901,Private School,Special Education,K,6,5875 S ADAMS AVE PKWY,OGDEN,84405,8014797799,,,,,,,
410,,,,,,,,,,,,,,,,,,,,
411,397,WEBER COUNTY,H GUY CHILD SCHOOL,35,110,,Regular Education,K,6,655 E 5500 S,OGDEN,84405,8014524140,,,,,,,
411,766,WEBER COUNTY,WEBER ONLINE K-6,35,199,Online School,Regular Education,K,6,5320 ADAMS AVENUE PKWY,OGDEN,84405,8014767877,http://weberonline.wsd.net,,,,,,
412,428,WEBER COUNTY,SOUTH OGDEN JR HIGH,35,408,,Regular Education,7,9,650 E PLEASANT VALLEY DR,OGDEN,84405,8014524460,http://www.sjr.weber.k12.ut.us,,,,,,
413,,,,,,,,,,,,,,,,,,,,
414,,,,,,,,,,,,,,,,,,,,
415,,,,,,,,,,,,,,,,,,,,
416,89,WEBER COUNTY,PROVIDENCE MONTESSORI ACADEMY,PM,905,Private School,Regular Education,PK,6,5711 SOUTH 1475 EAST,SOUTH OGDEN,84403,8013947621,www.providencemontessoriacademy.org,,,,,,
417,470,OGDEN CITY,MCKAY-DEE SUMMIT DAY TREATMENT,KM,660,Private School,Residential Treatment,K,12,5030 HARRISON BLVD,OGDEN,84403,8013875772,,,,,,,
417,827,OGDEN CITY,SHADOW VALLEY SCHOOL,37,174,,Regular Education,K,6,4911 S 1500 E,OGDEN,84403,8017378150,http://www.sves.ogdensd.org/,,,,,,
418,,,,,,,,,,,,,,,,,,,,
419,418,WEBER COUNTY,UINTAH SCHOOL,35,154,,Regular Education,K,6,6115 S 2250 E,OGDEN,84403,8014524980,http://www.ue.weber.k12.ut.us,,,,,,
420,,,,,,,,,,,,,,,,,,,,
421,,,,,,,,,,,,,,,,,,,,
422,,,,,,,,,,,,,,,,,,,,
423,,,,,,,,,,,,,,,,,,,,
424,,,,,,,,,,,,,,,,,,,,
425,,,,,,,,,,,,,,,,,,,,
426,,,,,,,,,,,,,,,,,,,,
427,,,,,,,,,,,,,,,,,,,,
428,,,,,,,,,,,,,,,,,,,,
429,,,,,,,,,,,,,,,,,,,,
430,,,,,,,,,,,,,,,,,,,,
431,,,,,,,,,,,,,,,,,,,,
432,,,,,,,,,,,,,,,,,,,,
433,,,,,,,,,,,,,,,,,,,,
434,1107,DAVIS COUNTY,VOYAGE ACADEMY,5I,100,Charter School,Regular Education,K,6,1891 N 1500 W,CLINTON,84015,8017764900,www.voyageacademyutah.org,,,,,,
434,1041,DAVIS COUNTY,WEST CLINTON SCHOOL,7,186,,Regular Education,PK,6,2826 W 1800 N,CLINTON,84015,8014022700,http://www.davis.k12.ut.us/schools/wclinton/,,,,,,
435,,,,,,,,,,,,,,,,,,,,
436,,,,,,,,,,,,,,,,,,,,
437,,,,,,,,,,,,,,,,,,,,
438,,,,,,,,,,,,,,,,,,,,
439,,,,,,,,,,,,,,,,,,,,
440,656,DAVIS COUNTY,PARKSIDE SCHOOL,7,121,,Regular Education,K,6,2262 N 1500 W,CLINTON,84015,8014021150,http://www.davis.k12.ut.us/schools/parkside/,,,,,,
441,995,DAVIS COUNTY,CLINTON SCHOOL,7,120,,Regular Education,PK,6,1101 W 1800 N,CLINTON,84015,8014022150,http://www.davis.k12.ut.us/120/site/default.asp,,,,,,
442,,,,,,,,,,,,,,,,,,,,
443,,,,,,,,,,,,,,,,,,,,
444,,,,,,,,,,,,,,,,,,,,
445,,,,,,,,,,,,,,,,,,,,
446,,,,,,,,,,,,,,,,,,,,
447,,,,,,,,,,,,,,,,,,,,
448,1011,DAVIS COUNTY,FREMONT SCHOOL,7,133,,Regular Education,K,6,2525 N 160 W,SUNSET,84015,8014022300,http://www.davis.k12.ut.us/schools/fremont/,,,,,,
449,903,DAVIS COUNTY,SUNSET SCHOOL,7,164,,Regular Education,K,6,2014 N 250 W,SUNSET,84015,8014022550,http://sunset.davis.k12.ut.us/,,,,,,
450,,,,,,,,,,,,,,,,,,,,
451,,,,,,,,,,,,,,,,,,,,
452,1055,DAVIS COUNTY,SUNSET JR HIGH,7,418,,Regular Education,7,9,1610 N 250 W,SUNSET,84015,8014026700,http://www.davis.k12.ut.us/418/site/default.asp,,,,,,
453,1001,DAVIS COUNTY,DOXEY SCHOOL,7,128,,Regular Education,PK,6,944 N 250 W,SUNSET,84015,8014022250,http://doxey.davis.k12.ut.us/,,,,,,
454,998,DAVIS COUNTY,HOLT SCHOOL,7,137,,Regular Education,PK,6,448 N 1000 W,CLEARFIELD,84015,8014022400,http://www.davis.k12.ut.us/schools/holt/,,,,,,
455,,,,,,,,,,,,,,,,,,,,
456,,,,,,,,,,,,,,,,,,,,
457,1042,DAVIS COUNTY,WEST POINT SCHOOL,7,188,,Regular Education,K,6,3788 W 300 N,WEST POINT,84015,8014022750,http://www.davis.k12.ut.us/schools/wpoint/,,,,,,
458,723,DAVIS COUNTY,WEST POINT JR HIGH,7,422,,Regular Education,7,9,2775 W 550 N,WEST POINT,84015,8014028100,http://wpjh.davis.k12.ut.us/,,,,,,
458,686,DAVIS COUNTY,LAKESIDE SCHOOL,7,155,,Regular Education,PK,6,2941 W 800 N,WEST POINT,84015,8014022900,http://www.davis.k12.ut.us/155/site/default.asp,,,,,,
459,,,,,,,,,,,,,,,,,,,,
460,,,,,,,,,,,,,,,,,,,,
461,,,,,,,,,,,,,,,,,,,,
462,1056,DAVIS COUNTY,SYRACUSE JR HIGH,7,420,,Regular Education,7,9,1450 S 2000 W,SYRACUSE,84075,8014026800,http://www.davis.k12.ut.us/schools/sjh/,,,,,,
463,,,,,,,,,,,,,,,,,,,,
464,,,,,,,,,,,,,,,,,,,,
465,,,,,,,,,,,,,,,,,,,,
466,109,DAVIS COUNTY,SYRACUSE ARTS ACADEMY - NORTH,4D,110,Charter School,Regular Education,K,6,357 S 1550 W,SYRACUSE,84075,8018270540,www.SyracuseArtsAcademy.org,,,,,,
466,675,DAVIS COUNTY,SYRACUSE HIGH,7,716,,Regular Education,10,12,665 S 2000 W,SYRACUSE,84075,8014027900,http://www.davis.k12.ut.us/716/site/default.asp,,,,,,
467,904,DAVIS COUNTY,SYRACUSE SCHOOL,7,168,,Regular Education,PK,6,1503 S 2000 W,SYRACUSE,84075,8014022600,http://www.davis.k12.ut.us/168/site/default.asp,,,,,,
467,996,DAVIS COUNTY,COOK SCHOOL,7,122,,Regular Education,PK,6,1175 W 1350 S,SYRACUSE,84075,8014022200,http://www.davis.k12.ut.us/schools/cook/,,,,,,
468,546,DAVIS COUNTY,GREAT BASIN HIGH,GB,653,Private School,Vocational,7,12,PO BOX 160070,CLEARFIELD,84016,4357444353,,,,,,,
468,535,DAVIS COUNTY,CLEARFIELD JOB CORPS,NJ,770,,Vocational,10,12,20 W 1700 S,CLEARFIELD,84016,8017744000,http://clearfield.jobcorps.gov/home.aspx,,,,,,
469,,,,,,,,,,,,,,,,,,,,
470,,,,,,,,,,,,,,,,,,,,
471,1033,DAVIS COUNTY,WASATCH SCHOOL,7,180,,Regular Education,PK,6,270 E CENTER ST,CLEARFIELD,84015,8014022650,http://www.davis.k12.ut.us/schools/wasatch/,,,,,,
472,,,,,,,,,,,,,,,,,,,,
473,1049,DAVIS COUNTY,NORTH DAVIS JR HIGH,7,412,,Regular Education,7,9,835 S STATE ST,CLEARFIELD,84015,8014026500,http://www.davis.k12.ut.us/412/site/default.asp,,,,,,
473,1060,DAVIS COUNTY,CLEARFIELD HIGH,7,706,,Regular Education,10,12,931 S 1000 E,CLEARFIELD,84015,8014028200,http://chs.davis.k12.ut.us/,,,,,,
473,1035,DAVIS COUNTY,SOUTH CLEARFIELD SCHOOL,7,156,,Regular Education,PK,6,990 E 700 S,CLEARFIELD,84015,8014022500,http://www.davis.k12.ut.us/schools/sclearfield/,,,,,,
474,,,,,,,,,,,,,,,,,,,,
475,,,,,,,,,,,,,,,,,,,,
476,,,,,,,,,,,,,,,,,,,,
477,,,,,,,,,,,,,,,,,,,,
478,,,,,,,,,,,,,,,,,,,,
479,994,DAVIS COUNTY,HILL FIELD SCHOOL,7,135,,Regular Education,PK,6,389 S 1000 E,CLEARFIELD,84015,8014022350,http://www.davis.k12.ut.us/schools/hillfield/,,,,,,
480,,,,,,,,,,,,,,,,,,,,
481,1039,DAVIS COUNTY,SOUTH WEBER SCHOOL,7,158,,Regular Education,K,6,1285 E LESTER,SOUTH WEBER,84405,8014023750,http://www.davis.k12.ut.us/schools/sweber/,,,,,,
482,,,,,,,,,,,,,,,,,,,,
483,,,,,,,,,,,,,,,,,,,,
484,1034,DAVIS COUNTY,MOUNTAIN VIEW SCHOOL,7,154,,Regular Education,PK,6,2025 E 3100 N,LAYTON,84040,8014023700,http://www.davis.k12.ut.us/schools/mountainview/,,,,,,
485,,,,,,,,,,,,,,,,,,,,
486,,,,,,,,,,,,,,,,,,,,
487,1121,DAVIS COUNTY,HIGHMARK CHARTER SCHOOL,5H,100,Charter School,Regular Education,K,9,2467 E S WEBER DR,SOUTH WEBER,84405,8014764627,http://www.hmcharterschool.org/,,,,,,
488,,,,,,,,,,,,,,,,,,,,
489,131,DAVIS COUNTY,WEBER BASIN HIGH (PRIVATE-SCHOOL),WP,950,Private School,Vocational,K,12,7400 S CORNIA DRIVE,OGDEN,84405,8014765944,,,,,,,
489,539,DAVIS COUNTY,WEBER BASIN JOB CORPS,35,760,,Vocational,10,12,7400 S CORNIA DR,OGDEN,84405,8014799806,,,,,,,
490,108,DAVIS COUNTY,SYRACUSE ARTS ACADEMY - ANTELOPE,4D,100,Charter School,Regular Education,K,9,2893 W 1700 S,SYRACUSE,84075,8017792066,http://www.syracuseartsacademy.org,,,,,,
490,41,DAVIS COUNTY,ELEVATIONS ACADEMY,KL,971,Private School,Residential Treatment,8,12,2650 W 2700 SOUTH,SYRACUSE,84075,8017730200,,,,,,,
490,641,DAVIS COUNTY,BUFFALO POINT SCHOOL,7,113,,Regular Education,K,6,1924 S DORAL DR,SYRACUSE,84075,8014028400,http://www.davis.k12.ut.us/113/site/default.asp,,,,,,
491,,,,,,,,,,,,,,,,,,,,
492,,,,,,,,,,,,,,,,,,,,
493,,,,,,,,,,,,,,,,,,,,
494,,,,,,,,,,,,,,,,,,,,
495,,,,,,,,,,,,,,,,,,,,
496,1017,DAVIS COUNTY,ANTELOPE SCHOOL,7,106,,Regular Education,PK,6,1810 S MAIN ST,CLEARFIELD,84015,8014022100,http://www.davis.k12.ut.us/schools/antelope/,,,,,,
497,,,,,,,,,,,,,,,,,,,,
498,684,DAVIS COUNTY,BLUFF RIDGE SCHOOL,7,153,,Regular Education,PK,6,2680 S 775 W,SYRACUSE,84075,8014022850,http://www.davis.k12.ut.us/schools/bluffridge/,,,,,,
499,,,,,,,,,,,,,,,,,,,,
500,,,,,,,,,,,,,,,,,,,,
501,,,,,,,,,,,,,,,,,,,,
502,822,DAVIS COUNTY,LEGACY JR HIGH,7,424,,Regular Education,7,9,411 N 3200 W,LAYTON,84041,8014024700,http://www.davis.k12.ut.us/424/site/default.asp,,,,,,
503,761,DAVIS COUNTY,SAND SPRINGS SCHOOL,7,160,,Regular Education,K,6,242 N 3200 W,LAYTON,84041,8014023850,http://www.davis.k12.ut.us/160/site/default.asp,,,,,,
504,1047,DAVIS COUNTY,VAE VIEW SCHOOL,7,193,,Regular Education,PK,6,1750 W 1600 N,LAYTON,84041,8014022800,http://www.davis.k12.ut.us/schools/vaeview/,,,,,,
505,,,,,,,,,,,,,,,,,,,,
506,,,,,,,,,,,,,,,,,,,,
507,,,,,,,,,,,,,,,,,,,,
508,704,DAVIS COUNTY,ELLISON PARK SCHOOL,7,136,,Regular Education,K,6,800 N COLDCREEK WAY,LAYTON,84041,8014027300,http://www.davis.k12.ut.us/136/site/default.asp,,,,,,
508,624,DAVIS COUNTY,NORTH DAVIS PREPARATORY ACADEMY,A6,100,Charter School,Regular Education,K,9,1765 W HILLFIELD RD,LAYTON,84041,8015471809,http://www.northdavisprep.org,,,,,,
509,,,,,,,,,,,,,,,,,,,,
510,708,DAVIS COUNTY,HERITAGE SCHOOL,7,157,,Regular Education,K,6,1354 W WEAVER LN,LAYTON,84041,8014021200,http://www.davis.k12.ut.us/schools/heritage/,,,,,,
511,,,,,,,,,,,,,,,,,,,,
512,1129,DAVIS COUNTY,ASCENT ACADEMIES OF UTAH FARMINGTON,2J,300,Charter School,Regular Education,K,9,22 S 650 W,FARMINGTON,84025,3852202200,www.ascentutah.org,,,,,,
513,,,,,,,,,,,,,,,,,,,,
514,1015,DAVIS COUNTY,LAYTON SCHOOL,7,144,,Regular Education,K,6,369 W GENTILE,LAYTON,84041,8014023500,http://www.davis.k12.ut.us/schools/layton/,,,,,,
515,,,,,,,,,,,,,,,,,,,,
516,39,DAVIS COUNTY,KAY'S CREEK ELEMENTARY,7,170,,Regular Education,K,6,2260 W ISLAND DR,KAYSVILLE,84037,8014020050,http://www.davis.k12.ut.us/170,,,,,,
517,,,,,,,,,,,,,,,,,,,,
518,,,,,,,,,,,,,,,,,,,,
519,,,,,,,,,,,,,,,,,,,,
520,,,,,,,,,,,,,,,,,,,,
521,,,,,,,,,,,,,,,,,,,,
522,705,DAVIS COUNTY,SNOW HORSE SCHOOL,7,162,,Regular Education,K,6,1095 W SMITH LN,KAYSVILLE,84037,8014027350,http://www.davis.k12.ut.us/162/site/default.asp,,,,,,
522,834,DAVIS COUNTY,CENTENNIAL JR HIGH,7,426,,Regular Education,7,9,740 S SUNSET DR,KAYSVILLE,84037,8014020100,http://www.davis.k12.ut.us/426/site/default.asp,,,,,,
522,1132,DAVIS COUNTY,JEFFERSON ACADEMY,1G,100,Charter School,Regular Education,K,6,1425 S ANGEL ST,KAYSVILLE,84037,8015938200,http://jeffersonacademy.org,,,,,,
523,38,DAVIS COUNTY,ENDEAVOUR SCHOOL,7,161,,Regular Education,K,6,1870 S 25 W,KAYSVILLE,84037,8014020400,http://www.davis.k12.ut.us/161/site/default.asp,,,,,,
524,1179,DAVIS COUNTY,WSU CENTER FOR CONTINUING EDUCATION,,,Regional Campus,Higher Education,,,775 S UNIVERSITY PARK BOULEVARD,CLEARFIELD,84015,8013953409,,,,,,,
525,732,DAVIS COUNTY,DORIUS ACADEMY,LU,951,Private School,Alternative,7,12,2405 N 400 W,LAYTON,84041,8017764532,,,,,,,
525,610,DAVIS COUNTY,NO UT ACAD FOR MATH ENGINEERING & SCIENCE (NUAMES),A1,700,Charter School,Regular Education,10,12,2750 N UNIVERSITY PARK BLVD,LAYTON,84041,8013953350,http://www.nuames.org,,,,,,
525,1075,DAVIS COUNTY,NORTHRIDGE LEARNING CENTER,LA,901,Private School,Supplemental Services,K,12,2405 N HILLFIELD RD,LAYTON,84041,8017764532,,,,,,,
525,1176,DAVIS COUNTY,WEBER STATE DAVIS,,,Regional Campus,Higher Education,,,2750 UNIVERSITY PARK BLVD,LAYTON,84041,8013953456,,6739,0,6739,1,0,wfrc
526,1053,DAVIS COUNTY,NORTH LAYTON JR HIGH,7,414,,Regular Education,7,9,1100 W 2000 N,LAYTON,84041,8014026600,http://www.davis.k12.ut.us/414/site/default.asp,,,,,,
527,,,,,,,,,,,,,,,,,,,,
528,1131,DAVIS COUNTY,LEADERSHIP LEARNING ACADEMY,3I,100,Charter School,Regular Education,K,6,100 W 2675 N,LAYTON,84041,8015939552,http://llacharter.org/,,,,,,
528,1067,DAVIS COUNTY,NORTHRIDGE HIGH,7,711,,Regular Education,10,12,2430 N HILLFIELD RD,LAYTON,84041,8014028500,http://www.davis.k12.ut.us/711/site/default.asp,,,,,,
529,,,,,,,,,,,,,,,,,,,,
530,750,DAVIS COUNTY,WASATCH INTERMOUNTAIN ACADEMY,MJ,901,Private School,Regular Education,K,12,1630 N 275 W,LAYTON,84041,8013904257,www.wiatimberwolves.com,,,,,,
530,751,DAVIS COUNTY,WASATCH INTERMOUNTAIN ACADEMY,MJ,951,Private School,Regular Education,7,12,1630 N 275 W,LAYTON,84041,8013904257,www.wiatimberwolves.com,,,,,,
531,,,,,,,,,,,,,,,,,,,,
532,572,DAVIS COUNTY,LAYTON CHRISTIAN ACADEMY,JO,926,Private School,Regular Education,PK,8,2352 E HIGHWAY 193,LAYTON,84040,8017717141,,,,,,,
532,573,DAVIS COUNTY,LAYTON CHRISTIAN ACADEMY,JO,976,Private School,Regular Education,9,12,2352 E HIGHWAY 193,LAYTON,84040,8017717141,,,,,,,
533,1086,DAVIS COUNTY,ADAMS SCHOOL,7,102,,Regular Education,K,6,2200 E 2500 N,LAYTON,84041,8014023100,http://www.davis.k12.ut.us/schools/adams/,,,,,,
534,,,,,,,,,,,,,,,,,,,,
535,1006,DAVIS COUNTY,KING SCHOOL,7,130,,Regular Education,PK,6,601 E 1000 N,LAYTON,84041,8014023300,http://www.davis.k12.ut.us/schools/king/,,,,,,
536,,,,,,,,,,,,,,,,,,,,
537,,,,,,,,,,,,,,,,,,,,
538,1023,DAVIS COUNTY,CENTRAL DAVIS JR HIGH,7,408,,Regular Education,7,9,663 CHURCH ST,LAYTON,84041,8014027100,http://www.davis.k12.ut.us/schools/cdjh/,,,,,,
538,1000,DAVIS COUNTY,CRESTVIEW SCHOOL,7,124,,Regular Education,PK,6,185 W GOLDEN AVE,LAYTON,84041,8014023200,http://www.davis.k12.ut.us/124/site/default.asp,,,,,,
539,1064,DAVIS COUNTY,LAYTON HIGH,7,710,,Regular Education,10,12,440 LANCER LN,LAYTON,84041,8014024800,http://lhs.davis.k12.ut.us/,,,,,,
540,,,,,,,,,,,,,,,,,,,,
541,1046,DAVIS COUNTY,WHITESIDES SCHOOL,7,192,,Regular Education,PK,6,233 N COLONIAL AVE,LAYTON,84041,8014023600,http://www.davis.k12.ut.us/schools/whitesides/,,,,,,
542,1005,DAVIS COUNTY,EAST LAYTON SCHOOL,7,129,,Regular Education,PK,6,2470 E CHERRY LN,EAST LAYTON,84041,8014023250,http://www.davis.k12.ut.us/129/site/default.asp,,,,,,
543,575,DAVIS COUNTY,SYLVAN LEARNING CENTER - LAYTON,FS,805,Private School,Supplemental Services,K,12,"70 S FAIRFIELD, SUITE 6",LAYTON,84041,8015434487,,,,,,,
544,,,,,,,,,,,,,,,,,,,,
545,683,DAVIS COUNTY,CREEKSIDE SCHOOL,7,151,,Regular Education,PK,6,275 W MUTTON HOLLOW RD,KAYSVILLE,84037,8014023650,http://www.davis.k12.ut.us/schools/creekside/,,,,,,
545,1018,DAVIS COUNTY,FAIRFIELD JR HIGH,7,402,,Regular Education,7,9,951 N FAIRFIELD RD,KAYSVILLE,84037,8014027000,http://ffjh.davis.k12.ut.us/,,,,,,
546,1009,DAVIS COUNTY,MORGAN SCHOOL,7,141,,Regular Education,PK,6,1065 THORNFIELD RD,KAYSVILLE,84037,8014023450,http://www.davis.k12.ut.us/schools/morgan/,,,,,,
547,,,,,,,,,,,,,,,,,,,,
548,,,,,,,,,,,,,,,,,,,,
549,1004,DAVIS COUNTY,KAYSVILLE SCHOOL,7,140,,Regular Education,K,6,50 N 100 E,KAYSVILLE,84037,8014023400,http://www.davis.k12.ut.us/schools/kaysville/,,,,,,
550,1026,DAVIS COUNTY,H C BURTON SCHOOL,7,114,,Regular Education,PK,6,827 E 200 S,KAYSVILLE,84037,8014023150,http://burton.davis.k12.ut.us/,,,,,,
551,138,DAVIS COUNTY,MOUNTAIN HIGH,7,730,,Alternative,10,12,490 S 500 E,KAYSVILLE,84037,8014020450,http://mhs.davis.k12.ut.us/,,,,,,
551,612,DAVIS COUNTY,DAVIS APPLIED TECH COLLEGE,7 18,48,Regional Campus,Higher Education,9,12,550 E 300 S,KAYSVILLE,84037,,http://www.datc.edu/,542,"2,803","3,345",0.162032885,0.837967115,https://www.communitycollegereview.com/davis-applied-technology-college-profile
551,1113,DAVIS COUNTY,RENAISSANCE ACADEMY,7,733,,Alternative,K,12,264 S 500 E,KAYSVILLE,84037,8014020350,http://www.davis.k12.ut.us/schools/davisjr/,,,,,,
551,1063,DAVIS COUNTY,DAVIS HIGH,7,708,,Regular Education,10,12,325 S MAIN ST,KAYSVILLE,84037,8014028800,http://www.davis.k12.ut.us/708/site/default.asp,,,,,,
551,1031,DAVIS COUNTY,FAMILY ENRICHMENT CENTER,7,802,,Special Education,PK,,320 S 500 E,KAYSVILLE,84037,8014020650,http://www.davis.k12.ut.us/district/earlychildhood/,,,,,,
551,1142,DAVIS COUNTY,UTAH CAREER PATH HIGH SCHOOL,9I,600,Charter School,Regular Education,9,12,450 S SIMMONS WAY,KAYSVILLE,84037,8015932440,www.careerpathhigh.org,,,,,,
552,,,,,,,,,,,,,,,,,,,,
553,,,,,,,,,,,,,,,,,,,,
554,1044,DAVIS COUNTY,KAYSVILLE JR HIGH,7,410,,Regular Education,7,9,100 E 350 S,KAYSVILLE,84037,8014027200,http://kjh.davis.k12.ut.us/,,,,,,
554,1007,DAVIS COUNTY,COLUMBIA SCHOOL,7,131,,Regular Education,K,6,378 S 50 W,KAYSVILLE,84037,8014023350,http://www.davis.k12.ut.us/schools/columbia/,,,,,,
554,1168,DAVIS COUNTY,UTAH STATE UNIVERSITY KAYSVILLE CAMPUS,,,Regional Campus,Higher Education,,,80 E SEGO LILY DR,KAYSVILLE,84037,801 4995120,,120,234,354,0.338983051,0.661016949,https://www.usu.edu/aaa/enrollment.cfm
555,902,DAVIS COUNTY,WINDRIDGE SCHOOL,7,149,,Regular Education,PK,6,1300 S 700 E,KAYSVILLE,84037,8014023550,http://www.davis.k12.ut.us/schools/windridge/,,,,,,
556,,,,,,,,,,,,,,,,,,,,
557,,,,,,,,,,,,,,,,,,,,
558,,,,,,,,,,,,,,,,,,,,
559,,,,,,,,,,,,,,,,,,,,
560,1003,DAVIS COUNTY,KNOWLTON SCHOOL,7,139,,Regular Education,PK,6,801 SHEPARD LN,FARMINGTON,84025,8014023000,http://www.davis.k12.ut.us/schools/knowlton/,,,,,,
561,,,,,,,,,,,,,,,,,,,,
562,,,,,,,,,,,,,,,,,,,,
563,,,,,,,,,,,,,,,,,,,,
564,,,,,,,,,,,,,,,,,,,,
565,1181,DAVIS COUNTY,WEBER STATE FARMINGTON STATION,,,Regional Campus,Higher Education,,,240 N EAST PROMONTORY SUITE 300,FARMINGTON,84025,8013953320,,,,,,,
566,37,DAVIS COUNTY,EAGLE BAY SCHOOL,7,148,,Regular Education,PK,6,100 N 1933 W,FARMINGTON,84025,8014023800,http://www.davis.k12.ut.us/eaglebay/,,,,,,
567,36,DAVIS COUNTY,CANYON CREEK SCHOOL,7,169,,Regular Education,K,6,755 S 11 W,FARMINGTON,84025,8014020300,http://www.davisk12.ut.us/169,,,,,,
568,1275,DAVIS COUNTY,FARMINGTON HIGH SCHOOL,,,,Regular Education,10,12,548 W GLOVERS LN,FARMINGTON,84025,8014029050,https://fhs.davis.k12.ut.us/,,,,,,
569,,,,,,,,,,,,,,,,,,,,
570,755,DAVIS COUNTY,ONLINE SCHOOL,7,235,Online School,Regular Education,K,8,45 E STATE ST,FARMINGTON,84025,8014025261,,,,,,,
571,1088,DAVIS COUNTY,STAR TRANSITION,7,660,,Special Education,7,12,97 S 200 E,FARMINGTON,84025,8014025975,http://www.davis.k12.ut.us/21381032216243907/blank/browse.asp?a=383&BMDRN=2000&BCOB=0&c=58657&213810,,,,,,
571,1029,DAVIS COUNTY,FARMINGTON JR HIGH,7,409,,Regular Education,7,9,150 S 200 W,FARMINGTON,84025,8014026900,http://www.davis.k12.ut.us/409/site/default.asp,,,,,,
571,1008,DAVIS COUNTY,FARMINGTON SCHOOL,7,132,,Regular Education,K,6,50 W 200 S,FARMINGTON,84025,8014022950,http://www.davis.k12.ut.us/schools/farmington/,,,,,,
572,,,,,,,,,,,,,,,,,,,,
573,,,,,,,,,,,,,,,,,,,,
574,,,,,,,,,,,,,,,,,,,,
575,,,,,,,,,,,,,,,,,,,,
576,,,,,,,,,,,,,,,,,,,,
577,,,,,,,,,,,,,,,,,,,,
578,,,,,,,,,,,,,,,,,,,,
579,905,DAVIS COUNTY,READING SCHOOL,7,150,,Regular Education,K,6,360 W 2025 N,CENTERVILLE,84014,8014021750,http://www.davis.k12.ut.us/schools/reading/index.html,,,,,,
580,,,,,,,,,,,,,,,,,,,,
581,,,,,,,,,,,,,,,,,,,,
582,1040,DAVIS COUNTY,STEWART SCHOOL,7,159,,Regular Education,K,6,1155 N MAIN ST,CENTERVILLE,84014,8014021850,http://www.davis.k12.ut.us/schools/stewart/,,,,,,
583,,,,,,,,,,,,,,,,,,,,
584,,,,,,,,,,,,,,,,,,,,
585,,,,,,,,,,,,,,,,,,,,
586,,,,,,,,,,,,,,,,,,,,
587,,,,,,,,,,,,,,,,,,,,
588,,,,,,,,,,,,,,,,,,,,
589,,,,,,,,,,,,,,,,,,,,
590,,,,,,,,,,,,,,,,,,,,
591,,,,,,,,,,,,,,,,,,,,
592,,,,,,,,,,,,,,,,,,,,
593,,,,,,,,,,,,,,,,,,,,
594,1027,DAVIS COUNTY,CENTERVILLE SCHOOL,7,116,,Regular Education,PK,6,350 N 100 E,CENTERVILLE,84014,8014021400,http://www.davis.k12.ut.us/schools/centerville/,,,,,,
595,,,,,,,,,,,,,,,,,,,,
596,,,,,,,,,,,,,,,,,,,,
597,1022,DAVIS COUNTY,CENTERVILLE JR HIGH,7,406,,Regular Education,7,9,625 S MAIN ST,CENTERVILLE,84014,8014026100,http://www.davis.k12.ut.us/406/site/default.asp,,,,,,
597,999,DAVIS COUNTY,TAYLOR SCHOOL,7,138,,Regular Education,PK,6,293 E PAGES LN,CENTERVILLE,84014,8014021500,http://taylor.davis.k12.ut.us/,,,,,,
598,,,,,,,,,,,,,,,,,,,,
599,,,,,,,,,,,,,,,,,,,,
600,,,,,,,,,,,,,,,,,,,,
601,,,,,,,,,,,,,,,,,,,,
602,1037,DAVIS COUNTY,WEST BOUNTIFUL SCHOOL,7,184,,Regular Education,PK,6,750 W 400 N,WEST BOUNTIFUL,84087,8014022000,http://www.davis.k12.ut.us/schools/wbountiful/,,,,,,
603,,,,,,,,,,,,,,,,,,,,
604,,,,,,,,,,,,,,,,,,,,
605,1024,DAVIS COUNTY,MEADOWBROOK SCHOOL,7,145,,Regular Education,PK,6,700 N 325 W,BOUNTIFUL,84010,8014021600,http://meadowbrook.davis.k12.ut.us/,,,,,,
606,1068,DAVIS COUNTY,VIEWMONT HIGH,7,712,,Regular Education,10,12,120 W 1000 N,BOUNTIFUL,84010,8014024200,http://www.davis.k12.ut.us/712/site/default.asp,,,,,,
606,1019,DAVIS COUNTY,BOUNTIFUL JR HIGH,7,404,,Regular Education,7,9,30 W 400 N,BOUNTIFUL,84010,8014026000,http://www.davis.k12.ut.us/schools/bjh/,,,,,,
607,1032,DAVIS COUNTY,TOLMAN SCHOOL,7,172,,Regular Education,PK,6,300 E 1200 N,BOUNTIFUL,84010,8014021900,http://www.davis.k12.ut.us/schools/tolman/,,,,,,
608,,,,,,,,,,,,,,,,,,,,
609,,,,,,,,,,,,,,,,,,,,
610,,,,,,,,,,,,,,,,,,,,
611,,,,,,,,,,,,,,,,,,,,
612,,,,,,,,,,,,,,,,,,,,
613,,,,,,,,,,,,,,,,,,,,
614,,,,,,,,,,,,,,,,,,,,
615,1025,DAVIS COUNTY,OAK HILLS SCHOOL,7,146,,Regular Education,PK,6,1235 E 600 S,BOUNTIFUL,84010,8014021650,http://www.davis.k12.ut.us/146/site/default.asp?,,,,,,
615,1012,DAVIS COUNTY,HOLBROOK SCHOOL,7,134,,Regular Education,PK,6,1018 E 250 N,BOUNTIFUL,84010,8014021450,http://www.davis.k12.ut.us/schools/holbrook/,,,,,,
616,,,,,,,,,,,,,,,,,,,,
617,,,,,,,,,,,,,,,,,,,,
618,1114,DAVIS COUNTY,ODYSSEY SCHOOL,7,167,,Regular Education,PK,6,2050 S 1955 W,WOODS CROSS,84087,8014020200,http://www.davis.k12.ut.us/Domain/8175,,,,,,
619,,,,,,,,,,,,,,,,,,,,
620,,,,,,,,,,,,,,,,,,,,
621,,,,,,,,,,,,,,,,,,,,
622,,,,,,,,,,,,,,,,,,,,
623,1030,DAVIS COUNTY,WOODS CROSS SCHOOL,7,152,,Regular Education,PK,6,745 W 1100 S,WOODS CROSS,84087,8014021800,http://www.davis.k12.ut.us/152/site/default.asp,,,,,,
623,1138,DAVIS COUNTY,UTAH CONNECTIONS ACADEMY,2H,101,Online Charter School,Regular Education,K,12,"687 W 700 SOUTH, SUITE D",WOODS CROSS,84087,8012986660,http://www.connectionsacademy.com/utah-school,,,,,,
624,,,,,,,,,,,,,,,,,,,,
625,,,,,,,,,,,,,,,,,,,,
626,1072,DAVIS COUNTY,WOODS CROSS HIGH,7,714,,Regular Education,10,12,600 W 2200 S,WOODS CROSS,84087,8014024500,http://wxhs.davis.k12.ut.us/,,,,,,
626,1043,DAVIS COUNTY,BENCHMARK SCHOOL,KB,674,Private School,Residential Treatment,7,12,592 W 1350 S,WOODS CROSS,84087,8012995300,,,,,,,
627,1036,DAVIS COUNTY,WASHINGTON SCHOOL,7,182,,Regular Education,PK,6,340 W 650 S,BOUNTIFUL,84010,8014021950,http://www.davis.k12.ut.us/schools/washington/,,,,,,
628,1045,DAVIS COUNTY,MILLCREEK JR HIGH,7,411,,Regular Education,7,9,245 E 1000 S,BOUNTIFUL,84010,8014026200,http://www.davis.k12.ut.us/411/site/default.asp,,,,,,
629,1021,DAVIS COUNTY,BOUNTIFUL SCHOOL,7,112,,Regular Education,K,6,1620 S 50 W,BOUNTIFUL,84010,8014021350,http://www.davis.k12.ut.us/schools/bountiful/,,,,,,
630,1059,DAVIS COUNTY,BOUNTIFUL HIGH,7,704,,Regular Education,10,12,695 S ORCHARD DR,BOUNTIFUL,84010,8014023900,http://bhs.davis.k12.ut.us/,,,,,,
630,1038,DAVIS COUNTY,ST OLAF CATHOLIC ELEM,FC,901,Private School,Regular Education,PK,8,1793 ORCHARD DR,BOUNTIFUL,84010,8012955341,,,,,,,
630,1013,DAVIS COUNTY,VALLEY VIEW SCHOOL,7,194,,Regular Education,K,6,1395 S 600 E,BOUNTIFUL,84010,8014022050,http://www.davis.k12.ut.us/schools/valleyview/,,,,,,
631,1050,DAVIS COUNTY,MUELLER PARK JR HIGH,7,413,,Regular Education,7,9,995 E 1800 S,BOUNTIFUL,84010,8014026300,http://mpjh.davis.k12.ut.us/,,,,,,
632,1054,DAVIS COUNTY,SOUTH DAVIS JR HIGH,7,416,,Regular Education,7,9,298 W 2600 S,BOUNTIFUL,84010,8014026400,http://www.davis.k12.ut.us/416/site/default.asp,,,,,,
633,,,,,,,,,,,,,,,,,,,,
634,,,,,,,,,,,,,,,,,,,,
635,1020,DAVIS COUNTY,BOULTON SCHOOL,7,108,,Regular Education,PK,6,2611 S ORCHARD DR,BOUNTIFUL,84010,8014021300,http://www.davis.k12.ut.us/108/site/default.asp,,,,,,
636,,,,,,,,,,,,,,,,,,,,
637,1010,DAVIS COUNTY,MUIR SCHOOL,7,142,,Regular Education,K,6,2275 S DAVIS BLVD,BOUNTIFUL,84010,8014021550,http://www.davis.k12.ut.us/schools/muir/,,,,,,
638,,,,,,,,,,,,,,,,,,,,
639,,,,,,,,,,,,,,,,,,,,
640,,,,,,,,,,,,,,,,,,,,
641,100,DAVIS COUNTY,SPECTRUM ACADEMY - NSL,3D,100,Charter School,Regular Education,K,12,575 N CUTLER DR,NORTH SALT LAKE,84054,8019360318,http://www.spectrumcharter.org,,,,,,
641,582,DAVIS COUNTY,WASATCH PEAK ACADEMY,4B,100,Charter School,Regular Education,K,6,414 N CUTLER DR,NORTH SALT LAKE,84054,8019363066,http://www.wasatchpeak.org,,,,,,
641,765,DAVIS COUNTY,FOXBORO SCHOOL,7,166,,Regular Education,K,6,487 N FOXBORO DR,NORTH SALT LAKE,84054,8014025050,http://www.davis.k12.ut.us/26402011892137840/site/default.asp,,,,,,
642,678,DAVIS COUNTY,LEGACY PREPARATORY ACADEMY,5C,100,Charter School,Regular Education,K,9,1375 W CENTER ST,NORTH SALT LAKE,84054,8019360555,http://www.legacyprep.org,,,,,,
643,,,,,,,,,,,,,,,,,,,,
644,,,,,,,,,,,,,,,,,,,,
645,,,,,,,,,,,,,,,,,,,,
646,,,,,,,,,,,,,,,,,,,,
647,,,,,,,,,,,,,,,,,,,,
648,1016,DAVIS COUNTY,ADELAIDE SCHOOL,7,104,,Regular Education,K,6,731 W 3600 S,BOUNTIFUL,84010,8014021250,http://www.davis.k12.ut.us/104/site/default.asp,,,,,,
649,1028,DAVIS COUNTY,ORCHARD SCHOOL,7,147,,Regular Education,K,6,205 E CENTER ST,NORTH SALT LAKE,84054,8014021700,http://www.davis.k12.ut.us/schools/orchard/,,,,,,
650,,,,,,,,,,,,,,,,,,,,
651,,,,,,,,,,,,,,,,,,,,
652,,,,,,,,,,,,,,,,,,,,
653,,,,,,,,,,,,,,,,,,,,
654,,,,,,,,,,,,,,,,,,,,
655,,,,,,,,,,,,,,,,,,,,
656,,,,,,,,,,,,,,,,,,,,
657,,,,,,,,,,,,,,,,,,,,
658,,,,,,,,,,,,,,,,,,,,
659,,,,,,,,,,,,,,,,,,,,
660,,,,,,,,,,,,,,,,,,,,
661,,,,,,,,,,,,,,,,,,,,
662,,,,,,,,,,,,,,,,,,,,
663,,,,,,,,,,,,,,,,,,,,
664,,,,,,,,,,,,,,,,,,,,
665,,,,,,,,,,,,,,,,,,,,
666,,,,,,,,,,,,,,,,,,,,
667,,,,,,,,,,,,,,,,,,,,
668,,,,,,,,,,,,,,,,,,,,
669,,,,,,,,,,,,,,,,,,,,
670,,,,,,,,,,,,,,,,,,,,
671,,,,,,,,,,,,,,,,,,,,
672,,,,,,,,,,,,,,,,,,,,
673,,,,,,,,,,,,,,,,,,,,
674,,,,,,,,,,,,,,,,,,,,
675,,,,,,,,,,,,,,,,,,,,
676,,,,,,,,,,,,,,,,,,,,
677,,,,,,,,,,,,,,,,,,,,
678,,,,,,,,,,,,,,,,,,,,
679,,,,,,,,,,,,,,,,,,,,
680,,,,,,,,,,,,,,,,,,,,
681,,,,,,,,,,,,,,,,,,,,
682,,,,,,,,,,,,,,,,,,,,
683,,,,,,,,,,,,,,,,,,,,
684,,,,,,,,,,,,,,,,,,,,
685,,,,,,,,,,,,,,,,,,,,
686,,,,,,,,,,,,,,,,,,,,
687,,,,,,,,,,,,,,,,,,,,
688,,,,,,,,,,,,,,,,,,,,
689,,,,,,,,,,,,,,,,,,,,
690,,,,,,,,,,,,,,,,,,,,
691,,,,,,,,,,,,,,,,,,,,
692,,,,,,,,,,,,,,,,,,,,
693,,,,,,,,,,,,,,,,,,,,
694,,,,,,,,,,,,,,,,,,,,
695,,,,,,,,,,,,,,,,,,,,
696,202,GRANITE,CYPRUS HIGH,12,704,,Regular Education,9,12,8623 W 3000 S,MAGNA,84044,3856465300,http://www.cyprushigh.org/,,,,,,
696,928,GRANITE,MAGNA SCHOOL,12,156,,Regular Education,PK,6,8500 W 3100 S,MAGNA,84044,3856464900,http://www.graniteschools.org/el/magna/,,,,,,
697,,,,,,,,,,,,,,,,,,,,
698,835,GRANITE,ELK RUN ELEMENTARY,12,125,,Regular Education,K,6,3550 S HELEN DR,MAGNA,84044,3856464786,,,,,,,
699,,,,,,,,,,,,,,,,,,,,
700,,,,,,,,,,,,,,,,,,,,
701,45,GRANITE,ENTHEOS ACADEMY MAGNA,3C,110,Charter School,Regular Education,K,9,2606 S 7200 W,MAGNA,84044,8012505233,http://entheosacademy.org/,,,,,,
702,178,GRANITE,PLEASANT GREEN SCHOOL,12,182,,Regular Education,PK,6,8201 W 2700 S,MAGNA,84044,3856464972,http://www.graniteschools.org/el/pleasantgreen/Welcome.html,,,,,,
702,492,GRANITE,STANSBURY ACADEMY,KS,658,Private School,Residential Treatment,7,12,PO BOX 69,MAGNA,84044,8012509762,,,,,,,
703,,,,,,,,,,,,,,,,,,,,
704,,,,,,,,,,,,,,,,,,,,
705,923,GRANITE,LAKE RIDGE SCHOOL,12,140,,Regular Education,PK,6,7400 W 3400 S,MAGNA,84044,3856464888,http://lakeridgecougars.weebly.com/,,,,,,
706,,,,,,,,,,,,,,,,,,,,
707,,,,,,,,,,,,,,,,,,,,
708,,,,,,,,,,,,,,,,,,,,
709,50,GRANITE,GEARLD WRIGHT SCHOOL,12,131,,Regular Education,K,6,6760 W 3100 S,SALT LAKE CITY,84128,8016465480,http://www.graniteschools.org/el/wright/,,,,,,
710,,,,,,,,,,,,,,,,,,,,
711,,,,,,,,,,,,,,,,,,,,
712,578,GRANITE,WEST VALLEY SCHOOL,12,206,,Regular Education,K,6,6049 W BRUD DR,WEST VALLEY CITY,84128,3856465079,http://www.graniteschools.org/el/westvalley/,,,,,,
713,,,,,,,,,,,,,,,,,,,,
714,,,,,,,,,,,,,,,,,,,,
715,,,,,,,,,,,,,,,,,,,,
716,,,,,,,,,,,,,,,,,,,,
717,,,,,,,,,,,,,,,,,,,,
718,201,GRANITE,COPPER HILLS SCHOOL,12,111,,Regular Education,K,6,7635 W 3715 S,MAGNA,84044,3856464792,http://copperhills.wikispaces.com/,,,,,,
718,673,GRANITE,SCOTT M MATHESON JR HIGH,12,423,,Regular Education,7,8,3650 S MONTCLAIR ST,MAGNA,84044,3856465290,http://www.graniteschools.org/jr/matheson/,,,,,,
719,,,,,,,,,,,,,,,,,,,,
720,,,,,,,,,,,,,,,,,,,,
721,,,,,,,,,,,,,,,,,,,,
722,,,,,,,,,,,,,,,,,,,,
723,166,GRANITE,DOUGLAS T. ORCHARD SCHOOL,12,177,,Regular Education,PK,6,6744 W 3800 S,WEST VALLEY CITY,84128,3856464954,http://orchardelementary.weebly.com/,,,,,,
724,,,,,,,,,,,,,,,,,,,,
725,,,,,,,,,,,,,,,,,,,,
726,176,GRANITE,WHITTIER SCHOOL,12,208,,Regular Education,K,6,3585 S 6000 W,WEST VALLEY CITY,84128,3856465096,http://www.graniteschools.org/el/whittier/,,,,,,
726,199,GRANITE,HUNTER JR HIGH,12,418,,Regular Education,7,9,6131 W 3785 S,WEST VALLEY CITY,84120,3856465184,http://www.graniteschools.org/jr/hunter/,,,,,,
727,143,GRANITE,HILLSIDE SCHOOL,12,130,,Regular Education,PK,6,4283 S 6000 W,WEST VALLEY CITY,84128,3856464870,http://www.graniteschools.org/el/hillside/,,,,,,
728,,,,,,,,,,,,,,,,,,,,
729,,,,,,,,,,,,,,,,,,,,
730,,,,,,,,,,,,,,,,,,,,
731,,,,,,,,,,,,,,,,,,,,
732,,,,,,,,,,,,,,,,,,,,
733,,,,,,,,,,,,,,,,,,,,
734,,,,,,,,,,,,,,,,,,,,
735,,,,,,,,,,,,,,,,,,,,
736,,,,,,,,,,,,,,,,,,,,
737,,,,,,,,,,,,,,,,,,,,
738,434,SALT LAKE CITY,NORTHWEST MIDDLE,36,440,,Regular Education,7,8,1730 W 1700 N,SALT LAKE CITY,84116,8015788547,http://northwest.slcschools.org/,,,,,,
739,,,,,,,,,,,,,,,,,,,,
740,,,,,,,,,,,,,,,,,,,,
741,,,,,,,,,,,,,,,,,,,,
742,,,,,,,,,,,,,,,,,,,,
743,,,,,,,,,,,,,,,,,,,,
744,,,,,,,,,,,,,,,,,,,,
745,,,,,,,,,,,,,,,,,,,,
746,,,,,,,,,,,,,,,,,,,,
747,,,,,,,,,,,,,,,,,,,,
748,558,SALT LAKE CITY,NORTH STAR SCHOOL,36,140,,Regular Education,PK,6,1545 N MORTON DR,SALT LAKE CITY,84116,8015788448,http://northstar.slcschools.org/,,,,,,
748,711,SALT LAKE CITY,ESCALANTE SCHOOL,36,262,,Regular Education,PK,6,1810 W 900 N,SALT LAKE CITY,84116,8015788496,http://escalante.slcschools.org/index.php,,,,,,
748,1141,SALT LAKE CITY,PACIFIC HERITAGE ACADEMY,7H,100,Charter School,Regular Education,K,8,1755 W 1100 N,SALT LAKE CITY,84116,8013631892,http://phlearning.org/,,,,,,
749,,,,,,,,,,,,,,,,,,,,
750,,,,,,,,,,,,,,,,,,,,
751,706,SALT LAKE CITY,GUADALUPE SCHOOL,1E,100,Charter School,Regular Education,K,6,1385 N 1200 W,SALT LAKE CITY,84116,8015316100,http://www.guadschool.org/,,,,,,
752,448,SALT LAKE CITY,NEWMAN SCHOOL,36,220,,Regular Education,PK,6,1269 N COLORADO ST,SALT LAKE CITY,84116,8015788537,http://newman.slcschools.org/,,,,,,
752,811,SALT LAKE CITY,SALT LAKE CENTER FOR SCIENCE EDUCATION,4F,300,Charter School,Regular Education,6,12,1400 W GOODWIN AVE,SALT LAKE CITY,84116,8015788226,http://slcse.slcschools.org,,,,,,
753,542,SALT LAKE CITY,SALT LAKE HEAD START,36,292,,Regular Education,PK,,1240 AMERICAN BEAUTY DR,SALT LAKE CITY,84116,8015788173,http://www.saltlakeheadstart.org/,,,,,,
754,,,,,,,,,,,,,,,,,,,,
755,533,SALT LAKE CITY,ROSE PARK SCHOOL,36,252,,Regular Education,PK,6,1105 W 1000 N,SALT LAKE CITY,84116,8015788554,http://rosepark.slcschools.org/,,,,,,
756,447,SALT LAKE CITY,MEADOWLARK SCHOOL,36,216,,Regular Education,PK,6,497 N  MORTON DR,SALT LAKE CITY,84116,8015788529,http://meadowlark.slcschools.org/,,,,,,
757,,,,,,,,,,,,,,,,,,,,
758,,,,,,,,,,,,,,,,,,,,
759,,,,,,,,,,,,,,,,,,,,
760,525,SALT LAKE CITY,BACKMAN SCHOOL,36,104,,Regular Education,PK,6,601 N 1500 W,SALT LAKE CITY,84116,8015788100,http://backman.slc.k12.ut.us/,,,,,,
761,,,,,,,,,,,,,,,,,,,,
762,,,,,,,,,,,,,,,,,,,,
763,,,,,,,,,,,,,,,,,,,,
764,439,SALT LAKE CITY,JACKSON SCHOOL,36,188,,Regular Education,PK,6,750 W 200 N,SALT LAKE CITY,84116,8015788165,http://jackson.slcschools.org/,,,,,,
765,,,,,,,,,,,,,,,,,,,,
766,,,,,,,,,,,,,,,,,,,,
767,,,,,,,,,,,,,,,,,,,,
768,,,,,,,,,,,,,,,,,,,,
769,,,,,,,,,,,,,,,,,,,,
770,,,,,,,,,,,,,,,,,,,,
771,,,,,,,,,,,,,,,,,,,,
772,,,,,,,,,,,,,,,,,,,,
773,,,,,,,,,,,,,,,,,,,,
774,,,,,,,,,,,,,,,,,,,,
775,,,,,,,,,,,,,,,,,,,,
776,,,,,,,,,,,,,,,,,,,,
777,,,,,,,,,,,,,,,,,,,,
778,,,,,,,,,,,,,,,,,,,,
779,,,,,,,,,,,,,,,,,,,,
780,,,,,,,,,,,,,,,,,,,,
781,,,,,,,,,,,,,,,,,,,,
782,,,,,,,,,,,,,,,,,,,,
783,124,SALT LAKE CITY,WALLACE STEGNER ACADEMY,7K,300,Charter School,Regular Education,K,7,980 S BENDING RIVER CT,SALT LAKE CITY,84104,8014569570,http://wsacharter.org,,,,,,
784,423,SALT LAKE CITY,EDISON SCHOOL,36,132,,Regular Education,PK,6,466 CHEYENNE ST,SALT LAKE CITY,84104,8019748300,http://edison.slcschools.org/,,,,,,
785,,,,,,,,,,,,,,,,,,,,
786,,,,,,,,,,,,,,,,,,,,
787,527,SALT LAKE CITY,FRANKLIN SCHOOL,36,148,,Regular Education,PK,6,1115 W 300 S,SALT LAKE CITY,84104,8015788158,http://franklin.slcschools.org/,,,,,,
788,,,,,,,,,,,,,,,,,,,,
789,674,SALT LAKE CITY,DUAL IMMERSION ACADEMY,4E,100,Charter School,Regular Education,K,8,1155 S GLENDALE DR,SALT LAKE CITY,84104,8019721425,http://diacharter.org/,,,,,,
790,452,SALT LAKE CITY,PARKVIEW SCHOOL,36,242,,Regular Education,PK,6,970 S EMERY ST,SALT LAKE CITY,84104,8019748304,http://parkview.slcschools.org/,,,,,,
791,,,,,,,,,,,,,,,,,,,,
792,,,,,,,,,,,,,,,,,,,,
793,,,,,,,,,,,,,,,,,,,,
794,,,,,,,,,,,,,,,,,,,,
795,,,,,,,,,,,,,,,,,,,,
796,,,,,,,,,,,,,,,,,,,,
797,,,,,,,,,,,,,,,,,,,,
798,,,,,,,,,,,,,,,,,,,,
799,,,,,,,,,,,,,,,,,,,,
800,,,,,,,,,,,,,,,,,,,,
801,549,SALT LAKE CITY,GLENDALE MIDDLE,36,412,,Regular Education,6,8,1430 W ANDREW AVE,SALT LAKE CITY,84104,8019748320,http://glendale.slcschools.org/,,,,,,
801,528,SALT LAKE CITY,MOUNTAIN VIEW SCHOOL,36,160,,Regular Education,PK,6,1380 S NAVAJO,SALT LAKE CITY,84104,8019748315,http://mountainview.slcschools.org/,,,,,,
802,,,,,,,,,,,,,,,,,,,,
803,,,,,,,,,,,,,,,,,,,,
804,93,SALT LAKE CITY,SALT LAKE COMMUNITY ACTION HEAD START,SL,901,Private School,Regular Education,PK,,1307 SOUTH 900 WEST,SALT LAKE CITY,84104,8014105705,www.saltlakeheadstart.org,,,,,,
804,373,SALT LAKE CITY,RILEY SCHOOL,36,244,,Regular Education,PK,6,1410 S 800 W,SALT LAKE CITY,84104,8019748310,http://riley.slcschools.org/,,,,,,
805,,,,,,,,,,,,,,,,,,,,
806,,,,,,,,,,,,,,,,,,,,
807,,,,,,,,,,,,,,,,,,,,
808,,,,,,,,,,,,,,,,,,,,
809,,,,,,,,,,,,,,,,,,,,
810,,,,,,,,,,,,,,,,,,,,
811,1272,GRANITE,SALT LAKE COMMUNITY COLLEGE WEST VALLEY CENTER,1 12 14 21 36 40,49,Regional Campus,Higher Education,9,12,3460 S 5600 W,WEST VALLEY CITY,84128,,http://www.slcc.edu/,363,0,363,1,0,wrfc
812,,,,,,,,,,,,,,,,,,,,
813,,,,,,,,,,,,,,,,,,,,
814,33,GRANITE,DANCING MOOSE MONTESSORI,NM,901,Private School,Regular Education,PK,2,4428 LINKS DRIVE,WEST VALLEY CITY,84120,8019680100,www.mydancingmoose.com,,,,,,
815,,,,,,,,,,,,,,,,,,,,
816,65,GRANITE,LEARNING TREE WEST,TS,902,Private School,Regular Education,PK,,3655 W 2340 S,WEST VALLEY CITY,84120,3857430637,www.learningtreeutah.com,,,,,,
817,223,GRANITE,VALLEY CREST SCHOOL,12,203,,Regular Education,K,6,5240 W 3100 S,WEST VALLEY CITY,84120,3856465061,http://www.graniteschools.org/el/valleycrest/,,,,,,
817,1128,GRANITE,NEIL ARMSTRONG ACADEMY,12,231,,Regular Education,PK,6,5194 W HIGHBURY PKWY,WEST VALLEY,84120,3856465284,http://schools.graniteschools.org/armstrong/,,,,,,
817,1217,GRANITE,MONTICELLO ACADEMY,7C,100,Charter School,Regular Education,K,9,2782 S CORPORATE PARK DRIVE,WEST VALLEY CITY,84120,8014178040,http://www.monticelloacademy.net,,,,,,
818,,,,,,,,,,,,,,,,,,,,
819,154,GRANITE,MONROE SCHOOL,12,164,,Regular Education,PK,6,4450 W 3100 S,WEST VALLEY CITY,84120,3856464918,http://www.graniteschools.org/el/monroe/,,,,,,
820,,,,,,,,,,,,,,,,,,,,
821,626,GRANITE,EAST HOLLYWOOD HIGH,A8,700,Charter School,Regular Education,9,12,2185 S 3600 W,WEST VALLEY CITY,84119,8018868181,http://www.easthollywood.org,,,,,,
821,1096,GRANITE,MANA ACADEMY CHARTER SCHOOL,4I,700,Charter School,Regular Education,K,12,2355 S TECHNOLOGY DR,WEST VALLEY CITY,84119,8019726262,http://www.themanaacademy.org/,,,,,,
822,,,,,,,,,,,,,,,,,,,,
823,,,,,,,,,,,,,,,,,,,,
824,8,GRANITE,AMERICAN PREPARATORY ACADEMY - ACCELERATED SCHOOL,74,110,Charter School,Regular Education,K,12,3636 W 3100 S,WEST VALLEY CITY,84120,3853513090,http://www.americanprep.org/home/,,,,,,
825,,,,,,,,,,,,,,,,,,,,
826,213,GRANITE,STANSBURY SCHOOL,12,197,,Regular Education,PK,6,3050 S 2700 W,WEST VALLEY CITY,84119,3856465032,http://stansburytigers.wikispaces.com/,,,,,,
827,,,,,,,,,,,,,,,,,,,,
828,,,,,,,,,,,,,,,,,,,,
829,146,GRANITE,HILLSDALE SCHOOL,12,134,,Regular Education,PK,6,3275 W 3100 S,WEST VALLEY CITY,84119,3856464864,http://hillsdaleelementary.weebly.com/,,,,,,
829,241,GRANITE,WEST LAKE JR HIGH,12,434,,Regular Education,7,9,3400 S 3450 W,WEST VALLEY CITY,84119,3856465254,http://www.graniteschools.org/jr/westlake/,,,,,,
830,,,,,,,,,,,,,,,,,,,,
831,,,,,,,,,,,,,,,,,,,,
832,,,,,,,,,,,,,,,,,,,,
833,123,GRANITE,VANGUARD ACADEMY,1K,700,Charter School,Regular Education,7,12,2650 SOUTH DECKER LAKE LANE,WEST VALLEY CITY,84119,8013278724,www.vanguardcharter.org,,,,,,
833,836,GRANITE,ENDEAVOR HALL,3H,100,Charter School,Regular Education,K,8,2614 S DECKER LAKE LN,WEST VALLEY CITY,84119,8019721153,http://www.endeavorhall.org/,,,,,,
834,182,GRANITE,REDWOOD SCHOOL,12,184,,Regular Education,PK,6,2650 S REDWOOD RD,WEST VALLEY CITY,84119,3856464984,http://www.graniteschools.org/el/redwood/,,,,,,
835,,,,,,,,,,,,,,,,,,,,
836,,,,,,,,,,,,,,,,,,,,
837,,,,,,,,,,,,,,,,,,,,
838,91,GRANITE,ROOTS CHARTER HIGH SCHOOL,3K,700,Charter School,Regular Education,9,12,2250 SOUTH 1300 WEST,WEST VALLEY CITY,84119,8015738719,www.rootshigh.org,,,,,,
838,748,GRANITE,IQRA ACADEMY OF UTAH,MC,901,Private School,Regular Education,K,6,3990 S CONSTITUTION BLVD,WEST VALLEY CITY,84119,8019646470,www.iqraacademy.org,,,,,,
838,1099,GRANITE,KAIROS ACADEMY,4J,700,Charter School,Regular Education,9,12,1325 W 2200 S SUITE A,WEST VALLEY CITY,84119,3853551640,http://kairosacademy.org/,,,,,,
839,,,,,,,,,,,,,,,,,,,,
840,767,GRANITE,AMERICAN PREPARATORY ACADEMY--THE SCHOOL FOR NEW AMERICANS,74,120,Charter School,Regular Education,K,9,1255 W CRYSTAL AVE,WEST VALLEY CITY,84119,8018393613,http://www.americanprep.org/home/,,,,,,
841,,,,,,,,,,,,,,,,,,,,
842,,,,,,,,,,,,,,,,,,,,
843,,,,,,,,,,,,,,,,,,,,
844,,,,,,,,,,,,,,,,,,,,
845,589,GRANITE,COTTONWOOD YOUTH ACADEMY,KH,955,Private School,Residential Treatment,7,12,1110 W 3300 S,SALT LAKE CITY,84119,8014332900,,,,,,,
846,,,,,,,,,,,,,,,,,,,,
847,,,,,,,,,,,,,,,,,,,,
848,1104,GRANITE,ESPERANZA SCHOOL,2I,100,Charter School,Regular Education,K,6,4956 W 3500 S,WEST VALLEY CITY,84120,8013051450,www.esperanzaelementary.org,,,,,,
849,,,,,,,,,,,,,,,,,,,,
850,832,GRANITE,CARL SANDBURG SCHOOL,12,110,,Regular Education,PK,6,3900 S 5325 W,WEST VALLEY CITY,84120,3856465008,http://www.graniteschools.org/el/sandburg/,,,,,,
851,,,,,,,,,,,,,,,,,,,,
852,,,,,,,,,,,,,,,,,,,,
853,,,,,,,,,,,,,,,,,,,,
854,,,,,,,,,,,,,,,,,,,,
855,172,GRANITE,PHILO T. FARNSWORTH SCHOOL,12,179,,Regular Education,K,6,3751 S 4225 W,WEST VALLEY CITY,84120,3856464822,http://www.graniteschools.org/el/farnsworth/,,,,,,
856,,,,,,,,,,,,,,,,,,,,
857,924,GRANITE,JACKLING SCHOOL,12,141,,Regular Education,K,6,3760 S 4610 W,WEST VALLEY CITY,84120,3856464882,http://www.graniteschools.org/el/jackling/,,,,,,
858,,,,,,,,,,,,,,,,,,,,
859,,,,,,,,,,,,,,,,,,,,
860,203,GRANITE,GRANGER HIGH,12,708,,Regular Education,9,12,3690 S 3600 W,WEST VALLEY CITY,84119,3856465320,http://www.graniteschools.org/hs/granger/,,,,,,
861,,,,,,,,,,,,,,,,,,,,
862,,,,,,,,,,,,,,,,,,,,
863,169,GRANITE,PIONEER SCHOOL,12,178,,Regular Education,K,6,3860 S 3380 W,WEST VALLEY CITY,84119,3856464966,http://www.graniteschools.org/el/pioneer/,,,,,,
864,,,,,,,,,,,,,,,,,,,,
865,,,,,,,,,,,,,,,,,,,,
866,,,,,,,,,,,,,,,,,,,,
867,183,GRANITE,ROLLING MEADOWS SCHOOL,12,186,,Regular Education,PK,6,2950 WHITEHALL DR,WEST VALLEY CITY,84119,3856464990,http://www.graniteschools.org/el/rollingmeadows/,,,,,,
868,,,,,,,,,,,,,,,,,,,,
869,,,,,,,,,,,,,,,,,,,,
870,142,GRANITE,GRANGER SCHOOL,12,128,,Regular Education,PK,6,3702 S 1950 W,WEST VALLEY CITY,84119,3856464852,http://www.graniteschools.org/el/granger/,,,,,,
871,,,,,,,,,,,,,,,,,,,,
872,,,,,,,,,,,,,,,,,,,,
873,,,,,,,,,,,,,,,,,,,,
874,,,,,,,,,,,,,,,,,,,,
875,,,,,,,,,,,,,,,,,,,,
876,,,,,,,,,,,,,,,,,,,,
877,,,,,,,,,,,,,,,,,,,,
878,916,GRANITE,HUNTER HIGH,12,710,,Regular Education,10,12,4200 S 5600 W,WEST VALLEY CITY,84120,3856465360,http://www.graniteschools.org/hs/hunter/,,,,,,
879,,,,,,,,,,,,,,,,,,,,
880,,,,,,,,,,,,,,,,,,,,
881,207,GRANITE,HUNTER SCHOOL,12,135,,Regular Education,K,6,4351 S 5400 W,WEST VALLEY CITY,84120,3856464876,http://www.graniteschools.org/el/hunter/,,,,,,
882,,,,,,,,,,,,,,,,,,,,
883,,,,,,,,,,,,,,,,,,,,
884,185,GRANITE,ACADEMY PARK SCHOOL,12,102,,Regular Education,K,6,4580 WESTPOINT DR,WEST VALLEY CITY,84120,3856464750,http://www.graniteschools.org/el/academypark/,,,,,,
884,205,GRANITE,JOHN F. KENNEDY JR HIGH,12,422,,Regular Education,7,9,4495 S 4800 W,WEST VALLEY CITY,84120,3856465214,http://kennedyjunior.weebly.com/,,,,,,
885,,,,,,,,,,,,,,,,,,,,
886,,,,,,,,,,,,,,,,,,,,
887,,,,,,,,,,,,,,,,,,,,
888,,,,,,,,,,,,,,,,,,,,
889,139,GRANITE,ROBERT FROST SCHOOL,12,126,,Regular Education,K,6,3444 W 4400 S,WEST VALLEY CITY,84119,3856464840,http://www.graniteschools.org/el/frost/,,,,,,
890,,,,,,,,,,,,,,,,,,,,
891,236,GRANITE,VALLEY JR HIGH,12,428,,Regular Education,7,9,4195 S 3200 W,WEST VALLEY CITY,84119,3856465234,http://www.graniteschools.org/jr/valley/,,,,,,
892,188,GRANITE,HARRY S. TRUMAN SCHOOL,12,193,,Regular Education,K,6,4639 S 3200 W,WEST VALLEY CITY,84119,3856465044,http://www.graniteschools.org/el/truman/,,,,,,
893,,,,,,,,,,,,,,,,,,,,
894,,,,,,,,,,,,,,,,,,,,
895,1207,GRANITE,TAYLORSVILLE SCHOOL,12,198,,Regular Education,K,6,2010 W 4230 S,SALT LAKE CITY,84119,3856465038,http://taylorsvilletigers.weebly.com/,,,,,,
896,,,,,,,,,,,,,,,,,,,,
897,614,GRANITE,SALT LAKE COMMUNITY COLLEGE,1 12 14 21 36 40,49,Regional Campus,Higher Education,9,12,4600 S REDWOOD RD,SALT LAKE CITY,84130,3859574111,http://www.slcc.edu/,7580.56,21575.44,"29,156",0.26,0.74,https://nces.ed.gov/collegenavigator/?q=SALT+LAKE+COMMUNITY+COLLEGE&s=all&id=230746#enrolmt
898,136,GRANITE,YMCA OF NORTHERN UTAH - SALT LAKE COUNTY,YM,905,Private School,Regular Education,PK,,4223 SOUTH ATHERTON DRIVE,TAYLORSVILLE,84123,8018393388,www.ymcautah.org,,,,,,
898,192,GRANITE,EISENHOWER JR HIGH,12,411,,Regular Education,7,9,4351 S REDWOOD RD,TAYLORSVILLE,84123,3856465154,http://www.graniteschools.org/SchoolSites/juniorhighschools/eisenhower/Pages/home.aspx,,,,,,
898,919,GRANITE,JOHN C FREMONT SCHOOL,12,138,,Regular Education,K,6,4249 S 1425 W,TAYLORSVILLE,84123,3856464834,http://www.graniteschools.org/el/fremont/,,,,,,
899,,,,,,,,,,,,,,,,,,,,
900,,,,,,,,,,,,,,,,,,,,
901,135,GRANITE,YOUTH VILLAGE ACADEMY,YV,177,Private School,Alternative,9,12,1030 W ATHERTON DRIVE,SALT LAKE CITY,84123,8012816118,,,,,,,
902,,,,,,,,,,,,,,,,,,,,
903,,,,,,,,,,,,,,,,,,,,
904,1100,MURRAY CITY,AMERICAN INTERNATIONAL SCHOOL OF UTAH,1J,800,Charter School,Regular Education,K,12,4998 S GALLERIA DR,MURRAY,84123,8019897191,www.AISUtah.org,,,,,,
905,1187,MURRAY CITY,STEVENS HENAGER COLLEGE,,,Regional Campus,Higher Education,,,1181 S GLENDALE DR,SALT LAKE CITY,84123,,,399,0,399,1,0,https://nces.ed.gov/collegenavigator/?q=STEVENS+HENAGER+COLLEGE&s=all&id=438151#enrolmt
906,,,,,,,,,,,,,,,,,,,,
907,773,GRANITE,SILVER HILLS SCHOOL,12,191,,Regular Education,K,6,5770 W 5100 S,KEARNS,84118,3856465014,http://silverhillselementary.weebly.com/,,,,,,
908,,,,,,,,,,,,,,,,,,,,
909,222,GRANITE,WESTERN HILLS SCHOOL,12,202,,Regular Education,PK,6,5190 S HEATH AVE,KEARNS,84118,3856465091,http://www.graniteschools.org/el/westernhills/,,,,,,
910,30,GRANITE,CHILDREN'S EXPRESS LEARNING ACADEMY KEARNS,CE,902,Private School,Regular Education,PK,,5000 WEST 5035 SOUTH,KEARNS,84118,8019673111,celautah.com,,,,,,
911,170,GRANITE,WEST KEARNS SCHOOL,12,204,,Regular Education,K,6,4900 S 4620 W,KEARNS,84118,3856465073,http://www.graniteschools.org/el/westkearns/,,,,,,
912,165,GRANITE,OQUIRRH HILLS SCHOOL,12,176,,Regular Education,PK,6,5241 S 4280 W,KEARNS,84118,3856464948,http://www.graniteschools.org/el/oquirrhills/,,,,,,
912,221,GRANITE,ST FRANCIS XAVIER REGIONAL SCH,FC,902,Private School,Regular Education,PK,8,4501 W 5215 S,KEARNS,84118,8019661571,,,,,,,
912,204,GRANITE,KEARNS JR HIGH,12,420,,Regular Education,7,9,4040 W SAM'S BLVD,KEARNS,84118,3856465204,http://www.graniteschools.org/jr/kearns/,,,,,,
912,494,GRANITE,JOHN LOCKE ACADEMY,KU,659,Private School,Regular Education,7,12,4115 W SAMS CLUB,KEARNS,84118,8017381568,,,,,,,
912,1083,GRANITE,DAVID GOURLEY SCHOOL,12,116,,Regular Education,PK,6,4905 S 4300 W,KEARNS,84118,3856464846,http://www.graniteschools.org/el/gourley/,,,,,,
913,,,,,,,,,,,,,,,,,,,,
914,,,,,,,,,,,,,,,,,,,,
915,,,,,,,,,,,,,,,,,,,,
916,189,GRANITE,ARCADIA SCHOOL,12,103,,Regular Education,K,6,3461 W 4850 S,TAYLORSVILLE,84118,3856464756,http://www.graniteschools.org/el/arcadia/,,,,,,
917,,,,,,,,,,,,,,,,,,,,
918,,,,,,,,,,,,,,,,,,,,
919,,,,,,,,,,,,,,,,,,,,
920,,,,,,,,,,,,,,,,,,,,
921,,,,,,,,,,,,,,,,,,,,
922,66,GRANITE,LIT'L SCHOLARS TAYLORSVILLE INC,LL,902,Private School,Regular Education,PK,,4732 S 1950 W,TAYLORSVILLE,84129,8019358988,www.litlscholars.com,,,,,,
922,218,GRANITE,VISTA SCHOOL,12,201,,Regular Education,PK,6,4925 S 2200 W,TAYLORSVILLE,84118,3856465067,http://vistalions.weebly.com/,,,,,,
923,,,,,,,,,,,,,,,,,,,,
924,1225,GRANITE,SYLVAN LEARNING CENTER - WEST JORDAN,FS,815,Private School,Supplemental Services,K,12,5632 S REDWOOD RD,TAYLORSVILLE,84123,8019664780,,,,,,,
925,177,GRANITE,PLYMOUTH SCHOOL,12,180,,Regular Education,K,6,5220 S 1470 W,SALT LAKE CITY,84123,3856464978,http://plymouthpatriots.wikispaces.com/,,,,,,
925,31,GRANITE,CHILDREN'S EXPRESS LEARNING ACADEMY TAYLORSVILLE,CE,901,Private School,Regular Education,PK,,4995 S REDWOOD ROAD,TAYLORSVILLE,84123,8012681142,celautah.com,,,,,,
925,925,GRANITE,TAYLORSVILLE HIGH,12,722,,Regular Education,10,12,5225 S REDWOOD RD,TAYLORSVILLE,84123,3856465455,http://www.graniteschools.org/hs/taylorsville/,,,,,,
925,1206,GRANITE,HARTVIGSEN SCHOOL,12,810,,Special Education,K,12,1510 W 5400 S,TAYLORSVILLE,84123,3856464585,http://www.graniteschools.org/ss/hartvigsen/HARTVIGSEN/Home.html,,,,,,
926,,,,,,,,,,,,,,,,,,,,
927,88,GRANITE,PRIMARY CHILDREN'S MEDICAL CENTER SCHOOL,WS,301,Private School,Residential Treatment,K,12,5770 S 1500 W,SALT LAKE CITY,84123,8013137866,,,,,,,
928,,,,,,,,,,,,,,,,,,,,
929,510,MURRAY CITY,HORIZON SCHOOL,40,116,,Regular Education,K,6,5180 S 700 W,MURRAY,84123,8012647420,http://schools.murrayschools.org/schools/HZN/mainpage.html,,,,,,
930,,,,,,,,,,,,,,,,,,,,
931,517,MURRAY CITY,RIVERVIEW JR HIGH,40,412,,Regular Education,7,9,751 W TRIPP LN,MURRAY,84123,8012647446,http://schools.murrayschools.org/schools/RJH/,,,,,,
931,605,MURRAY CITY,VIEWMONT SCHOOL,40,130,,Regular Education,K,6,745 W 5720 S,MURRAY,84123,8012647438,http://viewmont.schoolfusion.us/,,,,,,
932,506,MURRAY CITY,GRANT SCHOOL,40,112,,Regular Education,K,6,662 W 6140 S,MURRAY,84123,8012647416,http://schools.murrayschools.org/schools/GNT/Grant_Elementary/Welcome.html,,,,,,
933,190,GRANITE,THOMAS W BACCHUS SCHOOL,12,104,,Regular Education,K,6,5925 S 5975 W,KEARNS,84118,3856464762,http://bacchuselementary.weebly.com/,,,,,,
933,200,GRANITE,THOMAS JEFFERSON JR HIGH,12,419,,Regular Education,7,9,5850 S 5600 W,KEARNS,84118,3856465194,http://www.graniteschools.org/jr/jefferson/,,,,,,
934,,,,,,,,,,,,,,,,,,,,
935,197,GRANITE,BEEHIVE SCHOOL,12,107,,Regular Education,PK,6,5655 S 5220 W,KEARNS,84118,3856464768,http://www.graniteschools.org/el/beehive/,,,,,,
935,918,GRANITE,KEARNS HIGH,12,714,,Regular Education,9,12,5525 S COUGAR LN,KEARNS,84118,3856465380,http://kearnshigh.wikispaces.com/,,,,,,
936,211,GRANITE,SOUTH KEARNS SCHOOL,12,196,,Regular Education,PK,6,4430 W 5570 S,KEARNS,84118,3856465026,http://www.graniteschools.org/el/southkearns/,,,,,,
937,44,GRANITE,ENTHEOS ACADEMY KEARNS,3C,100,Charter School,Regular Education,K,9,4710 W 6200 S,KEARNS,84118,8014175444,http://www.entheosacademy.org/,,,,,,
938,1205,GRANITE,FOX HILLS SCHOOL,12,127,,Regular Education,K,6,3775 W 6020 S,SALT LAKE CITY,84118,3856464828,http://www.graniteschools.org/el/foxhills/,,,,,,
939,,,,,,,,,,,,,,,,,,,,
940,194,GRANITE,BENNION SCHOOL,12,106,,Regular Education,K,6,5775 S SIERRA GRANDE DR,SALT LAKE CITY,84118,3856464774,http://www.graniteschools.org/el/bennion/,,,,,,
941,227,GRANITE,BENNION JR HIGH,12,400,,Regular Education,7,9,6055 S 2700 W,TAYLORSVILLE,84118,3856465114,http://www.graniteschools.org/jr/bennion/,,,,,,
942,208,GRANITE,CALVIN S. SMITH SCHOOL,12,194,,Regular Education,PK,6,2150 W 6200 S,TAYLORSVILLE,84118,3856465020,http://www.graniteschools.org/el/smith/,,,,,,
943,777,GRANITE,KIDS WORLD,NG,901,Private School,Special Education,K,,1328 W STERN DR,SALT LAKE CITY,84123,8012434991,,,,,,,
944,,,,,,,,,,,,,,,,,,,,
945,,,,,,,,,,,,,,,,,,,,
946,,,,,,,,,,,,,,,,,,,,
947,,,,,,,,,,,,,,,,,,,,
948,,,,,,,,,,,,,,,,,,,,
949,,,,,,,,,,,,,,,,,,,,
950,1184,SALT LAKE CITY,LDS BUSINESS COLLEGE,,,Regional Campus,Higher Education,,,95 N 300 W,SALT LAKE CITY,84101,,,2847,,"1,996",0.63,0.37,https://nces.ed.gov/collegenavigator/?q=LDS+BUSINESS+COLLEGE&s=all&id=230418#enrolmt
951,,,,,,,,,,,,,,,,,,,,
952,,,,,,,,,,,,,,,,,,,,
953,,,,,,,,,,,,,,,,,,,,
954,,,,,,,,,,,,,,,,,,,,
955,,,,,,,,,,,,,,,,,,,,
956,,,,,,,,,,,,,,,,,,,,
957,,,,,,,,,,,,,,,,,,,,
958,,,,,,,,,,,,,,,,,,,,
959,,,,,,,,,,,,,,,,,,,,
960,,,,,,,,,,,,,,,,,,,,
961,,,,,,,,,,,,,,,,,,,,
962,,,,,,,,,,,,,,,,,,,,
963,,,,,,,,,,,,,,,,,,,,
964,,,,,,,,,,,,,,,,,,,,
965,,,,,,,,,,,,,,,,,,,,
966,,,,,,,,,,,,,,,,,,,,
967,548,SALT LAKE CITY,UTAH CATHOLIC SCHOOLS,FC,927,Private School,Special Education,K,5,27 C ST,SALT LAKE CITY,84103,8013288641,,,,,,,
967,530,SALT LAKE CITY,MADELEINE CHOIR SCHOOL,FC,922,Private School,Regular Education,K,8,205 FIRST AVE,SALT LAKE CITY,84103,8013239850,,,,,,,
968,,,,,,,,,,,,,,,,,,,,
969,,,,,,,,,,,,,,,,,,,,
970,,,,,,,,,,,,,,,,,,,,
971,,,,,,,,,,,,,,,,,,,,
972,,,,,,,,,,,,,,,,,,,,
973,,,,,,,,,,,,,,,,,,,,
974,,,,,,,,,,,,,,,,,,,,
975,,,,,,,,,,,,,,,,,,,,
976,,,,,,,,,,,,,,,,,,,,
977,111,SALT LAKE CITY,THE AMERICAN ACADEMY,AA,951,Online Private School,Regular Education,9,12,310 S MAIN ST,SALT LAKE CITY,84101,8559545472,www.theamericanacademy.com,,,,,,
978,,,,,,,,,,,,,,,,,,,,
979,,,,,,,,,,,,,,,,,,,,
980,,,,,,,,,,,,,,,,,,,,
981,,,,,,,,,,,,,,,,,,,,
982,,,,,,,,,,,,,,,,,,,,
983,,,,,,,,,,,,,,,,,,,,
984,,,,,,,,,,,,,,,,,,,,
985,,,,,,,,,,,,,,,,,,,,
986,,,,,,,,,,,,,,,,,,,,
987,,,,,,,,,,,,,,,,,,,,
988,,,,,,,,,,,,,,,,,,,,
989,,,,,,,,,,,,,,,,,,,,
990,68,SALT LAKE CITY,LOLIE ECCLES EARLY EDUCATION CENTER,YW,100,Private School,Regular Education,PK,,344 E 300 S,SALT LAKE CITY,84111,8015375502,www.ywca.com,,,,,,
991,,,,,,,,,,,,,,,,,,,,
992,,,,,,,,,,,,,,,,,,,,
993,,,,,,,,,,,,,,,,,,,,
994,,,,,,,,,,,,,,,,,,,,
995,,,,,,,,,,,,,,,,,,,,
996,,,,,,,,,,,,,,,,,,,,
997,,,,,,,,,,,,,,,,,,,,
998,,,,,,,,,,,,,,,,,,,,
999,,,,,,,,,,,,,,,,,,,,
1000,,,,,,,,,,,,,,,,,,,,
1001,,,,,,,,,,,,,,,,,,,,
1002,,,,,,,,,,,,,,,,,,,,
1003,,,,,,,,,,,,,,,,,,,,
1004,,,,,,,,,,,,,,,,,,,,
1005,,,,,,,,,,,,,,,,,,,,
1006,,,,,,,,,,,,,,,,,,,,
1007,,,,,,,,,,,,,,,,,,,,
1008,,,,,,,,,,,,,,,,,,,,
1009,,,,,,,,,,,,,,,,,,,,
1010,,,,,,,,,,,,,,,,,,,,
1011,,,,,,,,,,,,,,,,,,,,
1012,,,,,,,,,,,,,,,,,,,,
1013,,,,,,,,,,,,,,,,,,,,
1014,,,,,,,,,,,,,,,,,,,,
1015,,,,,,,,,,,,,,,,,,,,
1016,,,,,,,,,,,,,,,,,,,,
1017,,,,,,,,,,,,,,,,,,,,
1018,729,SALT LAKE CITY,UTAH ELECTRONIC HIGH SCHOOL,43,700,Online School,Regular Education,5,12,250 E 500 S,SALT LAKE CITY,84114,8015387564,http://ehs.uen.org/,,,,,,
1019,,,,,,,,,,,,,,,,,,,,
1020,,,,,,,,,,,,,,,,,,,,
1021,,,,,,,,,,,,,,,,,,,,
1022,,,,,,,,,,,,,,,,,,,,
1023,617,SALT LAKE CITY,SALT LAKE ARTS ACADEMY,97,300,Charter School,Regular Education,5,8,844 S 200 E,SALT LAKE CITY,84111,8015311173,http://www.saltlakeartsacademy.org,,,,,,
1024,,,,,,,,,,,,,,,,,,,,
1025,,,,,,,,,,,,,,,,,,,,
1026,,,,,,,,,,,,,,,,,,,,
1027,,,,,,,,,,,,,,,,,,,,
1028,,,,,,,,,,,,,,,,,,,,
1029,,,,,,,,,,,,,,,,,,,,
1030,,,,,,,,,,,,,,,,,,,,
1031,,,,,,,,,,,,,,,,,,,,
1032,,,,,,,,,,,,,,,,,,,,
1033,,,,,,,,,,,,,,,,,,,,
1034,,,,,,,,,,,,,,,,,,,,
1035,,,,,,,,,,,,,,,,,,,,
1036,,,,,,,,,,,,,,,,,,,,
1037,,,,,,,,,,,,,,,,,,,,
1038,446,SALT LAKE CITY,WEST HIGH,36,716,,Regular Education,7,12,241 N 300 W,SALT LAKE CITY,84103,8015788500,http://west.slcschools.org/,,,,,,
1039,,,,,,,,,,,,,,,,,,,,
1040,538,SALT LAKE CITY,WASHINGTON SCHOOL,36,276,,Regular Education,PK,6,420 N 200 W,SALT LAKE CITY,84103,8015788140,http://washington.slcschools.org/,,,,,,
1041,,,,,,,,,,,,,,,,,,,,
1042,,,,,,,,,,,,,,,,,,,,
1043,,,,,,,,,,,,,,,,,,,,
1044,,,,,,,,,,,,,,,,,,,,
1045,,,,,,,,,,,,,,,,,,,,
1046,,,,,,,,,,,,,,,,,,,,
1047,430,SALT LAKE CITY,ENSIGN SCHOOL,36,144,,Regular Education,PK,6,775 12TH AVE,SALT LAKE CITY,84103,8015788150,http://ensign.slcschools.org/,,,,,,
1048,,,,,,,,,,,,,,,,,,,,
1049,,,,,,,,,,,,,,,,,,,,
1050,,,,,,,,,,,,,,,,,,,,
1051,,,,,,,,,,,,,,,,,,,,
1052,,,,,,,,,,,,,,,,,,,,
1053,709,SALT LAKE CITY,OPEN CLASSROOM,8D,240,Charter School,Regular Education,K,8,134 D ST,SALT LAKE CITY,84103,8015788144,http://www.ocslc.org,,,,,,
1054,,,,,,,,,,,,,,,,,,,,
1055,,,,,,,,,,,,,,,,,,,,
1056,,,,,,,,,,,,,,,,,,,,
1057,,,,,,,,,,,,,,,,,,,,
1058,,,,,,,,,,,,,,,,,,,,
1059,537,SALT LAKE CITY,WASATCH SCHOOL,36,272,,Regular Education,K,6,30 R ST,SALT LAKE CITY,84103,8015788564,http://wasatch.slcschools.org/,,,,,,
1060,,,,,,,,,,,,,,,,,,,,
1061,,,,,,,,,,,,,,,,,,,,
1062,96,SALT LAKE CITY,PRIVATE SCHOOL,36,630,Private School,Special Education,7,12,440 E 100 S,SALT LAKE CITY,84111,8015788599,,,,,,,
1063,577,SALT LAKE CITY,CITY ACADEMY,87,700,Charter School,Regular Education,7,12,555 E 200 S,SALT LAKE CITY,84102,8015968489,http://www.cityacademyslc.org,,,,,,
1063,450,SALT LAKE CITY,ODYSSEY HOUSE SCHOOL,KO,666,Private School,Regular Education,7,12,607 E 200 S,SALT LAKE CITY,84102,8013288752,,,,,,,
1064,,,,,,,,,,,,,,,,,,,,
1065,,,,,,,,,,,,,,,,,,,,
1066,,,,,,,,,,,,,,,,,,,,
1067,,,,,,,,,,,,,,,,,,,,
1068,544,SALT LAKE CITY,BRYANT MIDDLE,36,404,,Regular Education,7,8,40 S 800 E,SALT LAKE CITY,84102,8015788118,http://bryant.slcschools.org/,,,,,,
1069,,,,,,,,,,,,,,,,,,,,
1070,,,,,,,,,,,,,,,,,,,,
1071,,,,,,,,,,,,,,,,,,,,
1072,,,,,,,,,,,,,,,,,,,,
1073,,,,,,,,,,,,,,,,,,,,
1074,,,,,,,,,,,,,,,,,,,,
1075,631,SALT LAKE CITY,UNIVERSITY OF UTAH,1,52,Residential Campus,Higher Education,9,12,201 S PRESIDENTS CIR RM 203,SALT LAKE CITY,84112,8015817200,http://www.utah.edu/portal/site/uuhome/,24767.25,8255.75,"33,023",0.75,0.25,https://nces.ed.gov/collegenavigator/?q=UNIVERSITY+OF+UTAH&s=all&id=230764#enrolmt
1076,759,SALT LAKE CITY,JEWISH COMMUNITY CENTER,NB,901,Private School,Special Education,K,,2 N MEDICAL DR,SALT LAKE CITY,84113,8015810098,,,,,,,
1077,467,SALT LAKE CITY,UNIVERSITY ACADEMY,UA,950,Private School,Regular Education,K,12,501 CHIPETA WAY,SALT LAKE CITY,84108,8015832500,,,,,,,
1078,,,,,,,,,,,,,,,,,,,,
1079,,,,,,,,,,,,,,,,,,,,
1080,,,,,,,,,,,,,,,,,,,,
1081,,,,,,,,,,,,,,,,,,,,
1082,,,,,,,,,,,,,,,,,,,,
1083,,,,,,,,,,,,,,,,,,,,
1084,,,,,,,,,,,,,,,,,,,,
1085,444,SALT LAKE CITY,M LYNN BENNION SCHOOL,36,204,,Regular Education,PK,6,429 S 800 E,SALT LAKE CITY,84102,8015788108,http://bennion.slcschools.org/,,,,,,
1086,,,,,,,,,,,,,,,,,,,,
1087,,,,,,,,,,,,,,,,,,,,
1088,454,SALT LAKE CITY,OUR LADY OF LOURDES,FC,921,Private School,Regular Education,K,8,1065 E 700 S,SALT LAKE CITY,84102,8013645624,,,,,,,
1088,463,SALT LAKE CITY,ROWLAND HALL-ST MARK'S (MIDDLE),FR,957,Private School,Regular Education,PK,12,970 E 800 S,SALT LAKE CITY,84102,8013550272,,,,,,,
1088,464,SALT LAKE CITY,JUDGE MEMORIAL CATHOLIC HIGH,FC,959,Private School,Regular Education,9,12,650 S 1100 E,SALT LAKE CITY,84102,8013638895,,,,,,,
1088,466,SALT LAKE CITY,ROWLAND HALL-ST MARK'S (SEC),FR,969,Private School,Regular Education,9,12,843 LINCOLN ST,SALT LAKE CITY,84102,8013557494,,,,,,,
1089,,,,,,,,,,,,,,,,,,,,
1090,,,,,,,,,,,,,,,,,,,,
1091,554,SALT LAKE CITY,MCGILLIS SCHOOL,JF,901,Private School,Regular Education,1,8,668 S 1300 E,SALT LAKE CITY,84102,8015830094,,,,,,,
1091,442,SALT LAKE CITY,EAST HIGH,36,704,,Regular Education,9,12,840 S 1300 E,SALT LAKE CITY,84102,8015831661,http://east.slcschools.org/,,,,,,
1092,92,SALT LAKE CITY,ROWLAND HALL-ST MARK'S (ELEM),FR,919,Private School,Regular Education,PK,5,720 GUARDSMAN WAY,SALT LAKE CITY,84108,8013557485,,,,,,,
1092,1197,SALT LAKE CITY,CARMEN PINGREE SCHOOL,MS,901,Private School,Special Education,K,6,780 S GURADSMAN WAY,SALT LAKE CITY,84109,8015810194,,,,,,,
1093,,,,,,,,,,,,,,,,,,,,
1094,,,,,,,,,,,,,,,,,,,,
1095,,,,,,,,,,,,,,,,,,,,
1096,,,,,,,,,,,,,,,,,,,,
1097,,,,,,,,,,,,,,,,,,,,
1098,,,,,,,,,,,,,,,,,,,,
1099,,,,,,,,,,,,,,,,,,,,
1100,119,SALT LAKE CITY,UPSTART PILOT PROJECT,FE,100,Online Private School,Supplemental Services,PK,,55 W 900 S,SALT LAKE CITY,84101,8013492200,,,,,,,
1101,94,SALT LAKE CITY,HORIZONTE INSTR & TRN CTR,36,750,,Alternative,7,12,1234 S MAIN,SALT LAKE CITY,84101,8015788574,,,,,,,
1102,,,,,,,,,,,,,,,,,,,,
1103,440,SALT LAKE CITY,LINCOLN SCHOOL,36,196,,Regular Education,PK,6,1090 S ROBERTA ST,SALT LAKE CITY,84111,8015788180,http://lincoln.slcschools.org/,,,,,,
1104,,,,,,,,,,,,,,,,,,,,
1105,,,,,,,,,,,,,,,,,,,,
1106,461,SALT LAKE CITY,REALMS OF INQUIRY,JK,918,Private School,Regular Education,PK,8,1140 S 900 E,SALT LAKE CITY,84105,8014675911,,,,,,,
1106,462,SALT LAKE CITY,REALMS OF INQUIRY,JK,968,Private School,Regular Education,9,12,1140 S 900 E,SALT LAKE CITY,84105,8014675911,,,,,,,
1107,,,,,,,,,,,,,,,,,,,,
1108,,,,,,,,,,,,,,,,,,,,
1109,,,,,,,,,,,,,,,,,,,,
1110,,,,,,,,,,,,,,,,,,,,
1111,,,,,,,,,,,,,,,,,,,,
1112,,,,,,,,,,,,,,,,,,,,
1113,534,SALT LAKE CITY,UINTAH SCHOOL,36,268,,Regular Education,K,6,1571 E 1300 S,SALT LAKE CITY,84105,8015842940,http://uintah.slcschools.org/,,,,,,
1114,,,,,,,,,,,,,,,,,,,,
1115,419,SALT LAKE CITY,BONNEVILLE SCHOOL,36,112,,Regular Education,K,6,1145 S 1900 E,SALT LAKE CITY,84108,8015842913,http://bonneville.slc.k12.ut.us/,,,,,,
1116,,,,,,,,,,,,,,,,,,,,
1117,,,,,,,,,,,,,,,,,,,,
1118,435,SALT LAKE CITY,INDIAN HILLS SCHOOL,36,184,,Regular Education,K,6,2496 ST MARY'S DR,SALT LAKE CITY,84108,8015842908,http://indianhills.slcschools.org/,,,,,,
1119,,,,,,,,,,,,,,,,,,,,
1120,,,,,,,,,,,,,,,,,,,,
1121,,,,,,,,,,,,,,,,,,,,
1122,,,,,,,,,,,,,,,,,,,,
1123,,,,,,,,,,,,,,,,,,,,
1124,,,,,,,,,,,,,,,,,,,,
1125,,,,,,,,,,,,,,,,,,,,
1126,541,SALT LAKE CITY,WHITTIER SCHOOL,36,288,,Regular Education,PK,6,1600 S 300 E,SALT LAKE CITY,84115,8014814846,http://whittier.slcschools.org/,,,,,,
1126,622,SALT LAKE CITY,SALT LAKE SKILL CENTER,36 40,69,,Vocational,9,12,1575 S STATE ST,SALT LAKE CITY,84115,,http://www.slcc.edu/sat/index.asp,,,,,,
1126,1123,SALT LAKE CITY,INNOVATIONS HIGH SCHOOL,36,748,,Regular Education,9,12,1700 S STATE ST,SALT LAKE CITY,84115,8014814946,www.innovationshigh.org,,,,,,
1126,1095,SALT LAKE CITY,INNOVATIONS K-8,36,290,,Regular Education,K,8,1700 S STATE ST,SALT LAKE CITY,84115,8014814951,www.innovationshigh.org,,,,,,
1126,1185,SALT LAKE CITY,SALT LAKE COMMUNITY COLLEGE SOUTH CITY CAMPUS,49,49,Regional Campus,Higher Education,9,12,1575 S STATE ST,SALT LAKE CITY,84115,,http://www.slcc.edu/sat/index.asp,5508,0,5508,1,0,wfrc
1127,,,,,,,,,,,,,,,,,,,,
1128,531,SALT LAKE CITY,HAWTHORNE SCHOOL,36,176,,Regular Education,K,6,1675 S 600 E,SALT LAKE CITY,84105,8014814824,http://hawthorne.slcschools.org/,,,,,,
1129,,,,,,,,,,,,,,,,,,,,
1130,427,SALT LAKE CITY,EMERSON SCHOOL,36,136,,Regular Education,K,6,1017 E 1370 S,SALT LAKE CITY,84105,8014814819,http://emerson.slcschools.org/,,,,,,
1131,,,,,,,,,,,,,,,,,,,,
1132,,,,,,,,,,,,,,,,,,,,
1133,,,,,,,,,,,,,,,,,,,,
1134,545,SALT LAKE CITY,CLAYTON MIDDLE,36,408,,Regular Education,7,8,1470 S 1900 E,SALT LAKE CITY,84108,8014814810,http://clayton.slcschools.org/,,,,,,
1135,,,,,,,,,,,,,,,,,,,,
1136,,,,,,,,,,,,,,,,,,,,
1137,,,,,,,,,,,,,,,,,,,,
1138,,,,,,,,,,,,,,,,,,,,
1139,,,,,,,,,,,,,,,,,,,,
1140,,,,,,,,,,,,,,,,,,,,
1141,,,,,,,,,,,,,,,,,,,,
1142,,,,,,,,,,,,,,,,,,,,
1143,,,,,,,,,,,,,,,,,,,,
1144,,,,,,,,,,,,,,,,,,,,
1145,,,,,,,,,,,,,,,,,,,,
1146,,,,,,,,,,,,,,,,,,,,
1147,,,,,,,,,,,,,,,,,,,,
1148,,,,,,,,,,,,,,,,,,,,
1149,,,,,,,,,,,,,,,,,,,,
1150,1189,SALT LAKE CITY,WESTMINSTER COLLEGE,55,,Regional Campus,Higher Education,,,1840 S 1300 E,SALT LAKE CITY,84105,8018322200,westminstercollege.edu,2353.15,123.85,"2,477",0.95,0.05,https://nces.ed.gov/collegenavigator/?q=WESTMINSTER+COLLEGE&s=all&id=230807
1151,,,,,,,,,,,,,,,,,,,,
1152,,,,,,,,,,,,,,,,,,,,
1153,,,,,,,,,,,,,,,,,,,,
1154,,,,,,,,,,,,,,,,,,,,
1155,,,,,,,,,,,,,,,,,,,,
1156,,,,,,,,,,,,,,,,,,,,
1157,422,SALT LAKE CITY,DILWORTH SCHOOL,36,124,,Regular Education,PK,6,1953 S 2100 E,SALT LAKE CITY,84108,8014814806,http://dilworth.slcschools.org/,,,,,,
1158,526,SALT LAKE CITY,BEACON HEIGHTS SCHOOL,36,108,,Regular Education,K,6,1850 S 2500 E,SALT LAKE CITY,84108,8014814814,http://beaconheights.slcschools.org/,,,,,,
1158,453,SALT LAKE CITY,J E COSGRIFF MEMORIAL,FC,907,Private School,Regular Education,K,8,2335 REDONDO AVE,SALT LAKE CITY,84108,8014863197,,,,,,,
1158,431,SALT LAKE CITY,HILLSIDE MIDDLE,36,416,,Regular Education,7,8,1825 S NEVADA ST,SALT LAKE CITY,84108,8014814828,http://hillside.slcschools.org/,,,,,,
1158,649,SALT LAKE CITY,CHILDREN BEHAVIOR THERAPY UNIT (CBTU),36,826,,Special Education,K,6,780 S GAURDSMAN WAY,SALT LAKE CITY,84108,8014814957,http://www.vmh.com/children_Programs/,,,,,,
1159,,,,,,,,,,,,,,,,,,,,
1160,690,SALT LAKE CITY,SYLVAN LEARNING CENTER - PARLEY'S WAY,FS,811,Private School,Supplemental Services,K,12,2645 E PARLEY'S WAY,SALT LAKE CITY,84109,8014661537,,,,,,,
1161,,,,,,,,,,,,,,,,,,,,
1162,,,,,,,,,,,,,,,,,,,,
1163,,,,,,,,,,,,,,,,,,,,
1164,,,,,,,,,,,,,,,,,,,,
1165,,,,,,,,,,,,,,,,,,,,
1166,,,,,,,,,,,,,,,,,,,,
1167,,,,,,,,,,,,,,,,,,,,
1168,,,,,,,,,,,,,,,,,,,,
1169,,,,,,,,,,,,,,,,,,,,
1170,456,GRANITE,KEARNS-ST ANN,FC,908,Private School,Regular Education,PK,8,430 E 2100 S,SALT LAKE CITY,84115,8014860741,,,,,,,
1171,,,,,,,,,,,,,,,,,,,,
1172,,,,,,,,,,,,,,,,,,,,
1173,67,SALT LAKE CITY,LORI M MARINO INC DBA LIT'L SCHOLARS,LL,901,Private School,Regular Education,PK,,653 E SIMPSON AVENUE,SALT LAKE CITY,84106,8014678545,www.litlscholars.com,,,,,,
1173,648,SALT LAKE CITY,SEPS LEARNING CENTER,MZ,950,Private School,Special Education,K,12,604 WILMINGTON AVE,SALT LAKE CITY,84106,8014672122,,,,,,,
1174,,,,,,,,,,,,,,,,,,,,
1175,,,,,,,,,,,,,,,,,,,,
1176,,,,,,,,,,,,,,,,,,,,
1177,,,,,,,,,,,,,,,,,,,,
1178,,,,,,,,,,,,,,,,,,,,
1179,,,,,,,,,,,,,,,,,,,,
1180,,,,,,,,,,,,,,,,,,,,
1181,443,SALT LAKE CITY,HIGHLAND HIGH,36,708,,Regular Education,9,12,2166 S 1700 E,SALT LAKE CITY,84106,8014844343,http://highland.slcschools.org/,,,,,,
1182,681,SALT LAKE CITY,SALT LAKE SCHOOL FOR THE PERFORMING ARTS,7D,700,Charter School,Regular Education,9,12,2291 S 2000 E,SALT LAKE CITY,84106,8014666700,http://www.saltlakespa.org,,,,,,
1183,,,,,,,,,,,,,,,,,,,,
1184,,,,,,,,,,,,,,,,,,,,
1185,,,,,,,,,,,,,,,,,,,,
1186,,,,,,,,,,,,,,,,,,,,
1187,,,,,,,,,,,,,,,,,,,,
1188,181,GRANITE,WOODROW WILSON SCHOOL,12,216,,Regular Education,PK,6,2567 S MAIN ST,SALT LAKE CITY,84115,3856465102,http://www.graniteschools.org/el/wilson/,,,,,,
1188,186,GRANITE,HEADSTART-PRESCH SP ED,12,610,,Special Education,K,,2500 S STATE ST,SALT LAKE CITY,84115,3856464672,,,,,,,
1188,51,GRANITE,GRANITE PRESCHOOL,12,901,,Regular Education,PK,,2500 S STATE ST,SALT LAKE CITY,84115,3856464672,,,,,,,
1188,587,GRANITE,GRANITE TECHNICAL INSTITUTE (GTI),12,775,,Vocational,9,12,2500 S STATE ST,SALT LAKE CITY,84115,3856464650,http://gti.graniteschools.org/,,,,,,
1188,1170,GRANITE,UTAH STATE UNIVERSITY SALT LAKE CITY CAMPUS,,,Regional Campus,Higher Education,,,2500 S STATE ST,SALT LAKE CITY,84115,385 6465570,,272,494,766,0.355091384,0.644908616,https://www.usu.edu/aaa/enrollment.cfm
1189,,,,,,,,,,,,,,,,,,,,
1190,,,,,,,,,,,,,,,,,,,,
1191,,,,,,,,,,,,,,,,,,,,
1192,,,,,,,,,,,,,,,,,,,,
1193,,,,,,,,,,,,,,,,,,,,
1194,,,,,,,,,,,,,,,,,,,,
1195,,,,,,,,,,,,,,,,,,,,
1196,,,,,,,,,,,,,,,,,,,,
1197,,,,,,,,,,,,,,,,,,,,
1198,,,,,,,,,,,,,,,,,,,,
1199,,,,,,,,,,,,,,,,,,,,
1200,,,,,,,,,,,,,,,,,,,,
1201,,,,,,,,,,,,,,,,,,,,
1202,,,,,,,,,,,,,,,,,,,,
1203,,,,,,,,,,,,,,,,,,,,
1204,,,,,,,,,,,,,,,,,,,,
1205,438,GRANITE,COLUMBUS COMMUNITY CENTER,36,821,,Special Education,K,12,3495 S WEST TEMPLE,SALT LAKE CITY,84115,8012621552,http://columbuscommunitycenter.org/,,,,,,
1206,,,,,,,,,,,,,,,,,,,,
1207,,,,,,,,,,,,,,,,,,,,
1208,,,,,,,,,,,,,,,,,,,,
1209,,,,,,,,,,,,,,,,,,,,
1210,,,,,,,,,,,,,,,,,,,,
1211,,,,,,,,,,,,,,,,,,,,
1212,196,GRANITE,GRANITE PARK JR HIGH,12,416,,Regular Education,7,9,3031 S 200 E,SALT LAKE CITY,84115,3856465174,http://www.graniteschools.org/jr/granitepark/,,,,,,
1213,,,,,,,,,,,,,,,,,,,,
1214,,,,,,,,,,,,,,,,,,,,
1215,,,,,,,,,,,,,,,,,,,,
1216,,,,,,,,,,,,,,,,,,,,
1217,52,GRANITE,YOUTH EDUCATIONAL SUPPORT SCHOOL,12,501,,Alternative,K,12,450 EAST 3700 SOUTH,SALT LAKE CITY,84115,3856464682,,,,,,,
1217,926,GRANITE,LINCOLN SCHOOL,12,148,,Regular Education,PK,6,450 E 3700 S,SALT LAKE CITY,84115,3856464894,http://www.graniteschools.org/el/lincoln/,,,,,,
1217,1109,GRANITE,UTAH INTERNATIONAL CHARTER SCHOOL,1I,700,Charter School,Regular Education,7,12,350 E BAIRD CIRCLE (3605 SOUTH),SOUTH SALT LAKE,84115,3852901306,http://utahinternational.org,,,,,,
1217,1014,GRANITE,LINCOLN SCHOOL,7,143,,Regular Education,PK,6,591 W 2000 N,LAYTON,84041,8014022450,http://www.davis.k12.ut.us/143/site/default.asp,,,,,,
1218,1116,GRANITE,GRANITE CONNECTION HIGH,12,740,,Alternative,K,12,501 E 3900 S,SALT LAKE CITY,84107,3856465435,http://www.graniteschools.org/hs/granitepeaks/index.html,,,,,,
1219,,,,,,,,,,,,,,,,,,,,
1220,,,,,,,,,,,,,,,,,,,,
1221,,,,,,,,,,,,,,,,,,,,
1222,,,,,,,,,,,,,,,,,,,,
1223,920,GRANITE,JAMES E MOSS SCHOOL,12,139,,Regular Education,PK,6,4399 S 500 E,SALT LAKE CITY,84107,3856464930,http://mosselementary.weebly.com/,,,,,,
1224,,,,,,,,,,,,,,,,,,,,
1225,,,,,,,,,,,,,,,,,,,,
1226,,,,,,,,,,,,,,,,,,,,
1227,,,,,,,,,,,,,,,,,,,,
1228,,,,,,,,,,,,,,,,,,,,
1229,,,,,,,,,,,,,,,,,,,,
1230,,,,,,,,,,,,,,,,,,,,
1231,,,,,,,,,,,,,,,,,,,,
1232,,,,,,,,,,,,,,,,,,,,
1233,,,,,,,,,,,,,,,,,,,,
1234,,,,,,,,,,,,,,,,,,,,
1235,,,,,,,,,,,,,,,,,,,,
1236,,,,,,,,,,,,,,,,,,,,
1237,756,MURRAY CITY,UTAH VIRTUAL ACADEMY,5F,700,Online Charter School,Regular Education,K,12,310 E 4500 S,MURRAY,84107,8012624922,http://www.k12.com/utva,,,,,,
1238,42,MURRAY CITY,EARLY CHILDHOOD ACADEMY,NY,902,Private School,Regular Education,PK,,"154 E MYRTLE AVE, SUITE 103",MURRAY,84107,8012814848,www.elizabethacademy.com/earlyintervention,,,,,,
1238,515,MURRAY CITY,MOUNT VERNON ACADEMY,JG,915,Private School,Regular Education,K,8,184 E VINE ST,MURRAY,84107,8012665521,,,,,,,
1238,516,MURRAY CITY,MOUNT VERNON ACADEMY,JG,965,Private School,Regular Education,9,12,184 E VINE ST,MURRAY,84107,8012665521,,,,,,,
1238,754,MURRAY CITY,MURRAY ADULT TRANSITION,40,650,,Special Education,9,12,147 E 5065 S,MURRAY,84107,8019574693,,,,,,,
1239,604,MURRAY CITY,PARKSIDE SCHOOL,40,129,,Regular Education,K,6,495 E 5175 S,MURRAY,84107,8012647434,http://schools.murrayschools.org/schools/PKS/PKS.HTM,,,,,,
1240,,,,,,,,,,,,,,,,,,,,
1241,217,GRANITE,TWIN PEAKS SCHOOL,12,199,,Regular Education,PK,6,5325 S 1045 E,SALT LAKE CITY,84117,3856465049,http://www.graniteschools.org/el/twinpeaks/,,,,,,
1242,,,,,,,,,,,,,,,,,,,,
1243,,,,,,,,,,,,,,,,,,,,
1244,518,MURRAY CITY,MURRAY HIGH,40,704,,Regular Education,10,12,5440 S STATE ST,MURRAY,84107,8012647460,http://schools.murrayschools.org/schools/mhs/,,,,,,
1245,,,,,,,,,,,,,,,,,,,,
1246,507,MURRAY CITY,EARLY CHILDHOOD CTR,40,140,,Special Education,PK,,73 W 6100 S,MURRAY,84107,8012647404,,,,,,,
1246,511,MURRAY CITY,LIBERTY SCHOOL,40,120,,Regular Education,K,6,140 W 6100 S,MURRAY,84107,8012647424,http://liberty.murrayschools.schoolfusion.us/,,,,,,
1247,,,,,,,,,,,,,,,,,,,,
1248,512,MURRAY CITY,HILLCREST JR HIGH,40,404,,Regular Education,7,9,178 E 5300 S,MURRAY,84107,8012647442,http://hjhweb.murrayschools.org/,,,,,,
1249,,,,,,,,,,,,,,,,,,,,
1250,,,,,,,,,,,,,,,,,,,,
1251,521,MURRAY CITY,CHRIST LUTHERAN ELEM,FL,904,Private School,Regular Education,PK,8,240 E 5600 S,MURRAY,84107,8012668714,,,,,,,
1252,599,MURRAY CITY,MCMILLAN SCHOOL,40,124,,Regular Education,K,6,315 E 5900 S,MURRAY,84107,8012647430,http://schools.murrayschools.org/schools/MCM/mcm.htm,,,,,,
1253,,,,,,,,,,,,,,,,,,,,
1254,,,,,,,,,,,,,,,,,,,,
1255,,,,,,,,,,,,,,,,,,,,
1256,600,MURRAY CITY,LONGVIEW SCHOOL,40,128,,Regular Education,K,6,6240 S 560 E,MURRAY,84107,8012647428,http://schools.murrayschools.org/schools/LGV/index.html,,,,,,
1257,,,,,,,,,,,,,,,,,,,,
1258,,,,,,,,,,,,,,,,,,,,
1259,1198,GRANITE,LA EUROPA ACADEMY,LQ,901,Private School,Residential Treatment,8,12,PO BOX 575780,MURRAY,84157,8012689300,,,,,,,
1260,226,GRANITE,WOODSTOCK SCHOOL,12,220,,Regular Education,K,6,6015 S 1300 E,SALT LAKE CITY,84121,3856465108,http://www.graniteschools.org/el/woodstock/,,,,,,
1260,198,GRANITE,COTTONWOOD HIGH,12,702,,Regular Education,9,12,5715 S 1300 E,SALT LAKE CITY,84121,3856465264,http://www.graniteschools.org/hs/cottonwood/,,,,,,
1260,1265,GRANITE,ACADEMY FOR MATH ENGINEERING & SCIENCE (AMES),83,700,Charter School,Regular Education,9,12,5715 S 1300 E,SALT LAKE CITY,84121,8012789460,http://www.ames-slc.org/,,,,,,
1261,,,,,,,,,,,,,,,,,,,,
1262,,,,,,,,,,,,,,,,,,,,
1263,,,,,,,,,,,,,,,,,,,,
1264,,,,,,,,,,,,,,,,,,,,
1265,,,,,,,,,,,,,,,,,,,,
1266,,,,,,,,,,,,,,,,,,,,
1267,455,SALT LAKE CITY,REDEEMER LUTHERAN,FL,910,Private School,Regular Education,K,8,1955 E STRATFORD,SALT LAKE CITY,84106,8014876283,,,,,,,
1268,,,,,,,,,,,,,,,,,,,,
1269,,,,,,,,,,,,,,,,,,,,
1270,451,SALT LAKE CITY,NIBLEY PARK SCHOOL,36,224,,Regular Education,PK,8,2785 S 800 E,SALT LAKE CITY,84106,8014814842,http://nibleypark.slcschools.org/,,,,,,
1271,,,,,,,,,,,,,,,,,,,,
1272,,,,,,,,,,,,,,,,,,,,
1273,184,GRANITE,ROOSEVELT SCHOOL,12,188,,Regular Education,PK,6,3225 S 800 E,SALT LAKE CITY,84106,3856464996,http://www.graniteschools.org/el/roosevelt/,,,,,,
1274,,,,,,,,,,,,,,,,,,,,
1275,1232,GRANITE,BLIND REGION 2,41,211,,Special Education,K,12,3098 S HIGHLAND DR,SALT LAKE CITY,84106,8014640840,,,,,,,
1275,1233,GRANITE,CENTRAL REGION DEAF,41,221,,Special Education,K,6,3098 S HIGHLAND DR,SALT LAKE CITY,84106,8014640840,,,,,,,
1276,,,,,,,,,,,,,,,,,,,,
1277,532,SALT LAKE CITY,HIGHLAND PARK SCHOOL,36,180,,Regular Education,K,6,1738 E 2700 S,SALT LAKE CITY,84106,8014814833,http://highlandpark.slcschools.org/,,,,,,
1278,43,GRANITE,ELIZABETH ACADEMY,NY,901,Private School,Regular Education,K,3,2870 S CONNOR STREET,SALT LAKE CITY,84109,8012814848,http://www.elizabethacademy.com,,,,,,
1279,,,,,,,,,,,,,,,,,,,,
1280,563,GRANITE,JEAN MASSIEU SCHOOL FOR THE DEAF,41,421,,Special Education,PK,12,1655 E 3300 S,SALT LAKE CITY,84106,8013021900,,,,,,,
1281,,,,,,,,,,,,,,,,,,,,
1282,,,,,,,,,,,,,,,,,,,,
1283,,,,,,,,,,,,,,,,,,,,
1284,187,GRANITE,ROSECREST SCHOOL,12,190,,Regular Education,K,6,2420 FISHER LN,SALT LAKE CITY,84109,3856465002,http://www.graniteschools.org/el/rosecrest/,,,,,,
1285,,,,,,,,,,,,,,,,,,,,
1286,676,GRANITE,CANYON RIM ACADEMY,9D,100,Charter School,Regular Education,K,6,3005 S 2900 E,SALT LAKE CITY,84109,8014742066,http://www.canyonrimacademy.org,,,,,,
1287,137,GRANITE,EASTWOOD SCHOOL,12,124,,Regular Education,K,6,3305 WASATCH BLVD,SALT LAKE CITY,84109,3856464816,http://www.graniteschools.org/el/eastwood/,,,,,,
1288,,,,,,,,,,,,,,,,,,,,
1289,191,GRANITE,CHURCHILL JR HIGH,12,410,,Regular Education,7,9,3450 E 4275 S,SALT LAKE CITY,84124,3856465144,http://www.graniteschools.org/jr/churchill/,,,,,,
1289,160,GRANITE,OAKRIDGE SCHOOL,12,170,,Regular Education,K,6,4325 S JUPITER DR,SALT LAKE CITY,84124,3856464936,http://www.graniteschools.org/el/oakridge/,,,,,,
1290,,,,,,,,,,,,,,,,,,,,
1291,,,,,,,,,,,,,,,,,,,,
1292,149,GRANITE,MILL CREEK SCHOOL,12,160,,Regular Education,PK,6,3761 S 1100 E,SALT LAKE CITY,84106,3856464912,http://millcreekelementary.weebly.com/,,,,,,
1293,,,,,,,,,,,,,,,,,,,,
1294,180,GRANITE,WILLIAM PENN SCHOOL,12,212,,Regular Education,K,6,1670 SIGGARD DR,SALT LAKE CITY,84106,3856464960,http://www.graniteschools.org/el/penn/,,,,,,
1295,,,,,,,,,,,,,,,,,,,,
1296,195,GRANITE,EVERGREEN JR HIGH,12,412,,Regular Education,7,9,3401 S 2000 E,SALT LAKE CITY,84109,3856465164,http://www.graniteschools.org/jr/evergreen/,,,,,,
1297,,,,,,,,,,,,,,,,,,,,
1298,,,,,,,,,,,,,,,,,,,,
1299,220,GRANITE,REID SCHOOL,FX,918,Private School,Regular Education,PK,9,2965 E 3435 S,SALT LAKE CITY,84109,8014664214,,,,,,,
1300,,,,,,,,,,,,,,,,,,,,
1301,237,GRANITE,WASATCH JR HIGH,12,432,,Regular Education,7,9,3750 S 3100 E,SALT LAKE CITY,84109,3856465244,http://www.graniteschools.org/jr/wasatch/,,,,,,
1301,210,GRANITE,UPLAND TERRACE SCHOOL,12,195,,Regular Education,K,6,3700 S 2860 E,SALT LAKE CITY,84109,3856465055,http://www.graniteschools.org/el/uplandterrace/,,,,,,
1301,922,GRANITE,SKYLINE HIGH,12,718,,Regular Education,9,12,3251 E 3760 S,SALT LAKE CITY,84109,3856465420,http://www.graniteschools.org/hs/skyline/,,,,,,
1302,1188,GRANITE,WESTERN GOVERNORS UNIVERSITY,,,Regional Campus,Higher Education,,,4001 S 700 E # 700,SALT LAKE CITY,84107,8774357948,,"121,437",0,"121,437",1,0,https://nces.ed.gov/collegenavigator/?q=WESTERN+GOVERNORS+UNIVERSITY&s=all&id=433387#enrolmt
1303,,,,,,,,,,,,,,,,,,,,
1304,,,,,,,,,,,,,,,,,,,,
1305,63,GRANITE,LEARNING TREE EAST,TS,901,Private School,Regular Education,PK,,4540 S 900 E,SALT LAKE CITY,84117,8012663590,www.learningtreeutah.com,,,,,,
1306,,,,,,,,,,,,,,,,,,,,
1307,,,,,,,,,,,,,,,,,,,,
1308,,,,,,,,,,,,,,,,,,,,
1309,,,,,,,,,,,,,,,,,,,,
1310,,,,,,,,,,,,,,,,,,,,
1311,,,,,,,,,,,,,,,,,,,,
1312,,,,,,,,,,,,,,,,,,,,
1313,1069,GRANITE,CRESTVIEW SCHOOL,12,114,,Regular Education,PK,6,2100 E LINCOLN LN,SALT LAKE CITY,84124,3856464804,http://www.graniteschools.org/el/crestview/,,,,,,
1314,921,GRANITE,OLYMPUS HIGH,12,716,,Regular Education,10,12,4055 S 2300 E,SALT LAKE CITY,84124,3856465400,http://olympushigh.wikispaces.com/,,,,,,
1315,,,,,,,,,,,,,,,,,,,,
1316,,,,,,,,,,,,,,,,,,,,
1317,917,GRANITE,HOWARD R DRIGGS SCHOOL,12,137,,Regular Education,K,6,4340 S 2700 E,SALT LAKE CITY,84124,3856464810,http://www.graniteschools.org/el/driggs/,,,,,,
1318,155,GRANITE,MORNINGSIDE SCHOOL,12,168,,Regular Education,K,6,4170 S 3000 E,SALT LAKE CITY,84124,3856464924,http://www.graniteschools.org/el/morningside/,,,,,,
1319,,,,,,,,,,,,,,,,,,,,
1320,,,,,,,,,,,,,,,,,,,,
1321,915,GRANITE,OLYMPUS JR HIGH,12,424,,Regular Education,7,9,2217 E 4800 S,SALT LAKE CITY,84117,3856465224,http://www.graniteschools.org/jr/olympus/,,,,,,
1322,,,,,,,,,,,,,,,,,,,,
1323,,,,,,,,,,,,,,,,,,,,
1324,,,,,,,,,,,,,,,,,,,,
1325,,,,,,,,,,,,,,,,,,,,
1326,,,,,,,,,,,,,,,,,,,,
1327,,,,,,,,,,,,,,,,,,,,
1328,,,,,,,,,,,,,,,,,,,,
1329,126,GRANITE,WASATCH WALDORF CHARTER SCHOOL,5K,300,Charter School,Regular Education,K,8,1458 EAST MURRAY-HOLLADAY ROAD,HOLLADAY,84117,8018713950,www.wasatchwaldorf.org,,,,,,
1329,225,GRANITE,ST VINCENT DE PAUL ELEM,FC,911,Private School,Regular Education,PK,8,1385 E SPRING LN,SALT LAKE CITY,84117,8012776702,,,,,,,
1330,,,,,,,,,,,,,,,,,,,,
1331,232,GRANITE,BONNEVILLE JR HIGH,12,402,,Regular Education,7,8,5330 S 1660 E,SALT LAKE CITY,84117,3856465124,http://www.graniteschools.org/jr/bonneville/,,,,,,
1331,697,GRANITE,SPRING LANE SCHOOL,12,192,,Regular Education,K,6,5315 S 1700 E,SALT LAKE CITY,84117,3856464906,http://www.graniteschools.org/el/springlane/,,,,,,
1332,,,,,,,,,,,,,,,,,,,,
1333,712,GRANITE,SAINT SOPHIA SCHOOL,JQ,906,Private School,Regular Education,PK,6,5335 S HIGHLAND DR,SALT LAKE CITY,84117,8014241297,,,,,,,
1334,206,GRANITE,COTTONWOOD SCHOOL,12,112,,Regular Education,K,6,5205 HOLLADAY BLVD,SALT LAKE CITY,84117,3856464798,http://www.graniteschools.org/el/cottonwood/,,,,,,
1335,161,GRANITE,OAKWOOD SCHOOL,12,172,,Regular Education,K,6,5815 S HIGHLAND DR,SALT LAKE CITY,84121,3856464942,http://oakwoodowls.weebly.com/,,,,,,
1336,,,,,,,,,,,,,,,,,,,,
1337,,,,,,,,,,,,,,,,,,,,
1338,,,,,,,,,,,,,,,,,,,,
1339,,,,,,,,,,,,,,,,,,,,
1340,,,,,,,,,,,,,,,,,,,,
1341,,,,,,,,,,,,,,,,,,,,
1342,,,,,,,,,,,,,,,,,,,,
1343,,,,,,,,,,,,,,,,,,,,
1344,,,,,,,,,,,,,,,,,,,,
1345,,,,,,,,,,,,,,,,,,,,
1346,,,,,,,,,,,,,,,,,,,,
1347,,,,,,,,,,,,,,,,,,,,
1348,,,,,,,,,,,,,,,,,,,,
1349,,,,,,,,,,,,,,,,,,,,
1350,,,,,,,,,,,,,,,,,,,,
1351,,,,,,,,,,,,,,,,,,,,
1352,,,,,,,,,,,,,,,,,,,,
1353,,,,,,,,,,,,,,,,,,,,
1354,,,,,,,,,,,,,,,,,,,,
1355,,,,,,,,,,,,,,,,,,,,
1356,,,,,,,,,,,,,,,,,,,,
1357,785,JORDAN,SUNSET RIDGE MIDDLE,14,416,,Regular Education,7,9,6881 W 8200 S,WEST JORDAN,84081,8014122475,http://srms.info/,,,,,,
1357,1213,JORDAN,OAKCREST SCHOOL,14,114,,Regular Education,K,6,8462 S HILLTOP OAK DR,WEST JORDAN,84088,8012807243,http://schools.jordandistrict.org/oakcrest/,,,,,,
1358,837,JORDAN,FOX HOLLOW SCHOOL,14,121,,Regular Education,K,6,6020 W 8200 S,WEST JORDAN,84081,8012821818,www.schools.jordandistrict.org/foxhollow/,,,,,,
1359,,,,,,,,,,,,,,,,,,,,
1360,,,,,,,,,,,,,,,,,,,,
1361,,,,,,,,,,,,,,,,,,,,
1362,,,,,,,,,,,,,,,,,,,,
1363,,,,,,,,,,,,,,,,,,,,
1364,,,,,,,,,,,,,,,,,,,,
1365,,,,,,,,,,,,,,,,,,,,
1366,,,,,,,,,,,,,,,,,,,,
1367,,,,,,,,,,,,,,,,,,,,
1368,,,,,,,,,,,,,,,,,,,,
1369,,,,,,,,,,,,,,,,,,,,
1370,,,,,,,,,,,,,,,,,,,,
1371,,,,,,,,,,,,,,,,,,,,
1372,,,,,,,,,,,,,,,,,,,,
1373,,,,,,,,,,,,,,,,,,,,
1374,32,JORDAN,COPPER HILLS YOUTH CENTER,KE,672,Private School,Residential Treatment,7,12,5899 W RIVENDELL DR,WEST JORDAN,84088,8015613377,,,,,,,
1375,,,,,,,,,,,,,,,,,,,,
1376,,,,,,,,,,,,,,,,,,,,
1377,,,,,,,,,,,,,,,,,,,,
1378,,,,,,,,,,,,,,,,,,,,
1379,,,,,,,,,,,,,,,,,,,,
1380,,,,,,,,,,,,,,,,,,,,
1381,,,,,,,,,,,,,,,,,,,,
1382,,,,,,,,,,,,,,,,,,,,
1383,,,,,,,,,,,,,,,,,,,,
1384,,,,,,,,,,,,,,,,,,,,
1385,,,,,,,,,,,,,,,,,,,,
1386,,,,,,,,,,,,,,,,,,,,
1387,,,,,,,,,,,,,,,,,,,,
1388,,,,,,,,,,,,,,,,,,,,
1389,,,,,,,,,,,,,,,,,,,,
1390,,,,,,,,,,,,,,,,,,,,
1391,,,,,,,,,,,,,,,,,,,,
1392,,,,,,,,,,,,,,,,,,,,
1393,,,,,,,,,,,,,,,,,,,,
1394,,,,,,,,,,,,,,,,,,,,
1395,,,,,,,,,,,,,,,,,,,,
1396,,,,,,,,,,,,,,,,,,,,
1397,16,JORDAN,ATHLOS ACADEMY OF UTAH,1L,300,Charter School,Regular Education,K,8,12309 SOUTH MUSTANG TRAIL WAY,HERRIMAN,84096,8662083332,www.athlosutah.org,,,,,,
1397,784,JORDAN,HERRIMAN HIGH,14,707,,Regular Education,10,12,11917 S 6000 W,HERRIMAN,84096,8015678530,http://www.herrimanhigh.org/,,,,,,
1397,1105,JORDAN,COPPER MOUNTAIN MIDDLE,14,419,,Regular Education,7,9,12106 ANTHEM PARK BLVD,HERRIMAN,84096,8014121200,,,,,,,
1398,,,,,,,,,,,,,,,,,,,,
1399,,,,,,,,,,,,,,,,,,,,
1400,,,,,,,,,,,,,,,,,,,,
1401,,,,,,,,,,,,,,,,,,,,
1402,,,,,,,,,,,,,,,,,,,,
1403,,,,,,,,,,,,,,,,,,,,
1404,636,JORDAN,BUTTERFIELD CANYON SCHOOL,14,177,,Regular Education,K,6,6860 W MARY LEIZAN LN,HERRIMAN,84096,8012540737,http://butterfieldcanyon.blogspot.com/,,,,,,
1405,,,,,,,,,,,,,,,,,,,,
1406,,,,,,,,,,,,,,,,,,,,
1407,,,,,,,,,,,,,,,,,,,,
1408,826,JORDAN,SILVER CREST SCHOOL,14,117,,Regular Education,K,6,12937 S ELEMENTARY DR,HERRIMAN,84096,8012531034,http://silvercrestelem.wikispaces.com/Silver+Crest+Elementary,,,,,,
1409,553,JORDAN,HERRIMAN SCHOOL,14,136,,Regular Education,K,6,13170 S 6000 W,HERRIMAN,84096,8014463215,http://schools.jordandistrict.org/herriman/,,,,,,
1410,,,,,,,,,,,,,,,,,,,,
1411,,,,,,,,,,,,,,,,,,,,
1412,1211,JORDAN,FORT HERRIMAN MIDDLE,14,417,,Regular Education,7,9,14050 S MIRABELLA DR,HERRIMAN,84065,8014122450,http://www.fhms.jordan.k12.ut.us/rattlers/,,,,,,
1413,601,JORDAN,FOOTHILLS SCHOOL,14,176,,Regular Education,K,6,13717 S SHAGGY PEAK,RIVERTON,84096,8013028599,http://schools.jordandistrict.org/foothills/,,,,,,
1414,,,,,,,,,,,,,,,,,,,,
1415,1103,JORDAN,BLACKRIDGE SCHOOL,14,127,,Regular Education,K,6,14131 S ROSECREST RD,HERRIMAN,84096,8012540326,blackridge.jordandistrict.org,,,,,,
1416,813,JORDAN,PROVIDENCE HALL,9E,100,Charter School,Regular Education,K,12,4795  W PATRIOT RIDGE DR,HERRIMAN,84096,8017278260,http://www.providencehall.com,,,,,,
1417,,,,,,,,,,,,,,,,,,,,
1418,,,,,,,,,,,,,,,,,,,,
1419,,,,,,,,,,,,,,,,,,,,
1420,820,GRANITE,DIAMOND RIDGE SCHOOL,12,118,,Regular Education,K,6,6034 W MILL VALLEY LN,SALT LAKE CITY,84118,3856464858,http://www.graniteschools.org/el/diamondridge/,,,,,,
1421,,,,,,,,,,,,,,,,,,,,
1422,193,GRANITE,JIM BRIDGER SCHOOL,12,105,,Regular Education,PK,6,5368 W CYCLAMEN WAY,WEST JORDAN,84084,3856464780,http://www.graniteschools.org/el/bridger/,,,,,,
1423,,,,,,,,,,,,,,,,,,,,
1424,728,JORDAN,FALCON RIDGE SCHOOL,14,128,,Regular Education,K,6,6111 W 7000 S,WEST JORDAN,84081,8012822437,http://schools.jordandistrict.org/falconridge/,,,,,,
1425,,,,,,,,,,,,,,,,,,,,
1426,1212,JORDAN,MOUNTAIN SHADOWS SCHOOL,14,145,,Regular Education,K,6,5255 W 7000 S,WEST JORDAN,84084,8019630291,http://schools.jordandistrict.org/shadows/,,,,,,
1427,,,,,,,,,,,,,,,,,,,,
1428,,,,,,,,,,,,,,,,,,,,
1429,581,JORDAN,NAVIGATOR POINTE ACADEMY,9B,100,Charter School,Regular Education,K,9,6844 S NAVIGATOR RD,WEST JORDAN,84084,8018401210,http://www.npacademy.org,,,,,,
1430,,,,,,,,,,,,,,,,,,,,
1431,,,,,,,,,,,,,,,,,,,,
1432,,,,,,,,,,,,,,,,,,,,
1433,175,GRANITE,WESTBROOK SCHOOL,12,205,,Regular Education,PK,6,3451 W 6200 S,TAYLORSVILLE,84118,3856465085,http://www.graniteschools.org/el/westbrook/,,,,,,
1434,762,JORDAN,CHILDREN'S CHRISTIAN SCHOOL,MT,901,Private School,Special Education,K,8,3138 W 7000 S,WEST JORDAN,84084,8019715085,,,,,,,
1435,,,,,,,,,,,,,,,,,,,,
1436,252,JORDAN,OQUIRRH SCHOOL,14,147,,Regular Education,K,6,7165 S 3285 W,WEST JORDAN,84084,8015657474,http://schools.jordandistrict.org/oquirrh/,,,,,,
1437,944,JORDAN,WESTLAND SCHOOL,14,170,,Regular Education,K,6,2925 W 7180 S,WEST JORDAN,84084,8015657508,http://schools.jordandistrict.org/westland/,,,,,,
1438,939,JORDAN,WEST JORDAN SCHOOL,14,168,,Regular Education,K,6,7220 S 2370 W,WEST JORDAN,84084,8015657506,http://schools.jordandistrict.org/wjes/,,,,,,
1439,,,,,,,,,,,,,,,,,,,,
1440,311,JORDAN,WEST JORDAN MIDDLE,14,412,,Regular Education,7,9,7550 S 1700 W,WEST JORDAN,84084,8014122100,http://m.wjms.jordan.k12.ut.us/,,,,,,
1440,245,JORDAN,MAJESTIC SCHOOL,14,138,,Regular Education,K,6,7430 S 1700 W,WEST JORDAN,84084,8015657458,http://web.jordan.k12.ut.us/majestic/,,,,,,
1441,,,,,,,,,,,,,,,,,,,,
1442,,,,,,,,,,,,,,,,,,,,
1443,,,,,,,,,,,,,,,,,,,,
1444,238,JORDAN,HEARTLAND SCHOOL,14,132,,Regular Education,K,6,1451 W 7000 S,WEST JORDAN,84084,8015657533,http://schools.jordandistrict.org/heartland/Heartland/Home.html,,,,,,
1445,,,,,,,,,,,,,,,,,,,,
1446,,,,,,,,,,,,,,,,,,,,
1447,,,,,,,,,,,,,,,,,,,,
1448,,,,,,,,,,,,,,,,,,,,
1449,,,,,,,,,,,,,,,,,,,,
1450,,,,,,,,,,,,,,,,,,,,
1451,,,,,,,,,,,,,,,,,,,,
1452,,,,,,,,,,,,,,,,,,,,
1453,,,,,,,,,,,,,,,,,,,,
1454,,,,,,,,,,,,,,,,,,,,
1455,1193,JORDAN,ASCENT ACADEMIES OF UTAH WEST JORDAN,2J,310,Charter School,Regular Education,K,9,5662 W 8200 S,WEST JORDAN,84081,3852750909,www.AscentUtah.org,,,,,,
1456,316,JORDAN,WEST HILLS MIDDLE,14,414,,Regular Education,7,9,8270 SO 5290 W,WEST JORDAN,84081,8014122300,http://www.whms.jordan.k12.ut.us/,,,,,,
1456,687,JORDAN,HAYDEN PEAK SCHOOL,14,131,,Regular Education,K,6,5120 W HAYDEN PEAK DR,WEST JORDAN,84081,8012800722,http://schools.jordandistrict.org/hpeak/Site/Home.html,,,,,,
1457,255,JORDAN,COPPER HILLS HIGH,14,703,,Regular Education,10,12,5445 W 7800 S,WEST JORDAN,84081,8012565300,http://www.chills.jordan.k12.ut.us/,,,,,,
1457,242,JORDAN,JORDAN HILLS SCHOOL,14,134,,Regular Education,K,6,8892 S 4800 W,WEST JORDAN,84088,8012800238,http://schools.jordandistrict.org/jhills/,,,,,,
1457,615,JORDAN,COPPER CANYON SCHOOL,14,175,,Regular Education,K,6,8917 S COPPERWOOD DR,WEST JORDAN,84081,8012600222,http://schools.jordandistrict.org/coppercanyon/,,,,,,
1458,,,,,,,,,,,,,,,,,,,,
1459,,,,,,,,,,,,,,,,,,,,
1460,,,,,,,,,,,,,,,,,,,,
1461,,,,,,,,,,,,,,,,,,,,
1462,,,,,,,,,,,,,,,,,,,,
1463,279,JORDAN,COLUMBIA SCHOOL,14,111,,Regular Education,K,6,3505 W 7800 S,WEST JORDAN,84088,8012803279,http://schools.jordandistrict.org/columbia/,,,,,,
1463,250,JORDAN,TERRA LINDA SCHOOL,14,162,,Regular Education,K,6,8400 S 3400 W,WEST JORDAN,84088,8012828036,http://schools.jordandistrict.org/terralinda/,,,,,,
1464,64,JORDAN,LEARNING TREE SOUTHWEST,TS,903,Private School,Regular Education,PK,,2857 W 7800 S,WEST JORDAN,84088,3853519401,WWW.LEARNINGTREEUTAH.COM,,,,,,
1464,291,JORDAN,WEST JORDAN HIGH,14,718,,Regular Education,10,12,8136 S 2700 W,WEST JORDAN,84088,8012565600,http://schools.jordandistrict.org/westjordanhigh/,,,,,,
1464,275,JORDAN,JOEL P JENSEN MIDDLE,14,406,,Regular Education,7,9,8105 S 3200 W,WEST JORDAN,84088,8014122850,http://schools.jordandistrict.org/joelpjensen/,,,,,,
1465,,,,,,,,,,,,,,,,,,,,
1466,623,JORDAN,ITINERIS EARLY COLLEGE HIGH,A5,700,Charter School,Regular Education,10,12,8714 ROY DEL CIRCLE,WEST JORDAN,84088,3858002140,http://www.iechs.org,,,,,,
1467,,,,,,,,,,,,,,,,,,,,
1468,,,,,,,,,,,,,,,,,,,,
1469,,,,,,,,,,,,,,,,,,,,
1470,940,JORDAN,WESTVALE SCHOOL,14,169,,Regular Education,K,6,2300 W 8660 S,WEST JORDAN,84088,8015657510,http://schools.jordandistrict.org/wvale/,,,,,,
1471,297,JORDAN,SOUTH VALLEY SCHOOL,14,802,,Special Education,9,12,8400 S 1700 W,WEST JORDAN,84088,8015657592,http://web.jordan.k12.ut.us/svs/,,,,,,
1472,,,,,,,,,,,,,,,,,,,,
1473,,,,,,,,,,,,,,,,,,,,
1474,,,,,,,,,,,,,,,,,,,,
1475,,,,,,,,,,,,,,,,,,,,
1476,,,,,,,,,,,,,,,,,,,,
1477,,,,,,,,,,,,,,,,,,,,
1478,301,JORDAN,RIVERSIDE SCHOOL,14,153,,Regular Education,K,6,8737 S 1220 W,WEST JORDAN,84088,8015657484,http://schools.jordandistrict.org/riverside/default.htm,,,,,,
1479,,,,,,,,,,,,,,,,,,,,
1480,,,,,,,,,,,,,,,,,,,,
1481,,,,,,,,,,,,,,,,,,,,
1482,1257,JORDAN,WEST RIDGE ACADEMY,KT,673,Private School,Residential Treatment,7,12,5500 W BAGLEY PARK RD,WEST JORDAN,84088,8012802697,,,,,,,
1483,,,,,,,,,,,,,,,,,,,,
1484,,,,,,,,,,,,,,,,,,,,
1485,,,,,,,,,,,,,,,,,,,,
1486,,,,,,,,,,,,,,,,,,,,
1487,,,,,,,,,,,,,,,,,,,,
1488,,,,,,,,,,,,,,,,,,,,
1489,1215,JORDAN,WELBY SCHOOL,14,167,,Regular Education,K,6,4130 W 9580 S,SOUTH JORDAN,84009,8012801456,http://schools.jordandistrict.org/welby/Welby/Main_Page.html,,,,,,
1490,,,,,,,,,,,,,,,,,,,,
1491,,,,,,,,,,,,,,,,,,,,
1492,1210,JORDAN,ELK RIDGE MIDDLE,14,413,,Regular Education,7,9,3659 W 9800 S,SOUTH JORDAN,84009,8014122800,http://schools.jordandistrict.org/elkridge/,,,,,,
1493,60,JORDAN,"SOUTHPOINTE ADULT HIGH
",14,660,,Adult High,9,12,9301 S WIGHTS FORT RD,WEST JORDAN,84088,"8012565952
",http://jatc-wj.org/,,,,,,
1493,1271,JORDAN,SALT LAKE COMMUNITY COLLEGE JORDAN CAMPUS,1 12 14 21 36 40,49,Regional Campus,Higher Education,9,12,3491 W WIGHTS FORT RD,WEST JORDAN,84088,,http://www.slcc.edu/,6168,0,6168,1,0,wfrc
1493,1186,JORDAN,JORDAN ACADEMY FOR TECHNOLOGY AND CAREERS - NORTH,14,741,,Vocational,9,12,9301 S 3400 W,WEST JORDAN,84088,8012565900,http://jatc-wj.org/,,,,,,
1494,,,,,,,,,,,,,,,,,,,,
1495,,,,,,,,,,,,,,,,,,,,
1496,229,JORDAN,ELK MEADOWS SCHOOL,14,126,,Regular Education,K,6,3448 W 9800 S,SOUTH JORDAN,84095,8014463200,http://schools.jordandistrict.org/elkmeadows/,,,,,,
1497,,,,,,,,,,,,,,,,,,,,
1498,,,,,,,,,,,,,,,,,,,,
1499,,,,,,,,,,,,,,,,,,,,
1500,55,JORDAN,HAWTHORN ACADEMY WEST JORDAN,8F,100,Charter School,Regular Education,K,9,9062 S 2200 W,WEST JORDAN,84088,8012829066,http://www.hawthornacademy.org,,,,,,
1501,547,JORDAN,PINE RIDGE ACADEMY,KV,654,Private School,Residential Treatment,7,12,PO BOX 909,DRAPER,84020,8015621717,,,,,,,
1502,239,JORDAN,JORDAN RIDGE SCHOOL,14,133,,Regular Education,K,6,2636 W 9800 S,SOUTH JORDAN,84095,8012548025,http://schools.jordandistrict.org/jridge/,,,,,,
1503,,,,,,,,,,,,,,,,,,,,
1504,,,,,,,,,,,,,,,,,,,,
1505,950,JORDAN,SOUTH JORDAN MIDDLE,14,411,,Regular Education,7,9,10245 S 2700 W,SOUTH JORDAN,84095,8014122900,http://www.sjms.jordan.k12.ut.us/,,,,,,
1506,259,JORDAN,BINGHAM HIGH,14,704,,Regular Education,10,12,2160 W 10400 S,SOUTH JORDAN,84095,8012565100,http://www.binghamminers.org/,,,,,,
1507,,,,,,,,,,,,,,,,,,,,
1508,,,,,,,,,,,,,,,,,,,,
1509,1110,JORDAN,MOUNTAIN HEIGHTS ACADEMY,9F,600,Online Charter School,Regular Education,7,12,9067 S 1300 W SUITE 204,WEST JORDAN,84088,8017216329,http://www.mountainheightsacademy.org/,,,,,,
1510,,,,,,,,,,,,,,,,,,,,
1511,,,,,,,,,,,,,,,,,,,,
1512,,,,,,,,,,,,,,,,,,,,
1513,,,,,,,,,,,,,,,,,,,,
1514,,,,,,,,,,,,,,,,,,,,
1515,,,,,,,,,,,,,,,,,,,,
1516,1270,CANYONS,SALT LAKE COMMUNITY COLLEGE MILLER CAMPUS,1 12 14 21 36 40,49,Regional Campus,Higher Education,9,12,9750 S 300 W,SANDY,84070,3859574111,http://www.slcc.edu/,2342,0,2342,1,0,wfrc
1517,,,,,,,,,,,,,,,,,,,,
1518,,,,,,,,,,,,,,,,,,,,
1519,,,,,,,,,,,,,,,,,,,,
1520,,,,,,,,,,,,,,,,,,,,
1521,,,,,,,,,,,,,,,,,,,,
1522,,,,,,,,,,,,,,,,,,,,
1523,,,,,,,,,,,,,,,,,,,,
1524,,,,,,,,,,,,,,,,,,,,
1525,6,JORDAN,AMERICAN ACADEMY OF INNOVATION,8K,700,Charter School,Regular Education,6,12,5410 W SOUTH JORDAN PARKWAY,SOUTH JORDAN,84009,8018104786,www.aaiutah.org,,,,,,
1526,,,,,,,,,,,,,,,,,,,,
1527,,,,,,,,,,,,,,,,,,,,
1528,,,,,,,,,,,,,,,,,,,,
1529,,,,,,,,,,,,,,,,,,,,
1530,,,,,,,,,,,,,,,,,,,,
1531,,,,,,,,,,,,,,,,,,,,
1532,,,,,,,,,,,,,,,,,,,,
1533,,,,,,,,,,,,,,,,,,,,
1534,,,,,,,,,,,,,,,,,,,,
1535,1209,JORDAN,EASTLAKE SCHOOL,14,118,,Regular Education,K,6,4389 W ISLA DAYBREAK ROAD,SOUTH JORDAN,84009,8014460778,http://schools.jordandistrict.org/eastlake/,,,,,,
1536,,,,,,,,,,,,,,,,,,,,
1537,,,,,,,,,,,,,,,,,,,,
1538,,,,,,,,,,,,,,,,,,,,
1539,1201,JORDAN,EARLY LIGHT ACADEMY AT DAYBREAK,6F,300,Charter School,Regular Education,K,9,11709 VADANIA DR,SOUTH JORDAN,84009,8013025988,http://www.earlylightacademy.org,,,,,,
1540,,,,,,,,,,,,,,,,,,,,
1541,1208,JORDAN,DAYBREAK SCHOOL,14,115,,Regular Education,K,6,4544 W HARVEST MOON DR,SOUTH JORDAN,84009,8013020553,http://schools.jordandistrict.org/daybreak/,,,,,,
1542,,,,,,,,,,,,,,,,,,,,
1543,1133,JORDAN,MOUNTAIN WEST MONTESSORI ACADEMY,5J,300,Charter School,Regular Education,K,9,4125 W FOXVIEW DR,SOUTH JORDAN,84095,8015666962,www.MWMAcademy.org,,,,,,
1544,,,,,,,,,,,,,,,,,,,,
1545,,,,,,,,,,,,,,,,,,,,
1546,,,,,,,,,,,,,,,,,,,,
1547,,,,,,,,,,,,,,,,,,,,
1548,654,JORDAN,PARADIGM HIGH SCHOOL,9C,700,Charter School,Regular Education,7,12,11577 S 3600 W,SOUTH JORDAN,84095,8016761018,http://www.paradigmhigh.com,,,,,,
1549,,,,,,,,,,,,,,,,,,,,
1550,249,JORDAN,MONTE VISTA SCHOOL,14,146,,Regular Education,K,6,11121 S 2700 W,SOUTH JORDAN,84095,8012548040,http://schools.jordandistrict.org/mvista/,,,,,,
1551,,,,,,,,,,,,,,,,,,,,
1552,644,JORDAN,AMERICAN HERITAGE AT SOUTH JORDAN,MN,950,Private School,Special Education,K,12,11100 S REDWOOD RD,SOUTH JORDAN,84095,8012543882,,,,,,,
1553,692,JORDAN,STILLWATER ACADEMY,KR,601,Private School,Residential Treatment,7,12,11175 S REDWOOD RD,SOUTH JORDAN,84095,8014849911,,,,,,,
1554,247,JORDAN,SOUTH JORDAN SCHOOL,14,160,,Regular Education,K,6,11205 S BLACK CHERRY WAY,SOUTH JORDAN,84095,8012548000,http://schools.jordandistrict.org/sjes/,,,,,,
1555,,,,,,,,,,,,,,,,,,,,
1556,54,JORDAN,HAWTHORN ACADEMY SOUTH JORDAN,8F,110,Charter School,Regular Education,K,6,11400 SOUTH 1400 WEST,SOUTH JORDAN,84095,8012603040,www.hawthornacademy.org,,,,,,
1557,34,JORDAN,DANCING MOOSE MONTESSORI RIVER PARK,NM,910,Private School,Special Education,PK,3,10995 SOUTH RIVER FRONT PARKWAY,SOUTH JORDAN,84095,8019680100,www.mydancingmoose.com,,,,,,
1558,,,,,,,,,,,,,,,,,,,,
1559,,,,,,,,,,,,,,,,,,,,
1560,,,,,,,,,,,,,,,,,,,,
1561,,,,,,,,,,,,,,,,,,,,
1562,,,,,,,,,,,,,,,,,,,,
1563,,,,,,,,,,,,,,,,,,,,
1564,61,JORDAN,VALLEY HIGH SCHOOL,14,716,,Alternative,7,12,325 W 11000 S,SOUTH JORDAN,84095,8015727035,http://www.valley.jordan.k12.ut.us/,,,,,,
1565,714,JORDAN,MIDAS CREEK SCHOOL,14,119,,Regular Education,K,6,11901 S PARK HAVEN LN,RIVERTON,84096,8012547407,http://schools.jordandistrict.org/midascreek/,,,,,,
1566,,,,,,,,,,,,,,,,,,,,
1567,,,,,,,,,,,,,,,,,,,,
1568,816,JORDAN,ST ANDREW CATHOLIC SCHOOL,FC,925,Private School,Regular Education,K,5,11835 S 3600 W,RIVERTON,84065,8019847500,,,,,,,
1569,28,JORDAN,CARONE FITNESS,CF,950,Online Private School,Regular Education,6,12,3047 HAYDEN RIDGE WAY,RIVERTON,84065,8016574651,www.caronefitness.com,,,,,,
1569,285,JORDAN,RIVERTON HIGH,14,710,,Regular Education,10,12,12476 S SILVERWOLF WAY,RIVERTON,84065,8012565800,http://www.rhs.jordan.k12.ut.us/,,,,,,
1570,,,,,,,,,,,,,,,,,,,,
1571,932,JORDAN,ROSAMOND SCHOOL,14,157,,Regular Education,K,6,12195 S 1975 W,RIVERTON,84065,8012548043,http://web.jordan.k12.ut.us/rosamond/default.htm,,,,,,
1572,,,,,,,,,,,,,,,,,,,,
1573,,,,,,,,,,,,,,,,,,,,
1574,,,,,,,,,,,,,,,,,,,,
1575,,,,,,,,,,,,,,,,,,,,
1576,,,,,,,,,,,,,,,,,,,,
1577,1102,CANYONS,AMERICAN PREPARATORY ACADEMY - DRAPER #3,74,700,Charter School,Regular Education,9,12,11938 LONE PEAK PKWY,DRAPER,84020,8018103590,www.americanprep.org,,,,,,
1578,,,,,,,,,,,,,,,,,,,,
1579,,,,,,,,,,,,,,,,,,,,
1580,,,,,,,,,,,,,,,,,,,,
1581,,,,,,,,,,,,,,,,,,,,
1582,,,,,,,,,,,,,,,,,,,,
1583,251,JORDAN,ROSE CREEK SCHOOL,14,163,,Regular Education,K,6,12812 S 3600 W,RIVERTON,84065,8012548082,http://schools.jordandistrict.org/rcreek/,,,,,,
1584,,,,,,,,,,,,,,,,,,,,
1585,,,,,,,,,,,,,,,,,,,,
1586,,,,,,,,,,,,,,,,,,,,
1587,,,,,,,,,,,,,,,,,,,,
1588,828,JORDAN,KAURI SUE HAMILTON,14,830,,Special Education,K,12,2827 W 13400 S,RIVERTON,84065,8015678500,http://schools.jordandistrict.org/kaurisuehamilton/,,,,,,
1588,1214,JORDAN,PRESCHOOL (SP ED),14,800,,Special Education,PK,,2827 W 13400 S,RIVERTON,84065,8014122510,,,,,,,
1589,284,JORDAN,OQUIRRH HILLS MIDDLE,14,409,,Regular Education,7,9,12949 S 2700 W,RIVERTON,84065,8014122350,http://schools.jordandistrict.org/ohms/,,,,,,
1589,248,JORDAN,SOUTHLAND SCHOOL,14,161,,Regular Education,K,6,12675 S 2700 W,RIVERTON,84065,8012548047,http://schools.jordandistrict.org/southland/,,,,,,
1590,59,JORDAN,JORDAN ACADEMY FOR TECHNOLOGY & CAREERS SOUTH,14,744,,Vocational,10,12,12723 SOUTH PARK AVENUE,RIVERTON,84065,8012565900,,,,,,,
1591,298,JORDAN,RIVERTON SCHOOL,14,152,,Regular Education,K,6,13150 S 1830 W,RIVERTON,84065,8012548050,http://schools.jordandistrict.org/rivertonelem/,,,,,,
1592,,,,,,,,,,,,,,,,,,,,
1593,642,JORDAN,MONTESSORI AT RIVERTON,MW,901,Private School,Special Education,K,8,11930 S REDWOOD RD,RIVERTON,84065,8012534000,,,,,,,
1594,,,,,,,,,,,,,,,,,,,,
1595,,,,,,,,,,,,,,,,,,,,
1596,,,,,,,,,,,,,,,,,,,,
1597,,,,,,,,,,,,,,,,,,,,
1598,9,CANYONS,AMERICAN PREPARATORY ACADEMY - DRAPER #1,74,100,Charter School,Regular Education,K,6,12892 S PONY EXPRESS RD,DRAPER,84020,8015538500,http://www.americanprep.org,,,,,,
1598,1136,CANYONS,AMERICAN PREPARATORY ACADEMY - DRAPER #2,74,130,Charter School,Regular Education,K,8,11938 S LONE PEAK PKWY,DRAPER,84020,8018103590,http://www.americanprep.org,,,,,,
1599,,,,,,,,,,,,,,,,,,,,
1600,,,,,,,,,,,,,,,,,,,,
1601,,,,,,,,,,,,,,,,,,,,
1602,288,CANYONS,SOUTH PARK ACADEMY,42,712,,Special Education,9,12,14425 S PONY EXPRESS RD,DRAPER,84020,8015768235,,,,,,,
1603,,,,,,,,,,,,,,,,,,,,
1604,,,,,,,,,,,,,,,,,,,,
1605,,,,,,,,,,,,,,,,,,,,
1606,,,,,,,,,,,,,,,,,,,,
1607,,,,,,,,,,,,,,,,,,,,
1608,,,,,,,,,,,,,,,,,,,,
1609,317,JORDAN,SOUTH HILLS MIDDLE,14,415,,Regular Education,7,9,13508 S 4000 W,RIVERTON,84065,8014122400,www.shills.jordan.k12.ut.us,,,,,,
1610,,,,,,,,,,,,,,,,,,,,
1611,,,,,,,,,,,,,,,,,,,,
1612,,,,,,,,,,,,,,,,,,,,
1613,584,JORDAN,NORTH STAR ACADEMY,5B,100,Charter School,Regular Education,K,9,2920 W 14000 S,BLUFFDALE,84065,8013029579,http://www.north-staracademy.com,,,,,,
1614,276,JORDAN,BLUFFDALE SCHOOL,14,109,,Regular Education,K,6,14323 S 2700 W,BLUFFDALE,84065,8012548090,http://sites.google.com/site/bluffdaleelementary/,,,,,,
1615,104,JORDAN,SUMMIT ACADEMY - BLUFFDALE,A4,310,Charter School,Regular Education,K,8,1940 W 14400 S,BLUFFDALE,84065,8015729007,,,,,,,
1616,,,,,,,,,,,,,,,,,,,,
1617,,,,,,,,,,,,,,,,,,,,
1618,,,,,,,,,,,,,,,,,,,,
1619,,,,,,,,,,,,,,,,,,,,
1620,,,,,,,,,,,,,,,,,,,,
1621,,,,,,,,,,,,,,,,,,,,
1622,,,,,,,,,,,,,,,,,,,,
1623,,,,,,,,,,,,,,,,,,,,
1624,1087,JORDAN,SUMMIT ACADEMY HIGH SCHOOL,7G,700,Charter School,Regular Education,9,12,14942 S 560 W,BLUFFDALE,84065,8014953272,http://www.sahs1.org,,,,,,
1625,106,JORDAN,SUMMIT ACADEMY - INDEPENDENCE,A4,300,Charter School,Regular Education,K,8,15327 S NOELL NELSON DRIVE,BLUFFDALE,84065,8019878755,www.2summit.org,,,,,,
1626,,,,,,,,,,,,,,,,,,,,
1627,,,,,,,,,,,,,,,,,,,,
1628,,,,,,,,,,,,,,,,,,,,
1629,,,,,,,,,,,,,,,,,,,,
1630,,,,,,,,,,,,,,,,,,,,
1631,,,,,,,,,,,,,,,,,,,,
1632,,,,,,,,,,,,,,,,,,,,
1633,,,,,,,,,,,,,,,,,,,,
1634,,,,,,,,,,,,,,,,,,,,
1635,,,,,,,,,,,,,,,,,,,,
1636,,,,,,,,,,,,,,,,,,,,
1637,121,CANYONS,UTAH AUTISM ACADEMY,UT,950,Private School,Special Education,K,12,7434 S STATE ST,MIDVALE,84047,8014569955,www.utahautismacademy.com,,,,,,
1638,296,CANYONS,EAST MIDVALE SCHOOL,42,122,,Regular Education,K,5,6990 S 300 E,MIDVALE,84047,8018268350,http://eastmidvale.canyonsdistrict.org/,,,,,,
1639,,,,,,,,,,,,,,,,,,,,
1640,,,,,,,,,,,,,,,,,,,,
1641,,,,,,,,,,,,,,,,,,,,
1642,,,,,,,,,,,,,,,,,,,,
1643,246,CANYONS,MIDVALLEY SCHOOL,42,144,,Regular Education,K,5,217 E 7800 S,MIDVALE,84047,8018268800,http://midvale.canyonsdistrict.org/,,,,,,
1644,,,,,,,,,,,,,,,,,,,,
1645,,,,,,,,,,,,,,,,,,,,
1646,264,CANYONS,HILLCREST HIGH,42,706,,Regular Education,8,12,7350 S 900 E,MIDVALE,84047,8018266000,http://hhs.canyonsdistrict.org/,,,,,,
1647,,,,,,,,,,,,,,,,,,,,
1648,300,CANYONS,JORDAN VALLEY SCHOOL,42,810,,Special Education,K,12,7501 S 1000 E,MIDVALE,84047,8018261200,http://jordanvalley.canyonsdistrict.org/,,,,,,
1649,,,,,,,,,,,,,,,,,,,,
1650,,,,,,,,,,,,,,,,,,,,
1651,112,CANYONS,THE SCHOOL OF AUTISTIC HEALING,AG,999,Private School,Regular Education,K,12,6876 S HIGHLAND DR,COTTONWOOD,84171,8017381568,http://www.autistichealing.org/,,,,,,
1652,,,,,,,,,,,,,,,,,,,,
1653,1196,CANYONS,RIDGECREST SCHOOL,42,151,,Regular Education,K,5,1800 E 7200 S,COTTONWOOD HEIGHTS,84121,8018269250,http://ridgecrest.canyonsdistrict.org/,,,,,,
1654,,,,,,,,,,,,,,,,,,,,
1655,214,CANYONS,BELLA VISTA SCHOOL,42,106,,Regular Education,K,5,2131 E 7000 S,SALT LAKE CITY,84121,8018267825,http://bellavista.canyonsdistrict.org/,,,,,,
1656,,,,,,,,,,,,,,,,,,,,
1657,,,,,,,,,,,,,,,,,,,,
1658,215,GRANITE,INTERMOUNTAIN CHRISTIAN,JE,916,Private School,Regular Education,PK,8,6515 S LION LN,SALT LAKE CITY,84121,8019428811,,,,,,,
1658,216,GRANITE,INTERMOUNTAIN CHRISTIAN,JE,966,Private School,Regular Education,9,12,6515 S LION LN,SALT LAKE CITY,84121,8019428811,,,,,,,
1659,,,,,,,,,,,,,,,,,,,,
1660,,,,,,,,,,,,,,,,,,,,
1661,271,CANYONS,BUTLER SCHOOL,42,108,,Regular Education,K,5,2700 E 7000 S,SALT LAKE CITY,84121,8018267975,http://butler.canyonsdistrict.org/,,,,,,
1661,1195,CANYONS,BUTLER MIDDLE,42,402,,Regular Education,6,8,7530 S 2700 E,SALT LAKE CITY,84121,8018266500,http://butlermiddle.canyonsdistrict.org/,,,,,,
1662,261,CANYONS,BRIGHTON HIGH,42,705,,Regular Education,8,12,2220 E 7695 S,SALT LAKE CITY,84121,8018265800,http://brightonhigh.canyonsdistrict.org/,,,,,,
1663,,,,,,,,,,,,,,,,,,,,
1664,,,,,,,,,,,,,,,,,,,,
1665,,,,,,,,,,,,,,,,,,,,
1666,,,,,,,,,,,,,,,,,,,,
1667,,,,,,,,,,,,,,,,,,,,
1668,,,,,,,,,,,,,,,,,,,,
1669,240,CANYONS,MIDVALE MIDDLE SCHOOL,42,404,,Regular Education,6,8,7852 S PIONEER ST,MIDVALE,84047,8018267300,https://midvalemiddle.canyonsdistrict.org/,,,,,,
1669,1274,CANYONS,MIDVALE ELEMENTARY SCHOOL,42,683,,Regular Education,K,5,7830 S CHAPEL ST,MIDVALE,84047,8018268725,http://midvale.canyonsdistrict.org/,,,,,,
1670,,,,,,,,,,,,,,,,,,,,
1671,,,,,,,,,,,,,,,,,,,,
1672,,,,,,,,,,,,,,,,,,,,
1673,,,,,,,,,,,,,,,,,,,,
1674,281,CANYONS,COPPERVIEW SCHOOL,42,112,,Regular Education,K,5,8449 S 150 W,MIDVALE,84047,8018268125,http://copperview.canyonsdistrict.org/,,,,,,
1675,949,CANYONS,UNION MIDDLE,42,410,,Regular Education,6,8,615 E 8000 S,SANDY,84070,8018261500,http://unionmiddle.canyonsdistrict.org/,,,,,,
1676,,,,,,,,,,,,,,,,,,,,
1677,,,,,,,,,,,,,,,,,,,,
1678,,,,,,,,,,,,,,,,,,,,
1679,,,,,,,,,,,,,,,,,,,,
1680,571,CANYONS,SYLVAN LEARNING CENTER - COTTONWOOD,FS,803,Private School,Supplemental Services,K,12,7942 S 1300 E,SANDY,84094,8019441222,,,,,,,
1681,224,CANYONS,EAST SANDY SCHOOL,42,123,,Regular Education,K,5,8295 S 870 E,SANDY,84094,8018268425,http://eastsandy.canyonsdistrict.org/,,,,,,
1682,,,,,,,,,,,,,,,,,,,,
1683,,,,,,,,,,,,,,,,,,,,
1684,,,,,,,,,,,,,,,,,,,,
1685,254,CANYONS,OAKDALE SCHOOL,42,149,,Regular Education,K,5,1900 E 8100 S,SANDY,84093,8018268950,http://oakdale.canyonsdistrict.org/,,,,,,
1686,256,CANYONS,PERUVIAN PARK SCHOOL,42,150,,Regular Education,K,5,1545 E 8425 S,SANDY,84093,8018269100,http://peruvianpark.canyonsdistrict.org/,,,,,,
1687,,,,,,,,,,,,,,,,,,,,
1688,219,CANYONS,BROOKWOOD SCHOOL,42,107,,Regular Education,K,5,8640 S 2565 E,SANDY,84093,8018267900,http://brookwood.canyonsdistrict.org/,,,,,,
1689,278,CANYONS,CANYON VIEW SCHOOL,42,110,,Regular Education,K,5,3050 E 7800 S,SALT LAKE CITY,84121,8018268050,http://canyonview.canyonsdistrict.org/,,,,,,
1690,,,,,,,,,,,,,,,,,,,,
1691,,,,,,,,,,,,,,,,,,,,
1692,,,,,,,,,,,,,,,,,,,,
1693,931,CANYONS,SANDY SCHOOL,42,156,,Regular Education,PK,5,8725 S 280 E,SANDY,84070,8018269325,http://sandy.canyonsdistrict.org/,,,,,,
1694,,,,,,,,,,,,,,,,,,,,
1695,,,,,,,,,,,,,,,,,,,,
1696,,,,,,,,,,,,,,,,,,,,
1697,908,CANYONS,SILVER MESA SCHOOL,42,158,,Regular Education,K,5,8920 S 1700 E,SANDY,84093,8018269400,http://silvermesa.canyonsdistrict.org/,,,,,,
1698,,,,,,,,,,,,,,,,,,,,
1699,,,,,,,,,,,,,,,,,,,,
1700,,,,,,,,,,,,,,,,,,,,
1701,305,CANYONS,QUAIL HOLLOW SCHOOL,42,154,,Regular Education,K,5,2625 E 9070 S,SANDY,84093,8018269175,http://quailhollow.canyonsdistrict.org/,,,,,,
1702,262,CANYONS,ALBION MIDDLE,42,401,,Regular Education,6,8,2755 E 8890 S,SANDY,84093,8018266700,http://albionmiddle.canyonsdistrict.org/,,,,,,
1703,,,,,,,,,,,,,,,,,,,,
1704,,,,,,,,,,,,,,,,,,,,
1705,,,,,,,,,,,,,,,,,,,,
1706,,,,,,,,,,,,,,,,,,,,
1707,280,CANYONS,MT JORDAN MIDDLE,42,408,,Regular Education,6,8,9351 S MOUNTAINEER LN,SANDY,84070,8018267400,http://mountjordanmiddle.canyonsdistrict.org/,,,,,,
1708,830,CANYONS,SPECIAL ED PRESCHOOL,42,800,,Special Education,PK,,9361 S 300 E,SANDY,84070,8015011067,,,,,,,
1708,1091,CANYONS,CANYONS TRANSITION ACADEMY,42,840,,Special Education,12,12,9361 S 300 E,SANDY,84070,8018265467,,,,,,,
1709,265,CANYONS,JORDAN HIGH,42,708,,Regular Education,8,12,95 E 9825 S,SANDY,84070,8018266200,http://jhs.canyonsdistrict.org/Jordan_High_School/Home.html,,,,,,
1710,,,,,,,,,,,,,,,,,,,,
1711,,,,,,,,,,,,,,,,,,,,
1712,,,,,,,,,,,,,,,,,,,,
1713,,,,,,,,,,,,,,,,,,,,
1714,25,CANYONS,DIAMOND RIDGE HIGH SCHOOL,42,750,,Alternative,9,12,825 EAST 9085 SOUTH,SANDY,84094,8018269900,,,,,,,
1714,295,CANYONS,CANYONS TECHNICAL EDUCATION CENTER,42,740,,Vocational,7,12,825 E 9085 S,SANDY,84094,8018266600,http://ctec.canyonsdistrict.org/,,,,,,
1714,786,CANYONS,ENTRADA,42,950,,Regular Education,K,12,825 E 9085 S,SANDY,84094,8018266670,http://entrada.canyonsdistrict.org/,,,,,,
1715,228,CANYONS,EDGEMONT SCHOOL,42,124,,Regular Education,K,5,1085 E 9800 S,SANDY,84094,8018268500,http://edgemont.canyonsdistrict.org/,,,,,,
1715,212,CANYONS,BELL VIEW SCHOOL,42,105,,Regular Education,K,5,9800 S 800 E,SANDY,84094,8018267750,http://bellview.canyonsdistrict.org/,,,,,,
1715,633,CANYONS,BEEHIVE SCIENCE & TECHNOLOGY ACADEMY (BSTA),3B,700,Charter School,Regular Education,6,12,830 E 9400 S,SANDY,84094,8015760070,http://www.beehiveacademy.org,,,,,,
1716,,,,,,,,,,,,,,,,,,,,
1717,267,CANYONS,EASTMONT MIDDLE,42,403,,Regular Education,6,8,10100 S 1300 E,SANDY,84094,8018267000,http://eastmontmiddle.canyonsdistrict.org/,,,,,,
1718,129,CANYONS,WATERFORD INSTITUTE,WF,901,Private School,Regular Education,PK,,1590 E 9400 S,SANDY,84093,8013492348,www.waterford.org,,,,,,
1718,929,CANYONS,WATERFORD SCHOOL,JM,920,Private School,Regular Education,PK,8,1480 E 9400 S,SANDY,84093,8015721780,,,,,,,
1718,930,CANYONS,WATERFORD SCHOOL,JM,970,Private School,Regular Education,9,12,1480 E 9400 S,SANDY,84093,8015721780,,,,,,,
1718,945,CANYONS,WILLOW CANYON SCHOOL,42,174,,Regular Education,K,5,9650 S 1700 E,SANDY,84092,8018269625,http://willowcanyon.canyonsdistrict.org/,,,,,,
1719,304,CANYONS,BLESSED SACRAMENT SCHOOL,FC,912,Private School,Regular Education,PK,8,1745 E 9800 S,SANDY,84092,8015725311,,,,,,,
1719,1230,CANYONS,GRACE LUTHERAN SCHOOL,FL,913,Private School,Regular Education,PK,6,1815 E 9800 S,SANDY,84092,8015723793,,,,,,,
1719,1231,CANYONS,GRACE LUTHERAN SCHOOL,FL,963,Private School,Regular Education,7,8,1815 E 9800 S,SANDY,84092,8015723793,,,,,,,
1720,,,,,,,,,,,,,,,,,,,,
1721,308,CANYONS,PARK LANE SCHOOL,42,155,,Regular Education,K,5,9955 S 2300 E,SANDY,84092,8018269025,http://parklane.canyonsdistrict.org/,,,,,,
1721,233,CANYONS,GRANITE SCHOOL,42,130,,Regular Education,K,5,9760 S 3100 E,SANDY,84092,8018268575,http://granite.canyonsdistrict.org/,,,,,,
1722,,,,,,,,,,,,,,,,,,,,
1723,,,,,,,,,,,,,,,,,,,,
1724,,,,,,,,,,,,,,,,,,,,
1725,,,,,,,,,,,,,,,,,,,,
1726,,,,,,,,,,,,,,,,,,,,
1727,,,,,,,,,,,,,,,,,,,,
1728,,,,,,,,,,,,,,,,,,,,
1729,,,,,,,,,,,,,,,,,,,,
1730,,,,,,,,,,,,,,,,,,,,
1731,,,,,,,,,,,,,,,,,,,,
1732,209,CANYONS,ALTA VIEW ELEMENTARY SCHOOL,42,104,,Regular Education,K,5,917 E LARKSPUR DR,SANDY,84094,8018267600,http://altaview.canyonsdistrict.org/,,,,,,
1733,,,,,,,,,,,,,,,,,,,,
1734,,,,,,,,,,,,,,,,,,,,
1735,289,CANYONS,CRESCENT SCHOOL,42,116,,Regular Education,K,5,11100 S 230 E,SANDY,84070,8018268200,http://crescent.canyonsdistrict.org/,,,,,,
1736,,,,,,,,,,,,,,,,,,,,
1737,,,,,,,,,,,,,,,,,,,,
1738,,,,,,,,,,,,,,,,,,,,
1739,927,CANYONS,ALTARA SCHOOL,42,103,,Regular Education,K,5,800 E 11000 S,SANDY,84094,8018267675,http://altara.canyonsdistrict.org/,,,,,,
1740,327,CANYONS,ALTA HIGH,42,702,,Regular Education,8,12,11055 S HAWK HWY,SANDY,84094,8018265600,http://ahs.canyonsdistrict.org/,,,,,,
1741,,,,,,,,,,,,,,,,,,,,
1742,935,CANYONS,SUNRISE SCHOOL,42,159,,Regular Education,K,5,1520 E 11265 S,SANDY,84092,8018269550,http://sunrise.canyonsdistrict.org/,,,,,,
1743,,,,,,,,,,,,,,,,,,,,
1744,,,,,,,,,,,,,,,,,,,,
1745,,,,,,,,,,,,,,,,,,,,
1746,244,CANYONS,LONE PEAK SCHOOL,42,135,,Regular Education,K,5,11515 S 2220 E,SANDY,84092,8018268650,http://lonepeak.canyonsdistrict.org/,,,,,,
1747,,,,,,,,,,,,,,,,,,,,
1748,,,,,,,,,,,,,,,,,,,,
1749,56,CANYONS,HUNTINGTON LEARNING CENTER,ED,100,Private School,Regular Education,K,12,684 E 11400 S,DRAPER,84020,8014959730,,,,,,,
1749,1203,CANYONS,GATEWAY ACADEMY,MB,951,Private School,Residential Treatment,9,12,11706 S 700 E,DRAPER,84020,8014637888,,,,,,,
1750,,,,,,,,,,,,,,,,,,,,
1751,569,CANYONS,ST JOHN THE BAPTIST ELEM,FC,915,Private School,Regular Education,PK,5,300 E 11800 S,DRAPER,84020,8019847123,,,,,,,
1751,555,CANYONS,JUAN DIEGO CATHOLIC HIGH,FC,965,Private School,Regular Education,9,12,300 E 11800 S,DRAPER,84020,8019847602,,,,,,,
1751,524,CANYONS,ST JOHN THE BAPTIST MIDDLE,FC,916,Private School,Regular Education,6,8,300 E 11800 S,DRAPER,84020,8019847614,,,,,,,
1752,,,,,,,,,,,,,,,,,,,,
1753,274,CANYONS,INDIAN HILLS MIDDLE,42,405,,Regular Education,6,8,1180 E 11600 S,SANDY,84094,8018267100,http://indianhillsmiddle.canyonsdistrict.org/,,,,,,
1753,253,CANYONS,SPRUCEWOOD SCHOOL,42,164,,Regular Education,K,5,12025 S 1000 E,SANDY,84094,8018269475,http://sprucewood.canyonsdistrict.org/,,,,,,
1754,17,CANYONS,AUTISM BEHAVIOR TREATMENT CENTER,NX,901,Private School,Special Education,K,6,12222 SOUTH 1000 EAST #3,DRAPER,84020,8015725727,,,,,,,
1754,560,CANYONS,OXFORD LEARNING SOURCE,FO,955,Private School,Regular Education,7,12,ACADEMY AT OXFORD,DRAPER,84020,8019424449,,,,,,,
1754,749,CANYONS,OXFORD ACADEMY,FO,951,Private School,Regular Education,7,12,1259 E DRAPER PKWY,DRAPER,84020,8015010228,,,,,,,
1755,,,,,,,,,,,,,,,,,,,,
1756,,,,,,,,,,,,,,,,,,,,
1757,,,,,,,,,,,,,,,,,,,,
1758,,,,,,,,,,,,,,,,,,,,
1759,,,,,,,,,,,,,,,,,,,,
1760,,,,,,,,,,,,,,,,,,,,
1761,1085,CANYONS,CORNER CANYON HIGH,42,711,,Regular Education,8,12,12943 S 700 E,DRAPER,84020,8018266401,,,,,,,
1762,806,CANYONS,CHANNING HALL,2D,100,Charter School,Regular Education,K,8,13515 S 150 E,DRAPER,84020,8015722709,http://www.channinghall.org,,,,,,
1763,701,CANYONS,WILLOW SPRINGS SCHOOL,42,178,,Regular Education,K,5,13288 S LONE PEAK DR,DRAPER,84020,8018269700,http://willowsprings.canyonsdistrict.org/,,,,,,
1764,292,CANYONS,DRAPER SCHOOL,42,120,,Regular Education,K,5,1080 E 12660 S,DRAPER,84020,8018268275,http://draper.canyonsdistrict.org/,,,,,,
1765,,,,,,,,,,,,,,,,,,,,
1766,,,,,,,,,,,,,,,,,,,,
1767,105,CANYONS,SUMMIT ACADEMY - DRAPER CAMPUS,A4,100,Charter School,Regular Education,K,8,1225 E 13200 S,DRAPER,84020,8015724166,http://www.2summit.org/,,,,,,
1768,1084,CANYONS,DRAPER PARK MIDDLE,42,407,,Regular Education,6,8,13133 S 1300 E,DRAPER,84020,8018266900,https://draperpark.canyonsdistrict.org/,,,,,,
1769,,,,,,,,,,,,,,,,,,,,
1770,,,,,,,,,,,,,,,,,,,,
1771,,,,,,,,,,,,,,,,,,,,
1772,,,,,,,,,,,,,,,,,,,,
1773,,,,,,,,,,,,,,,,,,,,
1774,57,CANYONS,IDEA ACADEMY,IA,901,Private School,Regular Education,1,6,13236 S AINTREE AVE,DRAPER,84020,8018318875,,,,,,,
1775,243,CANYONS,OAK HOLLOW SCHOOL,42,143,,Regular Education,K,5,14400 S 884 E,DRAPER,84020,8018268875,http://oakhollow.canyonsdistrict.org/,,,,,,
1776,,,,,,,,,,,,,,,,,,,,
1777,,,,,,,,,,,,,,,,,,,,
1778,,,,,,,,,,,,,,,,,,,,
1779,,,,,,,,,,,,,,,,,,,,
1780,,,,,,,,,,,,,,,,,,,,
1781,,,,,,,,,,,,,,,,,,,,
1782,,,,,,,,,,,,,,,,,,,,
1783,,,,,,,,,,,,,,,,,,,,
1784,,,,,,,,,,,,,,,,,,,,
1785,,,,,,,,,,,,,,,,,,,,
1786,,,,,,,,,,,,,,,,,,,,
1787,,,,,,,,,,,,,,,,,,,,
1788,,,,,,,,,,,,,,,,,,,,
1789,,,,,,,,,,,,,,,,,,,,
1790,,,,,,,,,,,,,,,,,,,,
1791,,,,,,,,,,,,,,,,,,,,
1792,,,,,,,,,,,,,,,,,,,,
1793,,,,,,,,,,,,,,,,,,,,
1794,,,,,,,,,,,,,,,,,,,,
1795,,,,,,,,,,,,,,,,,,,,
1796,,,,,,,,,,,,,,,,,,,,
1797,,,,,,,,,,,,,,,,,,,,
1798,,,,,,,,,,,,,,,,,,,,
1799,,,,,,,,,,,,,,,,,,,,
1800,,,,,,,,,,,,,,,,,,,,
1801,,,,,,,,,,,,,,,,,,,,
1802,,,,,,,,,,,,,,,,,,,,
1803,,,,,,,,,,,,,,,,,,,,
1804,,,,,,,,,,,,,,,,,,,,
1805,,,,,,,,,,,,,,,,,,,,
1806,,,,,,,,,,,,,,,,,,,,
1807,,,,,,,,,,,,,,,,,,,,
1808,,,,,,,,,,,,,,,,,,,,
1809,,,,,,,,,,,,,,,,,,,,
1810,,,,,,,,,,,,,,,,,,,,
1811,,,,,,,,,,,,,,,,,,,,
1812,,,,,,,,,,,,,,,,,,,,
1813,,,,,,,,,,,,,,,,,,,,
1814,,,,,,,,,,,,,,,,,,,,
1815,,,,,,,,,,,,,,,,,,,,
1816,,,,,,,,,,,,,,,,,,,,
1817,,,,,,,,,,,,,,,,,,,,
1818,,,,,,,,,,,,,,,,,,,,
1819,,,,,,,,,,,,,,,,,,,,
1820,,,,,,,,,,,,,,,,,,,,
1821,,,,,,,,,,,,,,,,,,,,
1822,,,,,,,,,,,,,,,,,,,,
1823,,,,,,,,,,,,,,,,,,,,
1824,,,,,,,,,,,,,,,,,,,,
1825,,,,,,,,,,,,,,,,,,,,
1826,,,,,,,,,,,,,,,,,,,,
1827,,,,,,,,,,,,,,,,,,,,
1828,,,,,,,,,,,,,,,,,,,,
1829,,,,,,,,,,,,,,,,,,,,
1830,,,,,,,,,,,,,,,,,,,,
1831,803,ALPINE,MOUNTAIN TRAILS SCHOOL,1,205,,Regular Education,PK,6,3951 N WOOD RD,EAGLE MOUNTAIN,84005,8016108724,http://mountaintrails.alpinedistrict.org/Mountain_Trails/Home.html,,,,,,
1832,,,,,,,,,,,,,,,,,,,,
1833,,,,,,,,,,,,,,,,,,,,
1834,,,,,,,,,,,,,,,,,,,,
1835,,,,,,,,,,,,,,,,,,,,
1836,,,,,,,,,,,,,,,,,,,,
1837,,,,,,,,,,,,,,,,,,,,
1838,,,,,,,,,,,,,,,,,,,,
1839,,,,,,,,,,,,,,,,,,,,
1840,,,,,,,,,,,,,,,,,,,,
1841,,,,,,,,,,,,,,,,,,,,
1842,848,ALPINE,CEDAR VALLEY SCHOOL,1,112,,Regular Education,PK,6,40 E CENTER ST,CEDAR FORT,84013,8016108702,http://www.alpine.k12.ut.us/phpApps/genericPage.php?pdid=1222,,,,,,
1843,,,,,,,,,,,,,,,,,,,,
1844,,,,,,,,,,,,,,,,,,,,
1845,,,,,,,,,,,,,,,,,,,,
1846,,,,,,,,,,,,,,,,,,,,
1847,,,,,,,,,,,,,,,,,,,,
1848,,,,,,,,,,,,,,,,,,,,
1849,,,,,,,,,,,,,,,,,,,,
1850,,,,,,,,,,,,,,,,,,,,
1851,,,,,,,,,,,,,,,,,,,,
1852,,,,,,,,,,,,,,,,,,,,
1853,,,,,,,,,,,,,,,,,,,,
1854,,,,,,,,,,,,,,,,,,,,
1855,,,,,,,,,,,,,,,,,,,,
1856,,,,,,,,,,,,,,,,,,,,
1857,,,,,,,,,,,,,,,,,,,,
1858,,,,,,,,,,,,,,,,,,,,
1859,,,,,,,,,,,,,,,,,,,,
1860,,,,,,,,,,,,,,,,,,,,
1861,,,,,,,,,,,,,,,,,,,,
1862,,,,,,,,,,,,,,,,,,,,
1863,,,,,,,,,,,,,,,,,,,,
1864,,,,,,,,,,,,,,,,,,,,
1865,,,,,,,,,,,,,,,,,,,,
1866,,,,,,,,,,,,,,,,,,,,
1867,,,,,,,,,,,,,,,,,,,,
1868,,,,,,,,,,,,,,,,,,,,
1869,1191,ALPINE,EAGLE VALLEY SCHOOL,1,121,,Regular Education,PK,6,4475 N HERITAGE DR,EAGLE MOUNTAIN,84043,8016108704,http://eaglevalley.alpinedistrict.org,,,,,,
1870,,,,,,,,,,,,,,,,,,,,
1871,,,,,,,,,,,,,,,,,,,,
1872,,,,,,,,,,,,,,,,,,,,
1873,,,,,,,,,,,,,,,,,,,,
1874,,,,,,,,,,,,,,,,,,,,
1875,,,,,,,,,,,,,,,,,,,,
1876,,,,,,,,,,,,,,,,,,,,
1877,,,,,,,,,,,,,,,,,,,,
1878,,,,,,,,,,,,,,,,,,,,
1879,,,,,,,,,,,,,,,,,,,,
1880,,,,,,,,,,,,,,,,,,,,
1881,,,,,,,,,,,,,,,,,,,,
1882,,,,,,,,,,,,,,,,,,,,
1883,,,,,,,,,,,,,,,,,,,,
1884,,,,,,,,,,,,,,,,,,,,
1885,1126,ALPINE,FRONTIER MIDDLE SCHOOL,1,417,,Regular Education,7,9,1427 E MID VALLEY RD,EAGLE MOUNTAIN,84005,8016108777,,,,,,,
1886,,,,,,,,,,,,,,,,,,,,
1887,,,,,,,,,,,,,,,,,,,,
1888,,,,,,,,,,,,,,,,,,,,
1889,,,,,,,,,,,,,,,,,,,,
1890,,,,,,,,,,,,,,,,,,,,
1891,,,,,,,,,,,,,,,,,,,,
1892,,,,,,,,,,,,,,,,,,,,
1893,,,,,,,,,,,,,,,,,,,,
1894,,,,,,,,,,,,,,,,,,,,
1895,,,,,,,,,,,,,,,,,,,,
1896,,,,,,,,,,,,,,,,,,,,
1897,,,,,,,,,,,,,,,,,,,,
1898,,,,,,,,,,,,,,,,,,,,
1899,752,ALPINE,HIDDEN HOLLOW SCHOOL,1,139,,Regular Education,PK,6,2546 E PONY EXPRESS PKWY,EAGLE MOUNTAIN,84005,8016108721,http://www.alpine.k12.ut.us/phpApps/genericPage.php?pdid=1869,,,,,,
1900,,,,,,,,,,,,,,,,,,,,
1901,613,ALPINE,RANCHES ACADEMY,A2,100,Charter School,Regular Education,K,6,7789 TAWNY OWL CIR,EAGLE MOUNTAIN,84005,8017894000,http://www.theranchesacademy.com,,,,,,
1902,,,,,,,,,,,,,,,,,,,,
1903,,,,,,,,,,,,,,,,,,,,
1904,,,,,,,,,,,,,,,,,,,,
1905,717,ALPINE,ROCKWELL CHARTER HIGH SCHOOL,2F,700,Charter School,Regular Education,7,12,3435 E STONEBRIDGE LN,EAGLE MOUNTAIN,84005,8017897625,http://www.rockwellhigh.net/,,,,,,
1906,,,,,,,,,,,,,,,,,,,,
1907,,,,,,,,,,,,,,,,,,,,
1908,69,ALPINE,LUMEN SCHOLAR INSTITUTE,9J,300,Online Charter School,Regular Education,K,12,2342 COYOTE STREET,EAGLE MOUNTAIN,84005,8019879497,www.lumenscholar.org,,,,,,
1908,1111,ALPINE,BLACK RIDGE SCHOOL,1,115,,Regular Education,K,6,9358 N SUNSET DR,EAGLE MOUNTAIN,84005,8016108729,,,,,,,
1909,,,,,,,,,,,,,,,,,,,,
1910,,,,,,,,,,,,,,,,,,,,
1911,,,,,,,,,,,,,,,,,,,,
1912,,,,,,,,,,,,,,,,,,,,
1913,,,,,,,,,,,,,,,,,,,,
1914,,,,,,,,,,,,,,,,,,,,
1915,,,,,,,,,,,,,,,,,,,,
1916,,,,,,,,,,,,,,,,,,,,
1917,,,,,,,,,,,,,,,,,,,,
1918,,,,,,,,,,,,,,,,,,,,
1919,,,,,,,,,,,,,,,,,,,,
1920,,,,,,,,,,,,,,,,,,,,
1921,,,,,,,,,,,,,,,,,,,,
1922,,,,,,,,,,,,,,,,,,,,
1923,,,,,,,,,,,,,,,,,,,,
1924,,,,,,,,,,,,,,,,,,,,
1925,,,,,,,,,,,,,,,,,,,,
1926,,,,,,,,,,,,,,,,,,,,
1927,,,,,,,,,,,,,,,,,,,,
1928,,,,,,,,,,,,,,,,,,,,
1929,,,,,,,,,,,,,,,,,,,,
1930,,,,,,,,,,,,,,,,,,,,
1931,,,,,,,,,,,,,,,,,,,,
1932,764,ALPINE,SAGE HILLS SCHOOL,1,167,,Regular Education,PK,6,3033 SWAINSON AVE,SARATOGA SPRINGS,84045,8016108723,http://www.alpine.k12.ut.us/phpApps/genericPage.php?pdid=2553,,,,,,
1933,,,,,,,,,,,,,,,,,,,,
1934,,,,,,,,,,,,,,,,,,,,
1935,,,,,,,,,,,,,,,,,,,,
1936,,,,,,,,,,,,,,,,,,,,
1937,,,,,,,,,,,,,,,,,,,,
1938,,,,,,,,,,,,,,,,,,,,
1939,,,,,,,,,,,,,,,,,,,,
1940,758,ALPINE,SARATOGA SHORES SCHOOL,1,163,,Regular Education,PK,6,1415 S PARKSIDE DR,SARATOGA SPRINGS,84045,8016108716,http://saratogashores.alpinedistrict.org/,,,,,,
1941,,,,,,,,,,,,,,,,,,,,
1942,,,,,,,,,,,,,,,,,,,,
1943,,,,,,,,,,,,,,,,,,,,
1944,,,,,,,,,,,,,,,,,,,,
1945,,,,,,,,,,,,,,,,,,,,
1946,,,,,,,,,,,,,,,,,,,,
1947,,,,,,,,,,,,,,,,,,,,
1948,,,,,,,,,,,,,,,,,,,,
1949,,,,,,,,,,,,,,,,,,,,
1950,,,,,,,,,,,,,,,,,,,,
1951,,,,,,,,,,,,,,,,,,,,
1952,,,,,,,,,,,,,,,,,,,,
1953,703,ALPINE,PONY EXPRESS SCHOOL,1,153,,Regular Education,PK,6,3985 E SMITH RANCH RD,EAGLE MOUNTAIN,84005,8016108714,http://ponyexpress.alpinedistrict.org/,,,,,,
1954,,,,,,,,,,,,,,,,,,,,
1955,,,,,,,,,,,,,,,,,,,,
1956,,,,,,,,,,,,,,,,,,,,
1957,,,,,,,,,,,,,,,,,,,,
1958,,,,,,,,,,,,,,,,,,,,
1959,,,,,,,,,,,,,,,,,,,,
1960,,,,,,,,,,,,,,,,,,,,
1961,,,,,,,,,,,,,,,,,,,,
1962,,,,,,,,,,,,,,,,,,,,
1963,3,ALPINE,SPRINGSIDE SCHOOL,1,202,,Regular Education,K,6,694 S HIGHPOINT DRIVE,SARATOGA SPRINGS,84045,8016108400,springside.alpineschools.org,,,,,,
1964,,,,,,,,,,,,,,,,,,,,
1965,,,,,,,,,,,,,,,,,,,,
1966,,,,,,,,,,,,,,,,,,,,
1967,,,,,,,,,,,,,,,,,,,,
1968,,,,,,,,,,,,,,,,,,,,
1969,815,ALPINE,WESTLAKE HIGH,1,789,,Regular Education,10,12,99 N 200 W,SARATOGA SPRINGS,84045,8016108815,http://westlake.alpinedistrict.org/,,,,,,
1970,688,ALPINE,LAKEVIEW ACADEMY,4C,100,Charter School,Regular Education,K,9,527 W 400 N,SARATOGA SPRINGS,84045,8013316788,http://www.lakeview-academy.com,,,,,,
1970,839,ALPINE,HORIZON SCHOOL,1,808,,Special Education,PK,12,682 W 210 N,SARATOGA SPRINGS,84045,8016108728,,,,,,,
1970,841,ALPINE,THUNDER RIDGE SCHOOL,1,256,,Regular Education,PK,6,264 N 750 W,SARATOGA SPRINGS,84045,8016108727,,,,,,,
1970,801,ALPINE,VISTA HEIGHTS MIDDLE,1,490,,Regular Education,7,9,484 W PONY EXPRESS PKWY,SARATOGA SPRINGS,84045,8016108770,http://www.alpine.k12.ut.us/phpApps/genericPage.php?pdid=3075,,,,,,
1971,,,,,,,,,,,,,,,,,,,,
1972,,,,,,,,,,,,,,,,,,,,
1973,,,,,,,,,,,,,,,,,,,,
1974,,,,,,,,,,,,,,,,,,,,
1975,,,,,,,,,,,,,,,,,,,,
1976,,,,,,,,,,,,,,,,,,,,
1977,,,,,,,,,,,,,,,,,,,,
1978,,,,,,,,,,,,,,,,,,,,
1979,,,,,,,,,,,,,,,,,,,,
1980,,,,,,,,,,,,,,,,,,,,
1981,,,,,,,,,,,,,,,,,,,,
1982,,,,,,,,,,,,,,,,,,,,
1983,,,,,,,,,,,,,,,,,,,,
1984,,,,,,,,,,,,,,,,,,,,
1985,,,,,,,,,,,,,,,,,,,,
1986,,,,,,,,,,,,,,,,,,,,
1987,,,,,,,,,,,,,,,,,,,,
1988,,,,,,,,,,,,,,,,,,,,
1989,,,,,,,,,,,,,,,,,,,,
1990,,,,,,,,,,,,,,,,,,,,
1991,,,,,,,,,,,,,,,,,,,,
1992,,,,,,,,,,,,,,,,,,,,
1993,,,,,,,,,,,,,,,,,,,,
1994,,,,,,,,,,,,,,,,,,,,
1995,840,ALPINE,RIVERVIEW SCHOOL,1,219,,Regular Education,PK,6,273 W ASPEN HILLS BLVD,SARATOGA SPRINGS,84045,8016108726,,,,,,,
1996,,,,,,,,,,,,,,,,,,,,
1997,1192,ALPINE,HARVEST SCHOOL,1,138,,Regular Education,PK,6,2105 N PROVIDENCE DRIVE,SARATOGA SPRINGS,84043,8016108709,http://harvest.alpinedistrict.org/Harvest/Home.html,,,,,,
1998,,,,,,,,,,,,,,,,,,,,
1999,,,,,,,,,,,,,,,,,,,,
2000,,,,,,,,,,,,,,,,,,,,
2001,,,,,,,,,,,,,,,,,,,,
2002,,,,,,,,,,,,,,,,,,,,
2003,,,,,,,,,,,,,,,,,,,,
2004,,,,,,,,,,,,,,,,,,,,
2005,,,,,,,,,,,,,,,,,,,,
2006,,,,,,,,,,,,,,,,,,,,
2007,,,,,,,,,,,,,,,,,,,,
2008,,,,,,,,,,,,,,,,,,,,
2009,,,,,,,,,,,,,,,,,,,,
2010,,,,,,,,,,,,,,,,,,,,
2011,,,,,,,,,,,,,,,,,,,,
2012,,,,,,,,,,,,,,,,,,,,
2013,,,,,,,,,,,,,,,,,,,,
2014,,,,,,,,,,,,,,,,,,,,
2015,,,,,,,,,,,,,,,,,,,,
2016,,,,,,,,,,,,,,,,,,,,
2017,,,,,,,,,,,,,,,,,,,,
2018,,,,,,,,,,,,,,,,,,,,
2019,1108,ALPINE,DRY CREEK SCHOOL,1,183,,Regular Education,PK,6,1301 W 1450 S,LEHI,84043,8016108730,,,,,,,
2020,,,,,,,,,,,,,,,,,,,,
2021,,,,,,,,,,,,,,,,,,,,
2022,,,,,,,,,,,,,,,,,,,,
2023,,,,,,,,,,,,,,,,,,,,
2024,637,ALPINE,SNOW SPRINGS SCHOOL,1,172,,Regular Education,PK,6,850 S 1700 W,LEHI,84043,8016108719,http://www.alpine.k12.ut.us/phpApps/genericPage.php?pdid=1323,,,,,,
2025,,,,,,,,,,,,,,,,,,,,
2026,,,,,,,,,,,,,,,,,,,,
2027,,,,,,,,,,,,,,,,,,,,
2028,,,,,,,,,,,,,,,,,,,,
2029,,,,,,,,,,,,,,,,,,,,
2030,,,,,,,,,,,,,,,,,,,,
2031,,,,,,,,,,,,,,,,,,,,
2032,859,ALPINE,MEADOW SCHOOL,1,154,,Regular Education,PK,6,176 S 500 W,LEHI,84043,8016108713,http://meadow.alpinedistrict.org/,,,,,,
2033,,,,,,,,,,,,,,,,,,,,
2034,,,,,,,,,,,,,,,,,,,,
2035,,,,,,,,,,,,,,,,,,,,
2036,,,,,,,,,,,,,,,,,,,,
2037,,,,,,,,,,,,,,,,,,,,
2038,876,ALPINE,LEHI HIGH,1,708,,Regular Education,10,12,180 N 500 E,LEHI,84043,8016108805,http://www.lehi.alpine.k12.ut.us/,,,,,,
2039,,,,,,,,,,,,,,,,,,,,
2040,,,,,,,,,,,,,,,,,,,,
2041,871,ALPINE,LEHI SCHOOL,1,148,,Regular Education,PK,6,765 N CENTER ST,LEHI,84043,8016108712,http://www.alpine.k12.ut.us/phpApps/genericPage.php?pdid=2682,,,,,,
2042,,,,,,,,,,,,,,,,,,,,
2043,,,,,,,,,,,,,,,,,,,,
2044,,,,,,,,,,,,,,,,,,,,
2045,760,ALPINE,WILLOWCREEK MIDDLE,1,425,,Regular Education,7,9,2275 W 300 N,LEHI,84043,8017665273,http://willowcreek.alpinedistrict.org/,,,,,,
2046,,,,,,,,,,,,,,,,,,,,
2047,1,ALPINE,RIVER ROCK SCHOOL,1,201,,Regular Education,PK,6,520 N 1700 W,LEHI,84043,8016108731,www.alpineschools.org,,,,,,
2048,13,ALPINE,ASCENT ACADEMIES OF UTAH LEHI,2J,320,Charter School,Regular Education,K,9,1999 WEST 900 NORTH,LEHI,84043,3853749641,http://lehi.ascentutah.org/,,,,,,
2049,,,,,,,,,,,,,,,,,,,,
2050,,,,,,,,,,,,,,,,,,,,
2051,,,,,,,,,,,,,,,,,,,,
2052,,,,,,,,,,,,,,,,,,,,
2053,,,,,,,,,,,,,,,,,,,,
2054,,,,,,,,,,,,,,,,,,,,
2055,,,,,,,,,,,,,,,,,,,,
2056,823,ALPINE,NORTH POINT SCHOOL,1,150,,Regular Education,PK,6,2300 W 1900 N,LEHI,84043,8016108722,,,,,,,
2057,,,,,,,,,,,,,,,,,,,,
2058,,,,,,,,,,,,,,,,,,,,
2059,,,,,,,,,,,,,,,,,,,,
2060,880,ALPINE,LEHI JR HIGH,1,408,,Regular Education,7,9,700 E CEDAR HOLLOW RD,LEHI,84043,8016108754,http://lehijr.alpinedistrict.org/,,,,,,
2061,860,ALPINE,SEGO LILY SCHOOL,1,164,,Regular Education,PK,6,550 E 900 N,LEHI,84043,8016108717,http://segolily.alpinedistrict.org/,,,,,,
2062,,,,,,,,,,,,,,,,,,,,
2063,,,,,,,,,,,,,,,,,,,,
2064,,,,,,,,,,,,,,,,,,,,
2065,,,,,,,,,,,,,,,,,,,,
2066,,,,,,,,,,,,,,,,,,,,
2067,,,,,,,,,,,,,,,,,,,,
2068,,,,,,,,,,,,,,,,,,,,
2069,,,,,,,,,,,,,,,,,,,,
2070,,,,,,,,,,,,,,,,,,,,
2071,2,ALPINE,SKYRIDGE HIGH SCHOOL,1,785,,Regular Education,10,12,3000 NORTH CENTER STREET,LEHI,84043,8016108820,shs.alpineschools.org,,,,,,
2072,851,ALPINE,EAGLECREST SCHOOL,1,120,,Regular Education,PK,6,2760 N 300 W,LEHI,84043,8016108703,http://eaglecrest.alpinedistrict.org/,,,,,,
2073,,,,,,,,,,,,,,,,,,,,
2074,,,,,,,,,,,,,,,,,,,,
2075,685,ALPINE,RENAISSANCE ACADEMY,1D,100,Charter School,Regular Education,K,9,3435 N 1120 E,LEHI,84043,8017684202,http://www.renacademy.org,,,,,,
2076,,,,,,,,,,,,,,,,,,,,
2077,,,,,,,,,,,,,,,,,,,,
2078,,,,,,,,,,,,,,,,,,,,
2079,,,,,,,,,,,,,,,,,,,,
2080,,,,,,,,,,,,,,,,,,,,
2081,,,,,,,,,,,,,,,,,,,,
2082,,,,,,,,,,,,,,,,,,,,
2083,,,,,,,,,,,,,,,,,,,,
2084,,,,,,,,,,,,,,,,,,,,
2085,,,,,,,,,,,,,,,,,,,,
2086,,,,,,,,,,,,,,,,,,,,
2087,,,,,,,,,,,,,,,,,,,,
2088,691,ALPINE,FOX HOLLOW SCHOOL,1,126,,Regular Education,PK,6,1450 W 3200 N,LEHI,84043,8016108706,http://www.alpine.k12.ut.us/phpApps/genericPage.php?pdid=1284,,,,,,
2089,,,,,,,,,,,,,,,,,,,,
2090,,,,,,,,,,,,,,,,,,,,
2091,,,,,,,,,,,,,,,,,,,,
2092,,,,,,,,,,,,,,,,,,,,
2093,,,,,,,,,,,,,,,,,,,,
2094,,,,,,,,,,,,,,,,,,,,
2095,,,,,,,,,,,,,,,,,,,,
2096,,,,,,,,,,,,,,,,,,,,
2097,,,,,,,,,,,,,,,,,,,,
2098,,,,,,,,,,,,,,,,,,,,
2099,,,,,,,,,,,,,,,,,,,,
2100,,,,,,,,,,,,,,,,,,,,
2101,,,,,,,,,,,,,,,,,,,,
2102,,,,,,,,,,,,,,,,,,,,
2103,,,,,,,,,,,,,,,,,,,,
2104,,,,,,,,,,,,,,,,,,,,
2105,,,,,,,,,,,,,,,,,,,,
2106,,,,,,,,,,,,,,,,,,,,
2107,,,,,,,,,,,,,,,,,,,,
2108,,,,,,,,,,,,,,,,,,,,
2109,,,,,,,,,,,,,,,,,,,,
2110,,,,,,,,,,,,,,,,,,,,
2111,,,,,,,,,,,,,,,,,,,,
2112,,,,,,,,,,,,,,,,,,,,
2113,,,,,,,,,,,,,,,,,,,,
2114,804,ALPINE,TRAVERSE MOUNTAIN SCHOOL,1,258,,Regular Education,PK,6,2500 W CHAPEL RIDGE RD,LEHI,84043,8016108725,http://traversemountain.alpinedistrict.org/Traverse_Mountain_Elementary_School/Welcome.html,,,,,,
2115,,,,,,,,,,,,,,,,,,,,
2116,,,,,,,,,,,,,,,,,,,,
2117,,,,,,,,,,,,,,,,,,,,
2118,,,,,,,,,,,,,,,,,,,,
2119,,,,,,,,,,,,,,,,,,,,
2120,,,,,,,,,,,,,,,,,,,,
2121,,,,,,,,,,,,,,,,,,,,
2122,,,,,,,,,,,,,,,,,,,,
2123,693,ALPINE,RIDGELINE SCHOOL,1,165,,Regular Education,PK,6,6250 W 11800 N,HIGHLAND,84003,8016108715,http://www.ridgeline.alpine.k12.ut.us/Ridgeline_Elementary/Raccoons_Rock.html,,,,,,
2124,,,,,,,,,,,,,,,,,,,,
2125,726,ALPINE,TIMBERLINE MIDDLE,1,420,,Regular Education,7,9,500 W CANYON CREST RD,ALPINE,84004,8016108765,http://timberline.alpinedistrict.org/,,,,,,
2125,638,ALPINE,WESTFIELD SCHOOL,1,180,,Regular Education,PK,6,380 S LONG DR,ALPINE,84004,8016108720,http://westfield.alpinedistrict.org/,,,,,,
2126,,,,,,,,,,,,,,,,,,,,
2127,,,,,,,,,,,,,,,,,,,,
2128,,,,,,,,,,,,,,,,,,,,
2129,,,,,,,,,,,,,,,,,,,,
2130,,,,,,,,,,,,,,,,,,,,
2131,802,ALPINE,MOUNTAINVILLE ACADEMY,8C,100,Charter School,Regular Education,K,9,195 S MAIN ST,ALPINE,84004,8017569805,http://www.mountainvilleacademy.org,,,,,,
2132,850,ALPINE,ALPINE SCHOOL,1,104,,Regular Education,PK,6,400 E 300 N,ALPINE,84004,8016108700,http://alpine.alpinedistrict.org/,,,,,,
2133,,,,,,,,,,,,,,,,,,,,
2134,,,,,,,,,,,,,,,,,,,,
2135,,,,,,,,,,,,,,,,,,,,
2136,,,,,,,,,,,,,,,,,,,,
2137,,,,,,,,,,,,,,,,,,,,
2138,,,,,,,,,,,,,,,,,,,,
2139,,,,,,,,,,,,,,,,,,,,
2140,864,ALPINE,HIGHLAND SCHOOL,1,140,,Regular Education,PK,6,10865 N 6000 W,HIGHLAND,84003,8016108710,http://www.highland.alpine.k12.ut.us/Highland/Home_of_the_Hawks.html,,,,,,
2141,,,,,,,,,,,,,,,,,,,,
2142,,,,,,,,,,,,,,,,,,,,
2143,,,,,,,,,,,,,,,,,,,,
2144,724,ALPINE,FREEDOM SCHOOL,1,125,,Regular Education,PK,6,10326 N 6800 W,HIGHLAND,84003,8016108707,http://www.freedom.alpine.k12.ut.us/,,,,,,
2145,,,,,,,,,,,,,,,,,,,,
2146,881,ALPINE,MOUNTAIN RIDGE JR HIGH,1,410,,Regular Education,7,9,5525 W 10400 N,HIGHLAND,84003,8016108758,http://mountainridge.alpinedistrict.org/,,,,,,
2147,,,,,,,,,,,,,,,,,,,,
2148,,,,,,,,,,,,,,,,,,,,
2149,,,,,,,,,,,,,,,,,,,,
2150,882,ALPINE,AMERICAN FORK JR HIGH,1,404,,Regular Education,7,9,20 W 1120 N,AMERICAN FORK,84003,8016108750,http://www.afjh.alpine.k12.ut.us/,,,,,,
2150,870,ALPINE,LEGACY SCHOOL,1,146,,Regular Education,PK,6,28 E 1340 N,AMERICAN FORK,84003,8016108711,http://legacy.alpinedistrict.org/,,,,,,
2151,,,,,,,,,,,,,,,,,,,,
2152,,,,,,,,,,,,,,,,,,,,
2153,,,,,,,,,,,,,,,,,,,,
2154,,,,,,,,,,,,,,,,,,,,
2155,,,,,,,,,,,,,,,,,,,,
2156,,,,,,,,,,,,,,,,,,,,
2157,,,,,,,,,,,,,,,,,,,,
2158,,,,,,,,,,,,,,,,,,,,
2159,,,,,,,,,,,,,,,,,,,,
2160,877,ALPINE,LONE PEAK HIGH,1,709,,Regular Education,10,12,10189 N 4800 W,HIGHLAND,84003,8016108810,http://lonepeak.alpinedistrict.org/,,,,,,
2161,677,ALPINE,DEERFIELD SCHOOL,1,119,,Regular Education,PK,6,4353 W HARVEY BLVD,CEDAR HILLS,84062,8016108106,http://www.deerfield.alpinedistrict.org/,,,,,,
2161,847,ALPINE,CEDAR RIDGE SCHOOL,1,111,,Regular Education,PK,6,4501 W CEDAR HILLS DR,CEDAR HILLS,84062,8016108103,http://cedarridge.alpinedistrict.org/,,,,,,
2162,,,,,,,,,,,,,,,,,,,,
2163,,,,,,,,,,,,,,,,,,,,
2164,,,,,,,,,,,,,,,,,,,,
2165,842,ALPINE,AMERICAN HERITAGE SCHOOL,NZ,950,Private School,Regular Education,K,12,736 N 1100 E,AMERICAN FORK,84003,8016420055,http://www.american-heritage.org,,,,,,
2165,782,ALPINE,LINCOLN ACADEMY,2B,100,Charter School,Regular Education,K,9,1582 W 3300 N,PLEASANT GROVE,84062,8017562039,http://www.lincoln-academy.org,,,,,,
2166,1090,ALPINE,CANYON GROVE ACADEMY,5G,100,Charter School,Regular Education,K,8,588 W 3300 N,PLEASANT GROVE,84062,8017859300,http://www.canyongrove.com,,,,,,
2167,,,,,,,,,,,,,,,,,,,,
2168,480,ALPINE,SERV BY APPT,1,850,,Regular Education,PK,3,575 N 100 E,AMERICAN FORK,84003,8017568400,,,,,,,
2168,667,ALPINE,ALPINE ONLINE SCHOOL,1,299,Online School,Regular Education,K,8,575 N 100 E,AMERICAN FORK,84003,8017568400,http://alpineonline.alpineschools.org/,,,,,,
2168,866,ALPINE,SHELLEY SCHOOL,1,170,,Regular Education,PK,6,602 N 200 W,AMERICAN FORK,84003,8016108718,http://shelley.alpinedistrict.org/,,,,,,
2169,,,,,,,,,,,,,,,,,,,,
2170,899,ALPINE,AMERICAN FORK HIGH,1,704,,Regular Education,10,12,510 N 600 E,AMERICAN FORK,84003,8016108800,http://www.afhs.alpine.k12.ut.us/,,,,,,
2171,,,,,,,,,,,,,,,,,,,,
2172,,,,,,,,,,,,,,,,,,,,
2173,,,,,,,,,,,,,,,,,,,,
2174,646,ALPINE,AMERICAN LEGACY ACADEMY,MQ,901,Private School,Special Education,K,6,215 N CENTER ST,AMERICAN FORK,84003,8017564020,,,,,,,
2175,852,ALPINE,FORBES SCHOOL,1,124,,Regular Education,K,6,281 N 200 E,AMERICAN FORK,84003,8016108705,http://forbes.alpinedistrict.org/,,,,,,
2176,896,ALPINE,DAN W. PETERSON,1,840,,Special Education,PK,12,169 N 1100 E,AMERICAN FORK,84003,8017568551,,,,,,,
2176,844,ALPINE,BARRATT SCHOOL,1,106,,Regular Education,PK,6,168 N 900 E,AMERICAN FORK,84003,8016108701,http://barratt.alpinedistrict.org/,,,,,,
2176,1140,ALPINE,PIONEER HIGH SCHOOL FOR THE PERFORMING ARTS,9H,700,Charter School,Regular Education,9,12,555 E MAIN ST,AMERICAN FORK,84003,8017688787,http://pioneercharterschool.org/,,,,,,
2177,,,,,,,,,,,,,,,,,,,,
2178,78,ALPINE,NEW HOPE ACADEMY,NI,950,Private School,Regular Education,K,12,343 E MAIN ST,AMERICAN FORK,84003,8014408475,,,,,,,
2179,,,,,,,,,,,,,,,,,,,,
2180,,,,,,,,,,,,,,,,,,,,
2181,856,ALPINE,GREENWOOD SCHOOL,1,132,,Regular Education,PK,6,50 E 200 S,AMERICAN FORK,84003,8016108708,http://greenwood.alpinedistrict.org/,,,,,,
2182,,,,,,,,,,,,,,,,,,,,
2183,,,,,,,,,,,,,,,,,,,,
2184,15,ALPINE,ATHENIAN EACADEMY,4K,300,Online Charter School,Regular Education,K,12,765 E 340 S SUITE 203,AMERICAN FORK,84003,3857155400,www.aea.rocks,,,,,,
2185,,,,,,,,,,,,,,,,,,,,
2186,586,ALPINE,ODYSSEY CHARTER SCHOOL,1C,100,Charter School,Regular Education,K,6,738 E QUALITY DR,AMERICAN FORK,84003,8014928105,http://www.odysseycharter.net,,,,,,
2186,833,ALPINE,ARISTOTLE ACADEMY,4H,100,Charter School,Regular Education,K,8,704 S 600 E,AMERICAN FORK,84003,8017637286,www.aristotleacademyk8.org,,,,,,
2187,710,ALPINE,LIAHONA PREPARATORY ACADEMY,LJ,960,Private School,Regular Education,7,12,2464 W 450 S,PLEASANT GROVE,84062,8017857850,www.liahona-homeschooling.com/de/de,,,,,,
2188,,,,,,,,,,,,,,,,,,,,
2189,,,,,,,,,,,,,,,,,,,,
2190,,,,,,,,,,,,,,,,,,,,
2191,,,,,,,,,,,,,,,,,,,,
2192,,,,,,,,,,,,,,,,,,,,
2193,,,,,,,,,,,,,,,,,,,,
2194,,,,,,,,,,,,,,,,,,,,
2195,,,,,,,,,,,,,,,,,,,,
2196,,,,,,,,,,,,,,,,,,,,
2197,,,,,,,,,,,,,,,,,,,,
2198,,,,,,,,,,,,,,,,,,,,
2199,,,,,,,,,,,,,,,,,,,,
2200,,,,,,,,,,,,,,,,,,,,
2201,,,,,,,,,,,,,,,,,,,,
2202,,,,,,,,,,,,,,,,,,,,
2203,,,,,,,,,,,,,,,,,,,,
2204,,,,,,,,,,,,,,,,,,,,
2205,,,,,,,,,,,,,,,,,,,,
2206,,,,,,,,,,,,,,,,,,,,
2207,,,,,,,,,,,,,,,,,,,,
2208,,,,,,,,,,,,,,,,,,,,
2209,854,ALPINE,MANILA SCHOOL,1,160,,Regular Education,PK,6,1726 N 600 W,PLEASANT GROVE,84062,8016108112,http://manila.alpinedistrict.org/,,,,,,
2210,,,,,,,,,,,,,,,,,,,,
2211,,,,,,,,,,,,,,,,,,,,
2212,699,ALPINE,MOUNT MAHOGANY SCHOOL,1,161,,Regular Education,PK,6,618 N 1300 W,PLEASANT GROVE,84062,8016108113,http://mahogany.alpinedistrict.org/,,,,,,
2213,564,ALPINE,JOHN HANCOCK CHARTER SCHOOL,93,105,Charter School,Regular Education,K,8,125 N 100 E,PLEASANT GROVE,84062,8017965646,http://www.johnhancockcs.org,,,,,,
2214,892,ALPINE,PLEASANT GROVE JR HIGH,1,416,,Regular Education,7,9,810 N 100 E,PLEASANT GROVE,84062,8016108146,http://www.pgjr.alpine.k12.ut.us/pgcms/index.php,,,,,,
2214,857,ALPINE,GROVECREST SCHOOL,1,136,,Regular Education,PK,6,200 E 1100 N,PLEASANT GROVE,84062,8016108109,http://www.alpine.k12.ut.us/phpApps/genericPage.php?pdid=61,,,,,,
2215,,,,,,,,,,,,,,,,,,,,
2216,849,ALPINE,CENTRAL SCHOOL,1,116,,Regular Education,PK,6,95 N 400 E,PLEASANT GROVE,84062,8016108104,,,,,,,
2217,,,,,,,,,,,,,,,,,,,,
2218,,,,,,,,,,,,,,,,,,,,
2219,,,,,,,,,,,,,,,,,,,,
2220,,,,,,,,,,,,,,,,,,,,
2221,,,,,,,,,,,,,,,,,,,,
2222,893,ALPINE,PLEASANT GROVE HIGH,1,716,,Regular Education,10,12,700 E 200 S,PLEASANT GROVE,84062,8016108170,http://www.pghs.alpine.k12.ut.us/,,,,,,
2222,874,ALPINE,VALLEY VIEW SCHOOL,1,176,,Regular Education,PK,6,941 ORCHARD DR,PLEASANT GROVE,84062,8016108121,http://valleyview.alpinedistrict.org/,,,,,,
2223,,,,,,,,,,,,,,,,,,,,
2224,,,,,,,,,,,,,,,,,,,,
2225,,,,,,,,,,,,,,,,,,,,
2226,,,,,,,,,,,,,,,,,,,,
2227,,,,,,,,,,,,,,,,,,,,
2228,523,ALPINE,TIMPANOGOS ACADEMY,95,110,Charter School,Regular Education,K,6,70 S 100 E,LINDON,84042,8017854979,http://www.timpacademy.org,,,,,,
2228,863,ALPINE,LINDON SCHOOL,1,156,,Regular Education,PK,6,30 N MAIN ST,LINDON,84042,8016108111,http://www.lindon.alpine.k12.ut.us/,,,,,,
2229,886,ALPINE,OAK CANYON JR HIGH,1,412,,Regular Education,7,9,111 S 725 E,LINDON,84042,8016108138,http://oakcanyon.alpinedistrict.org/,,,,,,
2229,855,ALPINE,ROCKY MOUNTAIN SCHOOL,1,162,,Regular Education,PK,6,55 S 500 E,LINDON,84042,8016108117,http://www.rockymountainelementary.org/,,,,,,
2230,,,,,,,,,,,,,,,,,,,,
2231,,,,,,,,,,,,,,,,,,,,
2232,,,,,,,,,,,,,,,,,,,,
2233,,,,,,,,,,,,,,,,,,,,
2234,,,,,,,,,,,,,,,,,,,,
2235,,,,,,,,,,,,,,,,,,,,
2236,,,,,,,,,,,,,,,,,,,,
2237,,,,,,,,,,,,,,,,,,,,
2238,,,,,,,,,,,,,,,,,,,,
2239,101,ALPINE,SPECTRUM ACADEMY - PLEASANT GROVE,3D,300,Charter School,Regular Education,K,9,867 SOUTH 800 WEST,PLEASANT GROVE,84062,8017859019,www.spectrumcharter.org,,,,,,
2240,,,,,,,,,,,,,,,,,,,,
2241,,,,,,,,,,,,,,,,,,,,
2242,,,,,,,,,,,,,,,,,,,,
2243,,,,,,,,,,,,,,,,,,,,
2244,,,,,,,,,,,,,,,,,,,,
2245,,,,,,,,,,,,,,,,,,,,
2246,,,,,,,,,,,,,,,,,,,,
2247,,,,,,,,,,,,,,,,,,,,
2248,,,,,,,,,,,,,,,,,,,,
2249,,,,,,,,,,,,,,,,,,,,
2250,645,ALPINE,MONTESSORI LEARNING CENTER,MX,951,Private School,Special Education,K,8,310 S 400 W,LINDON,84042,4357340551,,,,,,,
2251,,,,,,,,,,,,,,,,,,,,
2252,,,,,,,,,,,,,,,,,,,,
2253,,,,,,,,,,,,,,,,,,,,
2254,,,,,,,,,,,,,,,,,,,,
2255,,,,,,,,,,,,,,,,,,,,
2256,,,,,,,,,,,,,,,,,,,,
2257,,,,,,,,,,,,,,,,,,,,
2258,,,,,,,,,,,,,,,,,,,,
2259,,,,,,,,,,,,,,,,,,,,
2260,,,,,,,,,,,,,,,,,,,,
2261,,,,,,,,,,,,,,,,,,,,
2262,48,ALPINE,FREEDOM PREPARATORY ACADEMY - VINEYARD,82,105,Charter School,Regular Education,K,5,426 NORTH 100 WEST,VINEYARD,84058,8014373100,www.freedomprep.net,,,,,,
2263,,,,,,,,,,,,,,,,,,,,
2264,,,,,,,,,,,,,,,,,,,,
2265,,,,,,,,,,,,,,,,,,,,
2266,,,,,,,,,,,,,,,,,,,,
2267,,,,,,,,,,,,,,,,,,,,
2268,,,,,,,,,,,,,,,,,,,,
2269,,,,,,,,,,,,,,,,,,,,
2270,,,,,,,,,,,,,,,,,,,,
2271,1082,ALPINE,CHAPMAN MUSIC INSTITUTE,EB,100,Private School,Regular Education,7,12,43 N 1330 W,OREM,84057,8018600840,,,,,,,
2272,,,,,,,,,,,,,,,,,,,,
2273,,,,,,,,,,,,,,,,,,,,
2274,46,ALPINE,FRANKLIN DISCOVERY ACADEMY,6K,100,Charter School,Regular Education,K,6,320 E GAMMON ROAD,VINEYARD,84058,8017856500,http://franklindiscovery.org/,,,,,,
2275,,,,,,,,,,,,,,,,,,,,
2276,,,,,,,,,,,,,,,,,,,,
2277,,,,,,,,,,,,,,,,,,,,
2278,875,ALPINE,VINEYARD SCHOOL,1,177,,Regular Education,PK,6,620 E HOLDAWAY RD,VINEYARD,84058,8016108122,http://www.alpine.k12.ut.us/phpApps/genericPage.php?pdid=2008,,,,,,
2279,,,,,,,,,,,,,,,,,,,,
2280,,,,,,,,,,,,,,,,,,,,
2281,4,ALPINE,SUMMIT HIGH,1,730,,Alternative,7,12,1581 W 1000 S,OREM,84058,8016108183,,,,,,,
2281,1117,ALPINE,EAST SHORE ELECTRONIC HIGH,1,790,Online School,Regular Education,9,12,1551 W 1000 S,OREM,84058,8012272440,,,,,,,
2281,1112,ALPINE,POLARIS HIGH SCHOOL,1,782,,Alternative,9,12,1551 W 1000 S,OREM,84058,8016108180,www.polaris.alpineschools.org,,,,,,
2282,,,,,,,,,,,,,,,,,,,,
2283,,,,,,,,,,,,,,,,,,,,
2284,122,ALPINE,UTAH AUTISM ACADEMY AT CLEAR HORIZONS,UT,960,Private School,Special Education,PK,12,1875 S GENEVA RD,OREM,84058,8014370490,utahautismacademy.com,,,,,,
2284,1200,ALPINE,CLEAR HORIZONS,MU,901,Private School,Special Education,K,5,1875 S GENEVA RD,OREM,84058,8014370490,,,,,,,
2285,671,ALPINE,KARL G MAESER PREPARATORY ACADEMY,2E,700,Charter School,Regular Education,7,12,320 W 600 S,LINDON,84042,8012359000,http://www.maeserprep.org,,,,,,
2285,843,ALPINE,ASPEN SCHOOL,1,105,,Regular Education,PK,6,945 W 2000 N,OREM,84057,8016108100,http://aspen.alpinedistrict.org/,,,,,,
2286,,,,,,,,,,,,,,,,,,,,
2287,,,,,,,,,,,,,,,,,,,,
2288,845,ALPINE,BONNEVILLE SCHOOL,1,107,,Regular Education,PK,6,1245 N 800 W,OREM,84057,8016108101,http://bonneville.alpinedistrict.org/,,,,,,
2289,,,,,,,,,,,,,,,,,,,,
2290,,,,,,,,,,,,,,,,,,,,
2291,,,,,,,,,,,,,,,,,,,,
2292,,,,,,,,,,,,,,,,,,,,
2293,887,ALPINE,OREM JR HIGH,1,414,,Regular Education,7,9,765 N 600 W,OREM,84057,8016108142,http://www.alpine.k12.ut.us/phpApps/genericPage.php?pdid=1994,,,,,,
2294,,,,,,,,,,,,,,,,,,,,
2295,715,ALPINE,TELOS ACADEMY,LP,950,Private School,Residential Treatment,8,12,870 W CENTER ST,OREM,84057,8014268800,,,,,,,
2296,867,ALPINE,SUNCREST SCHOOL,1,174,,Regular Education,PK,6,668 W 150 N,OREM,84057,8016108120,,,,,,,
2296,853,ALPINE,GENEVA SCHOOL,1,128,,Regular Education,PK,6,400 N 665 W,OREM,84057,8016108108,http://geneva.alpinedistrict.org/geneva_elem/Welcome.html,,,,,,
2297,,,,,,,,,,,,,,,,,,,,
2298,743,ALPINE,CASCADE MOUNTAIN HIGH,LY,951,Private School,Residential Treatment,7,12,1790 N STATE ST,OREM,84057,8012248255,www.centerforchange.com,,,,,,
2299,770,ALPINE,CANYON SCHOOL FOR THE ARTS,ND,901,Private School,Special Education,K,8,1897 N 135 W,OREM,84057,8012255065,,,,,,,
2299,862,ALPINE,NORTHRIDGE SCHOOL,1,155,,Regular Education,PK,6,1660 N 50 E,OREM,84057,8016108114,http://nridge.net/,,,,,,
2300,,,,,,,,,,,,,,,,,,,,
2301,,,,,,,,,,,,,,,,,,,,
2302,879,ALPINE,WINDSOR SCHOOL,1,182,,Regular Education,PK,6,1315 N MAIN ST,OREM,84057,8016108124,http://www.alpine.k12.ut.us/phpApps/genericPage.php?pdid=632,,,,,,
2303,894,ALPINE,TIMPANOGOS HIGH,1,718,,Regular Education,10,12,1450 N 200 E,OREM,84057,8016108175,http://timpanogos.alpinedistrict.org/,,,,,,
2304,,,,,,,,,,,,,,,,,,,,
2305,,,,,,,,,,,,,,,,,,,,
2306,,,,,,,,,,,,,,,,,,,,
2307,872,ALPINE,CANYON VIEW JR HIGH,1,405,,Regular Education,7,9,625 E 950 N,OREM,84097,8016108130,http://cvjh.alpinedistrict.org/,,,,,,
2307,858,ALPINE,ORCHARD SCHOOL,1,151,,Regular Education,PK,6,1035 N 800 E,OREM,84097,8016108115,http://orchard.alpinedistrict.org/,,,,,,
2308,682,ALPINE,FOOTHILL SCHOOL,1,123,,Regular Education,PK,6,921 N 1240 E,OREM,84097,8016108107,http://www.alpine.k12.ut.us/phpApps/genericPage.php?pdid=1563,,,,,,
2309,,,,,,,,,,,,,,,,,,,,
2310,861,ALPINE,SHARON SCHOOL,1,168,,Regular Education,PK,6,525 N 400 E,OREM,84097,8016108119,http://sharon.alpinedistrict.org/,,,,,,
2311,,,,,,,,,,,,,,,,,,,,
2312,,,,,,,,,,,,,,,,,,,,
2313,594,ALPINE,PROVO CANYON SCHOOL,KP,970,Private School,Residential Treatment,7,12,1350 E 750 N,OREM,84097,8012272100,,,,,,,
2314,,,,,,,,,,,,,,,,,,,,
2315,,,,,,,,,,,,,,,,,,,,
2316,,,,,,,,,,,,,,,,,,,,
2317,846,ALPINE,CASCADE SCHOOL,1,108,,Regular Education,PK,6,160 N 800 E,OREM,84097,8016108102,http://cascade.alpinedistrict.org/Cascade_Website/Cascade_Home.html,,,,,,
2318,,,,,,,,,,,,,,,,,,,,
2319,884,ALPINE,MOUNTAIN VIEW HIGH,1,711,,Regular Education,10,12,665 W CENTER ST,OREM,84057,8016108160,http://mountainview.alpinedistrict.org/index.html,,,,,,
2319,868,ALPINE,OREM SCHOOL,1,157,,Regular Education,PK,6,450 W 400 S,OREM,84058,8016108116,http://oremelem.alpinedistrict.org/,,,,,,
2320,,,,,,,,,,,,,,,,,,,,
2321,,,,,,,,,,,,,,,,,,,,
2322,780,ALPINE,UTAH COUNTY ACADEMY OF SCIENCE (UCAS),1B,700,Charter School,Regular Education,10,12,940 W 800 S,OREM,84058,8018632222,http://www.ucas.k12.ut.us,,,,,,
2323,,,,,,,,,,,,,,,,,,,,
2324,,,,,,,,,,,,,,,,,,,,
2325,,,,,,,,,,,,,,,,,,,,
2326,625,ALPINE,UTAH VALLEY UNIVERSITY,1 15 21 22 28 32,50,Regional Campus,Higher Education,9,12,800 W UNIVERSITY PKWY,OREM,84058,8012228000,,19566.19,20364.81,"39,931",0.49,0.51,https://nces.ed.gov/collegenavigator/?q=UTAH+VALLEY+UNIVERSITY&s=all&id=230737
2327,878,ALPINE,WESTMORE SCHOOL,1,178,,Regular Education,PK,6,1150 S MAIN ST,OREM,84058,8016108123,,,,,,,
2327,873,ALPINE,LAKERIDGE JR HIGH,1,406,,Regular Education,7,9,951 S 400 W,OREM,84058,8016108134,http://lakeridge.alpinedistrict.org/,,,,,,
2328,,,,,,,,,,,,,,,,,,,,
2329,,,,,,,,,,,,,,,,,,,,
2330,,,,,,,,,,,,,,,,,,,,
2331,,,,,,,,,,,,,,,,,,,,
2332,12,ALPINE,ARCHES ACADEMY,JS,916,Private School,Regular Education,K,8,280 SOUTH 400 EAST,OREM,84097,8013745480,,,,,,,
2332,799,ALPINE,NOAH WEBSTER ACADEMY,6D,100,Charter School,Regular Education,K,6,205 E 400 S,OREM,84058,8014266624,http://www.noahwebsteracademy.org,,,,,,
2333,885,ALPINE,OREM HIGH,1,712,,Regular Education,10,12,175 S 400 E,OREM,84097,8016108165,http://oremhighschool.com/,,,,,,
2334,,,,,,,,,,,,,,,,,,,,
2335,869,ALPINE,SCERA PARK SCHOOL,1,158,,Regular Education,PK,6,450 S 400 E,OREM,84097,8016108118,http://www.alpine.k12.ut.us/phpApps/genericPage.php?pdid=905,,,,,,
2335,789,ALPINE,SOUTH REGION DEAF,41,321,,Special Education,K,12,424 S 350 E,OREM,84058,8012246590,,,,,,,
2336,,,,,,,,,,,,,,,,,,,,
2337,,,,,,,,,,,,,,,,,,,,
2338,,,,,,,,,,,,,,,,,,,,
2339,689,ALPINE,SYLVAN LEARNING CENTER - OREM,FS,809,Private School,Supplemental Services,K,12,1062 S 750 E,OREM,84097,8012351800,,,,,,,
2340,,,,,,,,,,,,,,,,,,,,
2341,,,,,,,,,,,,,,,,,,,,
2342,,,,,,,,,,,,,,,,,,,,
2343,,,,,,,,,,,,,,,,,,,,
2344,5,ALPINE,ALTA INDEPENDENT,AL,955,Private School,Regular Education,6,12,575 E UNIVERSITY PARKWAY SUITE E212,OREM,84097,8884239192,www.altaindependent.com,,,,,,
2345,,,,,,,,,,,,,,,,,,,,
2346,,,,,,,,,,,,,,,,,,,,
2347,,,,,,,,,,,,,,,,,,,,
2348,800,ALPINE,CHERRY HILL GT PROGRAM,1,135,,Regular Education,5,6,250 E 1650 S,OREM,84058,8012278710,,,,,,,
2348,1190,ALPINE,CHERRY HILL SCHOOL,1,118,,Regular Education,PK,6,250 E 1650 S,OREM,84097,8016108105,,,,,,,
2349,,,,,,,,,,,,,,,,,,,,
2350,865,ALPINE,HILLCREST SCHOOL,1,144,,Regular Education,PK,6,651 E 1400 S,OREM,84097,8016108110,http://hillcrest.alpinedistrict.org/,,,,,,
2351,1165,ALPINE,UTAH STATE UNIVERSITY OREM CAMPUS,,,Regional Campus,Higher Education,,,1875 S STATE ST #1010,OREM,84097,8012269045,,83,192,275,0.301818182,0.698181818,https://www.usu.edu/aaa/enrollment.cfm
2352,593,PROVO CITY,HERITAGE SCHOOLS INC.,KI,663,Private School,Residential Treatment,7,12,5600 N HERITAGE SCHOOL DR,PROVO,84604,8012264621,,,,,,,
2353,,,,,,,,,,,,,,,,,,,,
2354,,,,,,,,,,,,,,,,,,,,
2355,,,,,,,,,,,,,,,,,,,,
2356,651,PROVO CITY,CANYON CREST SCHOOL,38,101,,Regular Education,K,6,4664 N CANYON RD,PROVO,84604,8012219873,http://www.canyoncrest.provo.edu/Site_Home/home.htm,,,,,,
2357,,,,,,,,,,,,,,,,,,,,
2358,,,,,,,,,,,,,,,,,,,,
2359,,,,,,,,,,,,,,,,,,,,
2360,643,PROVO CITY,WALDEN SCHOOL OF LIBERAL ARTS,81,300,Charter School,Regular Education,K,12,4230 N UNIVERSITY AVE,PROVO,84604,8013741545,http://waldenschool.us,,,,,,
2361,,,,,,,,,,,,,,,,,,,,
2362,,,,,,,,,,,,,,,,,,,,
2363,,,,,,,,,,,,,,,,,,,,
2364,,,,,,,,,,,,,,,,,,,,
2365,475,PROVO CITY,EDGEMONT SCHOOL,38,102,,Regular Education,K,6,560 E 3650 N,PROVO,84604,8012219984,http://www.edgemont.provo.edu/Site_Home/home.htm,,,,,,
2366,502,PROVO CITY,TIMPVIEW HIGH,38,712,,Regular Education,9,12,3570 N 650 E,PROVO,84604,8012219720,http://www.timpview.provo.edu/,,,,,,
2367,497,PROVO CITY,ROCK CANYON SCHOOL,38,122,,Regular Education,K,6,435 E 2320 N,PROVO,84604,8013744935,http://www.rockcanyon.provo.edu/Site_Home/home.htm,,,,,,
2367,476,PROVO CITY,CENTENNIAL MIDDLE,38,404,,Regular Education,7,8,305 E 2320 N,PROVO,84604,8013704621,http://www.cms.provo.edu/,,,,,,
2368,,,,,,,,,,,,,,,,,,,,
2369,,,,,,,,,,,,,,,,,,,,
2370,,,,,,,,,,,,,,,,,,,,
2371,,,,,,,,,,,,,,,,,,,,
2372,,,,,,,,,,,,,,,,,,,,
2373,,,,,,,,,,,,,,,,,,,,
2374,,,,,,,,,,,,,,,,,,,,
2375,,,,,,,,,,,,,,,,,,,,
2376,,,,,,,,,,,,,,,,,,,,
2377,,,,,,,,,,,,,,,,,,,,
2378,,,,,,,,,,,,,,,,,,,,
2379,,,,,,,,,,,,,,,,,,,,
2380,,,,,,,,,,,,,,,,,,,,
2381,,,,,,,,,,,,,,,,,,,,
2382,,,,,,,,,,,,,,,,,,,,
2383,,,,,,,,,,,,,,,,,,,,
2384,629,PROVO CITY,BRIGHAM YOUNG UNIVERSITY,1,51,Residential Campus,Higher Education,9,12,155 E BULLDOG BLVD,PROVO,84602,,http://home.byu.edu/home/,32774.05,1724.95,"34,499",0.95,0.05,https://nces.ed.gov/collegenavigator/?q=BRIGHAM+YOUNG+UNIVERSITY&s=all&id=230038#enrolmt
2385,500,PROVO CITY,WASATCH SCHOOL,38,132,,Regular Education,K,6,1080 N 900 E,PROVO,84604,8013744910,http://www.wasatch.provo.edu/Site_Home/home.htm,,,,,,
2386,,,,,,,,,,,,,,,,,,,,
2387,,,,,,,,,,,,,,,,,,,,
2388,,,,,,,,,,,,,,,,,,,,
2389,,,,,,,,,,,,,,,,,,,,
2390,,,,,,,,,,,,,,,,,,,,
2391,,,,,,,,,,,,,,,,,,,,
2392,,,,,,,,,,,,,,,,,,,,
2393,,,,,,,,,,,,,,,,,,,,
2394,,,,,,,,,,,,,,,,,,,,
2395,,,,,,,,,,,,,,,,,,,,
2396,,,,,,,,,,,,,,,,,,,,
2397,,,,,,,,,,,,,,,,,,,,
2398,653,PROVO CITY,PROVO PEAKS SCHOOL,38,103,,Regular Education,K,6,665 E CENTER ST,PROVO,84606,8013744940,,,,,,,
2398,1089,PROVO CITY,SUNRISE PRESCHOOL,38,641,,Special Education,PK,,87 N 700 E,PROVO,84606,8013744915,,,,,,,
2399,,,,,,,,,,,,,,,,,,,,
2400,501,PROVO CITY,OAK SPRINGS SCHOOL,38,560,,Special Education,K,12,1300 E CENTER ST,PROVO,84601,8013744858,,,,,,,
2401,910,PROVO CITY,WESTRIDGE SCHOOL,38,134,,Regular Education,K,6,1720 W 1460 N,PROVO,84604,8013744870,http://www.westridge.provo.edu/Site_Home/home.htm,,,,,,
2402,,,,,,,,,,,,,,,,,,,,
2403,,,,,,,,,,,,,,,,,,,,
2404,,,,,,,,,,,,,,,,,,,,
2405,47,PROVO CITY,FREEDOM PREPARATORY ACADEMY,82,100,Charter School,Regular Education,K,12,1190 W 900 N,PROVO,84604,8014373100,http://www.pfa.cc,,,,,,
2406,,,,,,,,,,,,,,,,,,,,
2407,90,PROVO CITY,ESCHOOL@PROVO SCHOOL DISTRICT,38,510,Online School,Regular Education,K,12,280 W 940 N,PROVO,84604,8013744814,http://eschool.provo.edu/,,,,,,
2408,912,PROVO CITY,PROVO HIGH,38,704,,Regular Education,7,12,1125 N UNIVERSITY AVE,PROVO,84604,8013736550,http://www.phs.provo.edu/,,,,,,
2409,503,PROVO CITY,INDEPENDENCE HIGH,38,730,,Alternative,5,12,636 N INDEPENDENCE AVE,PROVO,84601,8013744920,http://www.ihs.provo.edu/,,,,,,
2409,1222,PROVO CITY,PROVO ADULT EDUCATION,38,740,,Adult High,9,12,636 N INDEPENDENCE AVE,PROVO,84601,8013744840,http://www.chss.provo.edu/,,,,,,
2410,,,,,,,,,,,,,,,,,,,,
2411,,,,,,,,,,,,,,,,,,,,
2412,,,,,,,,,,,,,,,,,,,,
2413,,,,,,,,,,,,,,,,,,,,
2414,,,,,,,,,,,,,,,,,,,,
2415,,,,,,,,,,,,,,,,,,,,
2416,478,PROVO CITY,DIXON MIDDLE,38,408,,Regular Education,7,8,750 W 200 N,PROVO,84601,8013744980,http://www.dms.provo.edu/,,,,,,
2416,499,PROVO CITY,TIMPANOGOS SCHOOL,38,128,,Regular Education,K,6,449 N 500 W,PROVO,84601,8013744955,http://www.timpanogos.provo.edu/Site_Home/home.htm,,,,,,
2417,,,,,,,,,,,,,,,,,,,,
2418,,,,,,,,,,,,,,,,,,,,
2419,592,PROVO CITY,DISCOVERY ACADEMY,KF,662,Private School,Residential Treatment,7,12,105 N 500 W,PROVO,84601,8013742121,www.discoveryacademy.com,,,,,,
2420,,,,,,,,,,,,,,,,,,,,
2421,,,,,,,,,,,,,,,,,,,,
2422,,,,,,,,,,,,,,,,,,,,
2423,,,,,,,,,,,,,,,,,,,,
2424,,,,,,,,,,,,,,,,,,,,
2425,,,,,,,,,,,,,,,,,,,,
2426,769,PROVO CITY,LAKEVIEW SCHOOL,38,118,,Regular Education,K,6,2899 W 1390 N,PROVO,84601,8013744990,http://www.lakeview.provo.edu/Site_Home/home.htm,,,,,,
2427,,,,,,,,,,,,,,,,,,,,
2428,,,,,,,,,,,,,,,,,,,,
2429,,,,,,,,,,,,,,,,,,,,
2430,,,,,,,,,,,,,,,,,,,,
2431,,,,,,,,,,,,,,,,,,,,
2432,,,,,,,,,,,,,,,,,,,,
2433,,,,,,,,,,,,,,,,,,,,
2434,473,PROVO CITY,AMELIA EARHART SCHOOL,38,100,,Regular Education,K,6,2585 W 200 S,PROVO,84601,8013704630,http://www.amelia.provo.edu/Site_pdf/info.pdf,,,,,,
2435,,,,,,,,,,,,,,,,,,,,
2436,,,,,,,,,,,,,,,,,,,,
2437,498,PROVO CITY,SUNSET VIEW SCHOOL,38,124,,Regular Education,K,6,1520 W 600 S,PROVO,84601,8013744950,http://www.sunset.provo.edu/Site_Home/home.htm,,,,,,
2438,,,,,,,,,,,,,,,,,,,,
2439,,,,,,,,,,,,,,,,,,,,
2440,,,,,,,,,,,,,,,,,,,,
2441,,,,,,,,,,,,,,,,,,,,
2442,,,,,,,,,,,,,,,,,,,,
2443,,,,,,,,,,,,,,,,,,,,
2444,,,,,,,,,,,,,,,,,,,,
2445,,,,,,,,,,,,,,,,,,,,
2446,,,,,,,,,,,,,,,,,,,,
2447,,,,,,,,,,,,,,,,,,,,
2448,,,,,,,,,,,,,,,,,,,,
2449,,,,,,,,,,,,,,,,,,,,
2450,,,,,,,,,,,,,,,,,,,,
2451,472,PROVO CITY,FRANKLIN SCHOOL,38,104,,Regular Education,K,6,350 S 600 W,PROVO,84601,8013744925,http://www.franklin.provo.edu/Site_Home/home.htm,,,,,,
2452,,,,,,,,,,,,,,,,,,,,
2453,,,,,,,,,,,,,,,,,,,,
2454,,,,,,,,,,,,,,,,,,,,
2455,,,,,,,,,,,,,,,,,,,,
2456,,,,,,,,,,,,,,,,,,,,
2457,,,,,,,,,,,,,,,,,,,,
2458,,,,,,,,,,,,,,,,,,,,
2459,,,,,,,,,,,,,,,,,,,,
2460,,,,,,,,,,,,,,,,,,,,
2461,,,,,,,,,,,,,,,,,,,,
2462,,,,,,,,,,,,,,,,,,,,
2463,,,,,,,,,,,,,,,,,,,,
2464,,,,,,,,,,,,,,,,,,,,
2465,,,,,,,,,,,,,,,,,,,,
2466,,,,,,,,,,,,,,,,,,,,
2467,477,PROVO CITY,PROVOST SCHOOL,38,120,,Regular Education,K,6,629 S 1000 E,PROVO,84606,8013744960,http://www.provost.provo.edu/Site_Home/home.htm,,,,,,
2468,,,,,,,,,,,,,,,,,,,,
2469,,,,,,,,,,,,,,,,,,,,
2470,,,,,,,,,,,,,,,,,,,,
2471,,,,,,,,,,,,,,,,,,,,
2472,,,,,,,,,,,,,,,,,,,,
2473,,,,,,,,,,,,,,,,,,,,
2474,,,,,,,,,,,,,,,,,,,,
2475,,,,,,,,,,,,,,,,,,,,
2476,,,,,,,,,,,,,,,,,,,,
2477,,,,,,,,,,,,,,,,,,,,
2478,,,,,,,,,,,,,,,,,,,,
2479,,,,,,,,,,,,,,,,,,,,
2480,,,,,,,,,,,,,,,,,,,,
2481,,,,,,,,,,,,,,,,,,,,
2482,669,PROVO CITY,SPRING CREEK SCHOOL,38,123,,Regular Education,K,6,1740 S NEVADA AVE,PROVO,84606,8013704650,http://www.springcreek.provo.edu/Site_Home/home.htm,,,,,,
2483,,,,,,,,,,,,,,,,,,,,
2484,,,,,,,,,,,,,,,,,,,,
2485,,,,,,,,,,,,,,,,,,,,
2486,,,,,,,,,,,,,,,,,,,,
2487,,,,,,,,,,,,,,,,,,,,
2488,,,,,,,,,,,,,,,,,,,,
2489,,,,,,,,,,,,,,,,,,,,
2490,,,,,,,,,,,,,,,,,,,,
2491,,,,,,,,,,,,,,,,,,,,
2492,,,,,,,,,,,,,,,,,,,,
2493,812,NEBO,MERIT COLLEGE PREPARATORY ACADEMY,8E,700,Charter School,Regular Education,7,12,1440 W CENTER ST,SPRINGVILLE,84663,8014917600,http://www.meritacademy.org,,,,,,
2493,1216,NEBO,MERIDIAN SCHOOL,SM,951,Private School,Regular Education,7,12,1440 W CENTER ST,SPRINGVILLE,84663,8019006017,meridianschool.org,,,,,,
2494,293,NEBO,WESTSIDE SCHOOL,19,180,,Regular Education,PK,7,740 W CENTER ST,SPRINGVILLE,84663,8014892800,http://www.nebo.edu/westside/Index.html,,,,,,
2495,,,,,,,,,,,,,,,,,,,,
2496,630,NEBO,REAGAN ACADEMY,7B,100,Charter School,Regular Education,K,8,1143 W CENTER ST,SPRINGVILLE,84663,8014897828,http://www.reaganacademy.org/,,,,,,
2497,,,,,,,,,,,,,,,,,,,,
2498,,,,,,,,,,,,,,,,,,,,
2499,,,,,,,,,,,,,,,,,,,,
2500,,,,,,,,,,,,,,,,,,,,
2501,,,,,,,,,,,,,,,,,,,,
2502,,,,,,,,,,,,,,,,,,,,
2503,,,,,,,,,,,,,,,,,,,,
2504,,,,,,,,,,,,,,,,,,,,
2505,,,,,,,,,,,,,,,,,,,,
2506,937,NEBO,ART CITY SCHOOL,19,100,,Regular Education,PK,6,121 N 900 E,SPRINGVILLE,84663,8014892820,http://artcity.nebo.edu/,,,,,,
2507,,,,,,,,,,,,,,,,,,,,
2508,,,,,,,,,,,,,,,,,,,,
2509,,,,,,,,,,,,,,,,,,,,
2510,303,NEBO,SPRINGVILLE JR HIGH,19,424,,Regular Education,7,9,165 S 700 E,SPRINGVILLE,84663,8014892880,http://www.nebo.edu/sjhs/index.html,,,,,,
2510,1080,NEBO,BRIDGES NEBO TRANSITION CENTER,19,650,,Special Education,10,12,165 S 700 E,SPRINGVILLE,84663,8017984006,,,,,,,
2511,,,,,,,,,,,,,,,,,,,,
2512,,,,,,,,,,,,,,,,,,,,
2513,,,,,,,,,,,,,,,,,,,,
2514,76,NEBO,MEADOW BROOK SCHOOL,19,141,,Regular Education,K,6,748 S 950 W,SPRINGVILLE,84663,,www.Nebo.edu,,,,,,
2515,,,,,,,,,,,,,,,,,,,,
2516,,,,,,,,,,,,,,,,,,,,
2517,,,,,,,,,,,,,,,,,,,,
2518,,,,,,,,,,,,,,,,,,,,
2519,,,,,,,,,,,,,,,,,,,,
2520,,,,,,,,,,,,,,,,,,,,
2521,,,,,,,,,,,,,,,,,,,,
2522,,,,,,,,,,,,,,,,,,,,
2523,,,,,,,,,,,,,,,,,,,,
2524,,,,,,,,,,,,,,,,,,,,
2525,1081,NEBO,NEBO ADVANCED LEARNING CENTER,19,747,,Vocational,10,12,570 S MAIN ST,SPRINGVILLE,84663,8014892833,,,,,,,
2526,791,NEBO,CHERRY CREEK SCHOOL,19,117,,Regular Education,PK,6,484 S 200 E,SPRINGVILLE,84663,8014892810,http://cherrycreek.nebo.edu/,,,,,,
2527,286,NEBO,BROOKSIDE SCHOOL,19,112,,Regular Education,PK,7,750 E 400 S,SPRINGVILLE,84663,8014892830,http://www.nebo.edu/brookside/,,,,,,
2528,309,NEBO,SPRINGVILLE HIGH,19,712,,Regular Education,10,12,1205 E 900 S,SPRINGVILLE,84663,8014892870,http://www.shs.nebo.edu/,,,,,,
2529,,,,,,,,,,,,,,,,,,,,
2530,,,,,,,,,,,,,,,,,,,,
2531,,,,,,,,,,,,,,,,,,,,
2532,386,NEBO,SAGE CREEK SCHOOL,19,160,,Regular Education,PK,6,1050 S 700 E,SPRINGVILLE,84663,8014892860,http://sagecreek.nebo.edu/,,,,,,
2533,,,,,,,,,,,,,,,,,,,,
2534,,,,,,,,,,,,,,,,,,,,
2535,,,,,,,,,,,,,,,,,,,,
2536,,,,,,,,,,,,,,,,,,,,
2537,,,,,,,,,,,,,,,,,,,,
2538,,,,,,,,,,,,,,,,,,,,
2539,522,NEBO,HOBBLE CREEK SCHOOL,19,130,,Regular Education,PK,6,1145 E 1200 N,MAPLETON,84664,8014892863,http://hobblecreek.nebo.edu/,,,,,,
2540,,,,,,,,,,,,,,,,,,,,
2541,,,,,,,,,,,,,,,,,,,,
2542,,,,,,,,,,,,,,,,,,,,
2543,371,NEBO,MAPLETON SCHOOL,19,140,,Regular Education,PK,7,120 W MAPLE,MAPLETON,84664,8014892850,http://www.nebo.edu/mapleton/index.html,,,,,,
2544,797,NEBO,MAPLETON JUNIOR HIGH,19,404,,Regular Education,7,9,362 E 1200 N,MAPLETON,84664,8014892892,http://mjhs.nebo.edu/,,,,,,
2545,,,,,,,,,,,,,,,,,,,,
2546,,,,,,,,,,,,,,,,,,,,
2547,75,NEBO,MAPLE RIDGE SCHOOL,19,138,,Regular Education,K,6,2340 WEST HARVEST PARKWAY,MAPLETON,84664,8013547400,,,,,,,
2548,,,,,,,,,,,,,,,,,,,,
2549,,,,,,,,,,,,,,,,,,,,
2550,,,,,,,,,,,,,,,,,,,,
2551,,,,,,,,,,,,,,,,,,,,
2552,,,,,,,,,,,,,,,,,,,,
2553,,,,,,,,,,,,,,,,,,,,
2554,,,,,,,,,,,,,,,,,,,,
2555,,,,,,,,,,,,,,,,,,,,
2556,,,,,,,,,,,,,,,,,,,,
2557,,,,,,,,,,,,,,,,,,,,
2558,,,,,,,,,,,,,,,,,,,,
2559,,,,,,,,,,,,,,,,,,,,
2560,,,,,,,,,,,,,,,,,,,,
2561,,,,,,,,,,,,,,,,,,,,
2562,,,,,,,,,,,,,,,,,,,,
2563,,,,,,,,,,,,,,,,,,,,
2564,381,NEBO,REES SCHOOL,19,156,,Regular Education,PK,6,574 N REES AVE,SPANISH FORK,84660,8017984055,http://www.nebo.edu/rees/index.html,,,,,,
2565,,,,,,,,,,,,,,,,,,,,
2566,798,NEBO,SIERRA BONITA ELEMENTARY,19,169,,Regular Education,PK,10,53 S 1800 E,SPANISH FORK,84660,8017984480,,,,,,,
2567,700,NEBO,MAPLE MOUNTAIN HIGH,19,702,,Regular Education,10,12,51 N 2550 E,SPANISH FORK,84660,8017946740,http://mmhs.nebo.edu/,,,,,,
2568,,,,,,,,,,,,,,,,,,,,
2569,,,,,,,,,,,,,,,,,,,,
2570,,,,,,,,,,,,,,,,,,,,
2571,496,NEBO,NEW HAVEN,KN,664,Private School,Residential Treatment,7,12,2172 E 7200 S,SPANISH FORK,84660,8017941218,,,,,,,
2572,,,,,,,,,,,,,,,,,,,,
2573,,,,,,,,,,,,,,,,,,,,
2574,,,,,,,,,,,,,,,,,,,,
2575,,,,,,,,,,,,,,,,,,,,
2576,,,,,,,,,,,,,,,,,,,,
2577,,,,,,,,,,,,,,,,,,,,
2578,,,,,,,,,,,,,,,,,,,,
2579,658,NEBO,SPANISH OAKS SCHOOL,19,170,,Regular Education,PK,6,2701 E CANYON CREST DR,SPANISH FORK,84660,8017987411,http://www.nebo.edu/spanishoaks/index.html,,,,,,
2580,370,NEBO,LARSEN SCHOOL,19,136,,Regular Education,PK,6,1175 E FLONETTE DR,SPANISH FORK,84660,8017984035,http://www.nebo.edu/larsen/index.html,,,,,,
2581,,,,,,,,,,,,,,,,,,,,
2582,,,,,,,,,,,,,,,,,,,,
2583,793,NEBO,EAST MEADOWS SCHOOL,19,118,,Regular Education,PK,6,1287 S 2130 E,SPANISH FORK,84660,8017984015,http://eastmeadows.nebo.edu/,,,,,,
2584,287,NEBO,CANYON SCHOOL,19,116,,Regular Education,PK,6,1492 E 1240 S,SPANISH FORK,84660,8017984610,http://canyon.nebo.edu/,,,,,,
2585,,,,,,,,,,,,,,,,,,,,
2586,,,,,,,,,,,,,,,,,,,,
2587,,,,,,,,,,,,,,,,,,,,
2588,,,,,,,,,,,,,,,,,,,,
2589,,,,,,,,,,,,,,,,,,,,
2590,,,,,,,,,,,,,,,,,,,,
2591,,,,,,,,,,,,,,,,,,,,
2592,,,,,,,,,,,,,,,,,,,,
2593,,,,,,,,,,,,,,,,,,,,
2594,,,,,,,,,,,,,,,,,,,,
2595,,,,,,,,,,,,,,,,,,,,
2596,,,,,,,,,,,,,,,,,,,,
2597,,,,,,,,,,,,,,,,,,,,
2598,,,,,,,,,,,,,,,,,,,,
2599,379,NEBO,PARK SCHOOL,19,144,,Regular Education,PK,6,90 N 600 E,SPANISH FORK,84660,8017984045,http://www.nebo.edu/park/index.html,,,,,,
2600,655,NEBO,DIAMOND FORK JUNIOR HIGH,19,402,,Regular Education,7,9,50 N 900 E,SPANISH FORK,84660,8017984052,http://www.nebo.edu/dfjhs/,,,,,,
2601,,,,,,,,,,,,,,,,,,,,
2602,,,,,,,,,,,,,,,,,,,,
2603,,,,,,,,,,,,,,,,,,,,
2604,302,NEBO,SPANISH FORK JR HIGH,19,420,,Regular Education,7,10,600 S 820 E,SPANISH FORK,84660,8017984075,http://sfjhs.nebo.edu/,,,,,,
2605,,,,,,,,,,,,,,,,,,,,
2606,,,,,,,,,,,,,,,,,,,,
2607,283,NEBO,BROCKBANK SCHOOL,19,108,,Regular Education,PK,6,340 W 500 N,SPANISH FORK,84660,8017984025,http://www.nebo.edu/brockbank/pages/index.html,,,,,,
2608,,,,,,,,,,,,,,,,,,,,
2609,,,,,,,,,,,,,,,,,,,,
2610,307,NEBO,SPANISH FORK HIGH,19,708,,Regular Education,10,12,99 N 300 W,SPANISH FORK,84660,8017984060,http://www.nebo.edu/sfhs/,,,,,,
2611,,,,,,,,,,,,,,,,,,,,
2612,,,,,,,,,,,,,,,,,,,,
2613,635,NEBO,RIVERVIEW SCHOOL,19,158,,Regular Education,PK,6,628 S W PARK DR,SPANISH FORK,84660,8017984050,http://riverview.nebo.edu/,,,,,,
2614,,,,,,,,,,,,,,,,,,,,
2615,,,,,,,,,,,,,,,,,,,,
2616,,,,,,,,,,,,,,,,,,,,
2617,943,NEBO,LANDMARK HIGH,19,720,,Alternative,10,12,612 S MAIN ST,SPANISH FORK,84660,8017984030,http://www.nebo.edu/landmark/index.html,,,,,,
2618,,,,,,,,,,,,,,,,,,,,
2619,,,,,,,,,,,,,,,,,,,,
2620,632,NEBO,AMERICAN LEADERSHIP ACADEMY,8B,100,Charter School,Regular Education,K,12,898 W 1100 S,SPANISH FORK,84660,8017942226,http://www.americanleadership.net,,,,,,
2621,,,,,,,,,,,,,,,,,,,,
2622,,,,,,,,,,,,,,,,,,,,
2623,,,,,,,,,,,,,,,,,,,,
2624,,,,,,,,,,,,,,,,,,,,
2625,,,,,,,,,,,,,,,,,,,,
2626,,,,,,,,,,,,,,,,,,,,
2627,,,,,,,,,,,,,,,,,,,,
2628,,,,,,,,,,,,,,,,,,,,
2629,,,,,,,,,,,,,,,,,,,,
2630,,,,,,,,,,,,,,,,,,,,
2631,,,,,,,,,,,,,,,,,,,,
2632,,,,,,,,,,,,,,,,,,,,
2633,,,,,,,,,,,,,,,,,,,,
2634,,,,,,,,,,,,,,,,,,,,
2635,,,,,,,,,,,,,,,,,,,,
2636,,,,,,,,,,,,,,,,,,,,
2637,,,,,,,,,,,,,,,,,,,,
2638,,,,,,,,,,,,,,,,,,,,
2639,,,,,,,,,,,,,,,,,,,,
2640,,,,,,,,,,,,,,,,,,,,
2641,,,,,,,,,,,,,,,,,,,,
2642,,,,,,,,,,,,,,,,,,,,
2643,,,,,,,,,,,,,,,,,,,,
2644,,,,,,,,,,,,,,,,,,,,
2645,,,,,,,,,,,,,,,,,,,,
2646,,,,,,,,,,,,,,,,,,,,
2647,,,,,,,,,,,,,,,,,,,,
2648,,,,,,,,,,,,,,,,,,,,
2649,,,,,,,,,,,,,,,,,,,,
2650,,,,,,,,,,,,,,,,,,,,
2651,,,,,,,,,,,,,,,,,,,,
2652,,,,,,,,,,,,,,,,,,,,
2653,,,,,,,,,,,,,,,,,,,,
2654,,,,,,,,,,,,,,,,,,,,
2655,,,,,,,,,,,,,,,,,,,,
2656,,,,,,,,,,,,,,,,,,,,
2657,,,,,,,,,,,,,,,,,,,,
2658,,,,,,,,,,,,,,,,,,,,
2659,,,,,,,,,,,,,,,,,,,,
2660,,,,,,,,,,,,,,,,,,,,
2661,,,,,,,,,,,,,,,,,,,,
2662,,,,,,,,,,,,,,,,,,,,
2663,,,,,,,,,,,,,,,,,,,,
2664,,,,,,,,,,,,,,,,,,,,
2665,,,,,,,,,,,,,,,,,,,,
2666,,,,,,,,,,,,,,,,,,,,
2667,,,,,,,,,,,,,,,,,,,,
2668,,,,,,,,,,,,,,,,,,,,
2669,,,,,,,,,,,,,,,,,,,,
2670,,,,,,,,,,,,,,,,,,,,
2671,829,NEBO,MAPLE LAKE ACADEMY,NT,951,Private School,Residential Treatment,7,12,6155 S 2400 W,SPANISH FORK,84660,8017987700,,,,,,,
2672,,,,,,,,,,,,,,,,,,,,
2673,,,,,,,,,,,,,,,,,,,,
2674,,,,,,,,,,,,,,,,,,,,
2675,,,,,,,,,,,,,,,,,,,,
2676,,,,,,,,,,,,,,,,,,,,
2677,,,,,,,,,,,,,,,,,,,,
2678,,,,,,,,,,,,,,,,,,,,
2679,,,,,,,,,,,,,,,,,,,,
2680,,,,,,,,,,,,,,,,,,,,
2681,,,,,,,,,,,,,,,,,,,,
2682,,,,,,,,,,,,,,,,,,,,
2683,,,,,,,,,,,,,,,,,,,,
2684,,,,,,,,,,,,,,,,,,,,
2685,,,,,,,,,,,,,,,,,,,,
2686,,,,,,,,,,,,,,,,,,,,
2687,,,,,,,,,,,,,,,,,,,,
2688,,,,,,,,,,,,,,,,,,,,
2689,,,,,,,,,,,,,,,,,,,,
2690,,,,,,,,,,,,,,,,,,,,
2691,,,,,,,,,,,,,,,,,,,,
2692,,,,,,,,,,,,,,,,,,,,
2693,,,,,,,,,,,,,,,,,,,,
2694,,,,,,,,,,,,,,,,,,,,
2695,,,,,,,,,,,,,,,,,,,,
2696,,,,,,,,,,,,,,,,,,,,
2697,,,,,,,,,,,,,,,,,,,,
2698,,,,,,,,,,,,,,,,,,,,
2699,,,,,,,,,,,,,,,,,,,,
2700,,,,,,,,,,,,,,,,,,,,
2701,,,,,,,,,,,,,,,,,,,,
2702,,,,,,,,,,,,,,,,,,,,
2703,,,,,,,,,,,,,,,,,,,,
2704,,,,,,,,,,,,,,,,,,,,
2705,,,,,,,,,,,,,,,,,,,,
2706,,,,,,,,,,,,,,,,,,,,
2707,,,,,,,,,,,,,,,,,,,,
2708,,,,,,,,,,,,,,,,,,,,
2709,,,,,,,,,,,,,,,,,,,,
2710,,,,,,,,,,,,,,,,,,,,
2711,,,,,,,,,,,,,,,,,,,,
2712,,,,,,,,,,,,,,,,,,,,
2713,,,,,,,,,,,,,,,,,,,,
2714,,,,,,,,,,,,,,,,,,,,
2715,,,,,,,,,,,,,,,,,,,,
2716,,,,,,,,,,,,,,,,,,,,
2717,,,,,,,,,,,,,,,,,,,,
2718,,,,,,,,,,,,,,,,,,,,
2719,,,,,,,,,,,,,,,,,,,,
2720,,,,,,,,,,,,,,,,,,,,
2721,,,,,,,,,,,,,,,,,,,,
2722,,,,,,,,,,,,,,,,,,,,
2723,,,,,,,,,,,,,,,,,,,,
2724,,,,,,,,,,,,,,,,,,,,
2725,,,,,,,,,,,,,,,,,,,,
2726,,,,,,,,,,,,,,,,,,,,
2727,,,,,,,,,,,,,,,,,,,,
2728,,,,,,,,,,,,,,,,,,,,
2729,,,,,,,,,,,,,,,,,,,,
2730,,,,,,,,,,,,,,,,,,,,
2731,,,,,,,,,,,,,,,,,,,,
2732,1120,NEBO,SALEM JUNIOR HIGH,19,416,,Regular Education,7,9,598 N MAIN ST,SALEM,84653,8014236550,sajhs.nebo.edu,,,,,,
2733,,,,,,,,,,,,,,,,,,,,
2734,,,,,,,,,,,,,,,,,,,,
2735,639,NEBO,SALEM HILLS HIGH,19,706,,Regular Education,10,12,150 N SKYHAWK BLVD,SALEM,84653,8014233200,http://shhs.nebo.edu/,,,,,,
2736,,,,,,,,,,,,,,,,,,,,
2737,,,,,,,,,,,,,,,,,,,,
2738,,,,,,,,,,,,,,,,,,,,
2739,,,,,,,,,,,,,,,,,,,,
2740,,,,,,,,,,,,,,,,,,,,
2741,,,,,,,,,,,,,,,,,,,,
2742,,,,,,,,,,,,,,,,,,,,
2743,,,,,,,,,,,,,,,,,,,,
2744,,,,,,,,,,,,,,,,,,,,
2745,,,,,,,,,,,,,,,,,,,,
2746,,,,,,,,,,,,,,,,,,,,
2747,,,,,,,,,,,,,,,,,,,,
2748,794,NEBO,FOOTHILLS SCHOOL,19,119,,Regular Education,PK,6,412 S 810 E,SALEM,84653,8014239172,http://foothills.nebo.edu/,,,,,,
2749,,,,,,,,,,,,,,,,,,,,
2750,387,NEBO,SALEM SCHOOL,19,164,,Regular Education,PK,6,140 W 100 S,SALEM,84653,8014231182,http://www.nebo.edu/salem/index.html,,,,,,
2751,,,,,,,,,,,,,,,,,,,,
2752,,,,,,,,,,,,,,,,,,,,
2753,,,,,,,,,,,,,,,,,,,,
2754,,,,,,,,,,,,,,,,,,,,
2755,378,NEBO,MT LOAFER SCHOOL,19,142,,Regular Education,PK,6,1025 S 250 W,SALEM,84653,8014232705,http://www.nebo.edu/mtloafer/index.html,,,,,,
2756,10,NEBO,AMERICAN PREPARATORY ACADEMY - SALEM,74,140,,Regular Education,K,10,1195 S ELK RIDGE DRIVE,SALEM,84653,8014654434,salem.americanprep.org,,,,,,
2757,,,,,,,,,,,,,,,,,,,,
2758,,,,,,,,,,,,,,,,,,,,
2759,,,,,,,,,,,,,,,,,,,,
2760,,,,,,,,,,,,,,,,,,,,
2761,,,,,,,,,,,,,,,,,,,,
2762,,,,,,,,,,,,,,,,,,,,
2763,,,,,,,,,,,,,,,,,,,,
2764,,,,,,,,,,,,,,,,,,,,
2765,,,,,,,,,,,,,,,,,,,,
2766,,,,,,,,,,,,,,,,,,,,
2767,,,,,,,,,,,,,,,,,,,,
2768,,,,,,,,,,,,,,,,,,,,
2769,,,,,,,,,,,,,,,,,,,,
2770,,,,,,,,,,,,,,,,,,,,
2771,,,,,,,,,,,,,,,,,,,,
2772,,,,,,,,,,,,,,,,,,,,
2773,,,,,,,,,,,,,,,,,,,,
2774,,,,,,,,,,,,,,,,,,,,
2775,938,NEBO,BARNETT SCHOOL,19,104,,Regular Education,PK,6,456 N 300 E,PAYSON,84651,8014656000,http://www.nebo.edu/barnett/index.html,,,,,,
2776,,,,,,,,,,,,,,,,,,,,
2777,,,,,,,,,,,,,,,,,,,,
2778,,,,,,,,,,,,,,,,,,,,
2779,,,,,,,,,,,,,,,,,,,,
2780,,,,,,,,,,,,,,,,,,,,
2781,,,,,,,,,,,,,,,,,,,,
2782,,,,,,,,,,,,,,,,,,,,
2783,,,,,,,,,,,,,,,,,,,,
2784,,,,,,,,,,,,,,,,,,,,
2785,,,,,,,,,,,,,,,,,,,,
2786,,,,,,,,,,,,,,,,,,,,
2787,,,,,,,,,,,,,,,,,,,,
2788,380,NEBO,PARK VIEW SCHOOL,19,148,,Regular Education,PK,7,360 S 100 E,PAYSON,84651,8014656010,http://parkview.nebo.edu/,,,,,,
2789,306,NEBO,PAYSON HIGH,19,704,,Regular Education,7,12,1050 S MAIN ST,PAYSON,84651,8014656025,http://www.nebo.edu/phs/,,,,,,
2789,299,NEBO,PAYSON JR HIGH,19,408,,Regular Education,7,9,1025 S HIGHWAY 6,PAYSON,84651,8014656015,http://www.nebo.edu/pjhs/,,,,,,
2790,,,,,,,,,,,,,,,,,,,,
2791,672,NEBO,SPRING LAKE SCHOOL,19,171,,Regular Education,PK,6,1750 S 500 W,PAYSON,84651,8014656070,http://www.nebo.edu/springlake/,,,,,,
2792,,,,,,,,,,,,,,,,,,,,
2793,,,,,,,,,,,,,,,,,,,,
2794,,,,,,,,,,,,,,,,,,,,
2795,390,NEBO,TAYLOR SCHOOL,19,172,,Regular Education,PK,7,40 S 500 W,PAYSON,84651,8014656050,http://www.nebo.edu/taylor/index.html,,,,,,
2796,,,,,,,,,,,,,,,,,,,,
2797,77,NEBO,MT. NEBO JUNIOR HIGH,19,406,,Regular Education,7,10,851 W 450 S,PAYSON,84651,8014656040,http://www.nebo.edu/mnjhs/,,,,,,
2798,294,NEBO,WILSON SCHOOL,19,184,,Regular Education,PK,6,590 W 500 S,PAYSON,84651,8014656060,http://www.nebo.edu/wilson/index.html,,,,,,
2799,,,,,,,,,,,,,,,,,,,,
2800,,,,,,,,,,,,,,,,,,,,
2801,,,,,,,,,,,,,,,,,,,,
2802,,,,,,,,,,,,,,,,,,,,
2803,,,,,,,,,,,,,,,,,,,,
2804,,,,,,,,,,,,,,,,,,,,
2805,,,,,,,,,,,,,,,,,,,,
2806,,,,,,,,,,,,,,,,,,,,
2807,,,,,,,,,,,,,,,,,,,,
2808,,,,,,,,,,,,,,,,,,,,
2809,,,,,,,,,,,,,,,,,,,,
2810,,,,,,,,,,,,,,,,,,,,
2811,,,,,,,,,,,,,,,,,,,,
2812,670,NEBO,CS LEWIS ACADEMY,3E,100,Charter School,Regular Education,K,8,354 N SR 198,SANTAQUIN,84655,8017543376,http://www.cslewisacademy.net/,,,,,,
2813,,,,,,,,,,,,,,,,,,,,
2814,,,,,,,,,,,,,,,,,,,,
2815,,,,,,,,,,,,,,,,,,,,
2816,,,,,,,,,,,,,,,,,,,,
2817,,,,,,,,,,,,,,,,,,,,
2818,,,,,,,,,,,,,,,,,,,,
2819,,,,,,,,,,,,,,,,,,,,
2820,,,,,,,,,,,,,,,,,,,,
2821,,,,,,,,,,,,,,,,,,,,
2822,,,,,,,,,,,,,,,,,,,,
2823,,,,,,,,,,,,,,,,,,,,
2824,796,NEBO,ORCHARD HILLS SCHOOL,19,143,,Regular Education,PK,7,148 E 610 S,SANTAQUIN,84655,8017543237,http://orchardhills.nebo.edu/,,,,,,
2825,,,,,,,,,,,,,,,,,,,,
2826,389,NEBO,SANTAQUIN SCHOOL,19,168,,Regular Education,PK,6,25 S 400 W,SANTAQUIN,84655,8017543611,http://www.nebo.edu/santaquin/index.html,,,,,,
2827,,,,,,,,,,,,,,,,,,,,
2828,,,,,,,,,,,,,,,,,,,,
2829,,,,,,,,,,,,,,,,,,,,
2830,,,,,,,,,,,,,,,,,,,,
2831,,,,,,,,,,,,,,,,,,,,
2832,,,,,,,,,,,,,,,,,,,,
2833,,,,,,,,,,,,,,,,,,,,
2834,,,,,,,,,,,,,,,,,,,,
2835,,,,,,,,,,,,,,,,,,,,
2836,,,,,,,,,,,,,,,,,,,,
2837,,,,,,,,,,,,,,,,,,,,
2838,,,,,,,,,,,,,,,,,,,,
2839,,,,,,,,,,,,,,,,,,,,
2840,,,,,,,,,,,,,,,,,,,,
2841,,,,,,,,,,,,,,,,,,,,
2842,,,,,,,,,,,,,,,,,,,,
2843,,,,,,,,,,,,,,,,,,,,
2844,,,,,,,,,,,,,,,,,,,,
2845,,,,,,,,,,,,,,,,,,,,
2846,,,,,,,,,,,,,,,,,,,,
2847,,,,,,,,,,,,,,,,,,,,
2848,,,,,,,,,,,,,,,,,,,,
2849,,,,,,,,,,,,,,,,,,,,
2850,,,,,,,,,,,,,,,,,,,,
2851,,,,,,,,,,,,,,,,,,,,
2852,,,,,,,,,,,,,,,,,,,,
2853,,,,,,,,,,,,,,,,,,,,
2854,,,,,,,,,,,,,,,,,,,,
2855,,,,,,,,,,,,,,,,,,,,
2856,,,,,,,,,,,,,,,,,,,,
2857,,,,,,,,,,,,,,,,,,,,
2858,,,,,,,,,,,,,,,,,,,,
2859,,,,,,,,,,,,,,,,,,,,
2860,,,,,,,,,,,,,,,,,,,,
2861,,,,,,,,,,,,,,,,,,,,
2862,,,,,,,,,,,,,,,,,,,,
2863,,,,,,,,,,,,,,,,,,,,
2864,290,NEBO,GOSHEN SCHOOL,19,120,,Regular Education,PK,6,60 N CENTER ST,GOSHEN,84633,8016673361,http://goshen.nebo.edu/,,,,,,
2865,,,,,,,,,,,,,,,,,,,,
2866,,,,,,,,,,,,,,,,,,,,
2867,,,,,,,,,,,,,,,,,,,,
2868,,,,,,,,,,,,,,,,,,,,
2869,,,,,,,,,,,,,,,,,,,,
2870,,,,,,,,,,,,,,,,,,,,
2871,,,,,,,,,,,,,,,,,,,,
2872,,,,,,,,,,,,,,,,,,,,
2873,,,,,,,,,,,,,,,,,,,,
2874,,,,,,,,,,,,,,,,,,,,
2875,,,,,,,,,,,,,,,,,,,,
2876,,,,,,,,,,,,,,,,,,,,
2877,,,,,,,,,,,,,,,,,,,,
2878,,,,,,,,,,,,,,,,,,,,
2879,,,,,,,,,,,,,,,,,,,,
2880,372,TINTIC,EUREKA SCHOOL,29,108,,Regular Education,K,6,55 E MAIN ST,EUREKA,84628,4354336927,http://www.tintic.k12.ut.us/ees/,,,,,,
2880,375,TINTIC,TINTIC HIGH,29,704,,Regular Education,7,12,525 E MAIN ST,EUREKA,84628,4354336939,http://www.tintic.k12.ut.us/ths/ths/index.htm,,,,,,
2880,730,TINTIC,TINTIC PRESCHOOL,29,100,,Special Education,PK,,55 E MAIN ST,EUREKA,84628,4354336363,,,,,,,
2881,,,,,,,,,,,,,,,,,,,,
